{
"type": "FeatureCollection",
"name": "gwanak_residential_grid_accessibility_v2",
"crs": { "type": "name", "properties": { "name": "urn:ogc:def:crs:OGC:1.3:CRS84" } },
"features": [
{ "type": "Feature", "properties": { "grid_id": 0, "building_distance_m": 17.689293077365495, "index_right": 71, "node_id": "116585", "origin_snap_distance_m": 3706.0620949964646, "parks_within_10min": 56, "parks_within_15min": 58, "nearest_distance_m": 0.0 }, "geometry": { "type": "Point", "coordinates": [ 126.900505253422352, 37.479715196709279 ] } },
{ "type": "Feature", "properties": { "grid_id": 1, "building_distance_m": 34.673166037041298, "index_right": 71, "node_id": "116585", "origin_snap_distance_m": 3437.76924164714, "parks_within_10min": 56, "parks_within_15min": 58, "nearest_distance_m": 0.0 }, "geometry": { "type": "Point", "coordinates": [ 126.903526016454506, 37.481718539467501 ] } },
{ "type": "Feature", "properties": { "grid_id": 2, "building_distance_m": 49.426315059172524, "index_right": 71, "node_id": "116585", "origin_snap_distance_m": 3438.3556911000201, "parks_within_10min": 56, "parks_within_15min": 58, "nearest_distance_m": 0.0 }, "geometry": { "type": "Point", "coordinates": [ 126.903726617871158, 37.484194458769991 ] } },
{ "type": "Feature", "properties": { "grid_id": 3, "building_distance_m": 13.81357330769316, "index_right": 71, "node_id": "116585", "origin_snap_distance_m": 3205.2315133465204, "parks_within_10min": 56, "parks_within_15min": 58, "nearest_distance_m": 0.0 }, "geometry": { "type": "Point", "coordinates": [ 126.906161480723995, 37.481856562678168 ] } },
{ "type": "Feature", "properties": { "grid_id": 4, "building_distance_m": 16.47935795084064, "index_right": 71, "node_id": "116585", "origin_snap_distance_m": 3253.1222195721239, "parks_within_10min": 56, "parks_within_15min": 58, "nearest_distance_m": 0.0 }, "geometry": { "type": "Point", "coordinates": [ 126.905819480408439, 37.484093309554083 ] } },
{ "type": "Feature", "properties": { "grid_id": 5, "building_distance_m": 1.0061612561937792, "index_right": 71, "node_id": "116585", "origin_snap_distance_m": 2969.9569119617136, "parks_within_10min": 56, "parks_within_15min": 58, "nearest_distance_m": 0.0 }, "geometry": { "type": "Point", "coordinates": [ 126.908823973478675, 37.481874881489098 ] } },
{ "type": "Feature", "properties": { "grid_id": 6, "building_distance_m": 2.1803582962288561, "index_right": 71, "node_id": "116585", "origin_snap_distance_m": 2988.7108464462062, "parks_within_10min": 56, "parks_within_15min": 58, "nearest_distance_m": 0.0 }, "geometry": { "type": "Point", "coordinates": [ 126.908829873270776, 37.484101628906707 ] } },
{ "type": "Feature", "properties": { "grid_id": 7, "building_distance_m": 43.011408966587659, "index_right": 71, "node_id": "116585", "origin_snap_distance_m": 2952.1008931383949, "parks_within_10min": 56, "parks_within_15min": 58, "nearest_distance_m": 0.0 }, "geometry": { "type": "Point", "coordinates": [ 126.911427098562712, 37.470943004517913 ] } },
{ "type": "Feature", "properties": { "grid_id": 8, "building_distance_m": 45.152454465651175, "index_right": 71, "node_id": "116585", "origin_snap_distance_m": 2817.2839779708247, "parks_within_10min": 56, "parks_within_15min": 58, "nearest_distance_m": 0.0 }, "geometry": { "type": "Point", "coordinates": [ 126.912178312366734, 37.472828165231356 ] } },
{ "type": "Feature", "properties": { "grid_id": 9, "building_distance_m": 109.08378984611404, "index_right": 71, "node_id": "116585", "origin_snap_distance_m": 2727.1052561788479, "parks_within_10min": 56, "parks_within_15min": 58, "nearest_distance_m": 0.0 }, "geometry": { "type": "Point", "coordinates": [ 126.912161377931099, 37.476013714043248 ] } },
{ "type": "Feature", "properties": { "grid_id": 10, "building_distance_m": 19.386378433695189, "index_right": 71, "node_id": "116585", "origin_snap_distance_m": 2711.2388761620368, "parks_within_10min": 56, "parks_within_15min": 58, "nearest_distance_m": 0.0 }, "geometry": { "type": "Point", "coordinates": [ 126.911758705121002, 37.479774961589129 ] } },
{ "type": "Feature", "properties": { "grid_id": 11, "building_distance_m": 8.9948269325778689, "index_right": 71, "node_id": "116585", "origin_snap_distance_m": 2712.5550868673026, "parks_within_10min": 56, "parks_within_15min": 58, "nearest_distance_m": 0.0 }, "geometry": { "type": "Point", "coordinates": [ 126.911738741958573, 37.48192110971759 ] } },
{ "type": "Feature", "properties": { "grid_id": 12, "building_distance_m": 10.081829687831419, "index_right": 71, "node_id": "116585", "origin_snap_distance_m": 2731.0385647303119, "parks_within_10min": 56, "parks_within_15min": 58, "nearest_distance_m": 0.0 }, "geometry": { "type": "Point", "coordinates": [ 126.911765420325906, 37.484097259280759 ] } },
{ "type": "Feature", "properties": { "grid_id": 13, "building_distance_m": 60.212756427297514, "index_right": 71, "node_id": "116585", "origin_snap_distance_m": 2750.1176510482237, "parks_within_10min": 56, "parks_within_15min": 58, "nearest_distance_m": 0.0 }, "geometry": { "type": "Point", "coordinates": [ 126.911922303175643, 37.485877456892233 ] } },
{ "type": "Feature", "properties": { "grid_id": 14, "building_distance_m": 81.207607292988826, "index_right": 183, "node_id": "116588", "origin_snap_distance_m": 3353.8038386987168, "parks_within_10min": 56, "parks_within_15min": 58, "nearest_distance_m": 0.0 }, "geometry": { "type": "Point", "coordinates": [ 126.914952728582165, 37.459989181721497 ] } },
{ "type": "Feature", "properties": { "grid_id": 15, "building_distance_m": 51.807613413592939, "index_right": 183, "node_id": "116588", "origin_snap_distance_m": 3229.6671257104131, "parks_within_10min": 56, "parks_within_15min": 58, "nearest_distance_m": 0.0 }, "geometry": { "type": "Point", "coordinates": [ 126.915088128410531, 37.461533511899702 ] } },
{ "type": "Feature", "properties": { "grid_id": 16, "building_distance_m": 34.852044140318448, "index_right": 183, "node_id": "116588", "origin_snap_distance_m": 3113.8187548448682, "parks_within_10min": 56, "parks_within_15min": 58, "nearest_distance_m": 0.0 }, "geometry": { "type": "Point", "coordinates": [ 126.914680391273819, 37.463571221277377 ] } },
{ "type": "Feature", "properties": { "grid_id": 17, "building_distance_m": 165.24467750752575, "index_right": 71, "node_id": "116585", "origin_snap_distance_m": 2600.624660685553, "parks_within_10min": 56, "parks_within_15min": 58, "nearest_distance_m": 0.0 }, "geometry": { "type": "Point", "coordinates": [ 126.916264809448265, 37.470126284562205 ] } },
{ "type": "Feature", "properties": { "grid_id": 18, "building_distance_m": 20.031300327714391, "index_right": 71, "node_id": "116585", "origin_snap_distance_m": 2603.5860035637666, "parks_within_10min": 56, "parks_within_15min": 58, "nearest_distance_m": 0.0 }, "geometry": { "type": "Point", "coordinates": [ 126.914669735940336, 37.47297840007208 ] } },
{ "type": "Feature", "properties": { "grid_id": 19, "building_distance_m": 7.5188206389513361, "index_right": 71, "node_id": "116585", "origin_snap_distance_m": 2556.0360295624491, "parks_within_10min": 56, "parks_within_15min": 58, "nearest_distance_m": 0.0 }, "geometry": { "type": "Point", "coordinates": [ 126.914412446671662, 37.475094184584805 ] } },
{ "type": "Feature", "properties": { "grid_id": 20, "building_distance_m": 11.259258416604125, "index_right": 71, "node_id": "116585", "origin_snap_distance_m": 2489.5623343742645, "parks_within_10min": 56, "parks_within_15min": 58, "nearest_distance_m": 0.0 }, "geometry": { "type": "Point", "coordinates": [ 126.914594428059885, 37.477309251773491 ] } },
{ "type": "Feature", "properties": { "grid_id": 21, "building_distance_m": 8.188892006103055, "index_right": 71, "node_id": "116585", "origin_snap_distance_m": 2477.855478063781, "parks_within_10min": 56, "parks_within_15min": 58, "nearest_distance_m": 0.0 }, "geometry": { "type": "Point", "coordinates": [ 126.91441397339949, 37.479576183538001 ] } },
{ "type": "Feature", "properties": { "grid_id": 22, "building_distance_m": 66.897387672404847, "index_right": 71, "node_id": "116585", "origin_snap_distance_m": 2443.2659865409023, "parks_within_10min": 56, "parks_within_15min": 58, "nearest_distance_m": 0.0 }, "geometry": { "type": "Point", "coordinates": [ 126.91482213327636, 37.482412727950894 ] } },
{ "type": "Feature", "properties": { "grid_id": 23, "building_distance_m": 3.2596059650221139, "index_right": 71, "node_id": "116585", "origin_snap_distance_m": 2490.2936740182668, "parks_within_10min": 56, "parks_within_15min": 58, "nearest_distance_m": 0.0 }, "geometry": { "type": "Point", "coordinates": [ 126.914519165571534, 37.484130723263426 ] } },
{ "type": "Feature", "properties": { "grid_id": 24, "building_distance_m": 8.6121885793382589, "index_right": 71, "node_id": "116585", "origin_snap_distance_m": 2534.3228363578028, "parks_within_10min": 56, "parks_within_15min": 58, "nearest_distance_m": 0.0 }, "geometry": { "type": "Point", "coordinates": [ 126.914548474043798, 37.486322587593641 ] } },
{ "type": "Feature", "properties": { "grid_id": 25, "building_distance_m": 82.66599485473175, "index_right": 183, "node_id": "116588", "origin_snap_distance_m": 3268.2338248236483, "parks_within_10min": 56, "parks_within_15min": 58, "nearest_distance_m": 0.0 }, "geometry": { "type": "Point", "coordinates": [ 126.917913849684098, 37.458763924267942 ] } },
{ "type": "Feature", "properties": { "grid_id": 26, "building_distance_m": 86.605734214109503, "index_right": 183, "node_id": "116588", "origin_snap_distance_m": 3040.5791005043202, "parks_within_10min": 56, "parks_within_15min": 58, "nearest_distance_m": 0.0 }, "geometry": { "type": "Point", "coordinates": [ 126.918252237699519, 37.461331066768523 ] } },
{ "type": "Feature", "properties": { "grid_id": 27, "building_distance_m": 5.1564017486571991, "index_right": 183, "node_id": "116588", "origin_snap_distance_m": 2912.9067979355168, "parks_within_10min": 56, "parks_within_15min": 58, "nearest_distance_m": 0.0 }, "geometry": { "type": "Point", "coordinates": [ 126.917282224691775, 37.46387914917446 ] } },
{ "type": "Feature", "properties": { "grid_id": 28, "building_distance_m": 26.887746220396124, "index_right": 71, "node_id": "116585", "origin_snap_distance_m": 2751.9097213571858, "parks_within_10min": 56, "parks_within_15min": 58, "nearest_distance_m": 0.0 }, "geometry": { "type": "Point", "coordinates": [ 126.917555581139069, 37.465945516034779 ] } },
{ "type": "Feature", "properties": { "grid_id": 29, "building_distance_m": 135.44863306021028, "index_right": 71, "node_id": "116585", "origin_snap_distance_m": 2512.6658518898785, "parks_within_10min": 56, "parks_within_15min": 58, "nearest_distance_m": 0.0 }, "geometry": { "type": "Point", "coordinates": [ 126.91781937843389, 37.469515416474614 ] } },
{ "type": "Feature", "properties": { "grid_id": 30, "building_distance_m": 7.0548306079025815, "index_right": 71, "node_id": "116585", "origin_snap_distance_m": 2498.2293871735938, "parks_within_10min": 56, "parks_within_15min": 58, "nearest_distance_m": 0.0 }, "geometry": { "type": "Point", "coordinates": [ 126.917289685815504, 37.470555166192128 ] } },
{ "type": "Feature", "properties": { "grid_id": 31, "building_distance_m": 12.125761946538331, "index_right": 71, "node_id": "116585", "origin_snap_distance_m": 2382.6019912074253, "parks_within_10min": 56, "parks_within_15min": 58, "nearest_distance_m": 0.0 }, "geometry": { "type": "Point", "coordinates": [ 126.917342247612325, 37.472972955904886 ] } },
{ "type": "Feature", "properties": { "grid_id": 32, "building_distance_m": 4.650351948278221, "index_right": 71, "node_id": "116585", "origin_snap_distance_m": 2311.9045801789362, "parks_within_10min": 56, "parks_within_15min": 58, "nearest_distance_m": 0.0 }, "geometry": { "type": "Point", "coordinates": [ 126.917273487997434, 37.475097109564018 ] } },
{ "type": "Feature", "properties": { "grid_id": 33, "building_distance_m": 3.9429403739064521, "index_right": 71, "node_id": "116585", "origin_snap_distance_m": 2252.8537497111556, "parks_within_10min": 56, "parks_within_15min": 58, "nearest_distance_m": 0.0 }, "geometry": { "type": "Point", "coordinates": [ 126.917289418395157, 37.477397870829947 ] } },
{ "type": "Feature", "properties": { "grid_id": 34, "building_distance_m": 74.200831126688172, "index_right": 71, "node_id": "116585", "origin_snap_distance_m": 2294.8397322201204, "parks_within_10min": 56, "parks_within_15min": 58, "nearest_distance_m": 0.0 }, "geometry": { "type": "Point", "coordinates": [ 126.916495072040817, 37.47947925274574 ] } },
{ "type": "Feature", "properties": { "grid_id": 35, "building_distance_m": 11.956043039453254, "index_right": 71, "node_id": "116585", "origin_snap_distance_m": 2231.2389257785426, "parks_within_10min": 56, "parks_within_15min": 58, "nearest_distance_m": 0.0 }, "geometry": { "type": "Point", "coordinates": [ 126.917186017525523, 37.481914004587374 ] } },
{ "type": "Feature", "properties": { "grid_id": 36, "building_distance_m": 6.1896851544308422, "index_right": 71, "node_id": "116585", "origin_snap_distance_m": 2240.1908751639626, "parks_within_10min": 56, "parks_within_15min": 58, "nearest_distance_m": 0.0 }, "geometry": { "type": "Point", "coordinates": [ 126.917379518438594, 37.48412699699557 ] } },
{ "type": "Feature", "properties": { "grid_id": 37, "building_distance_m": 2.9026591533579031, "index_right": 24, "node_id": "116582", "origin_snap_distance_m": 2297.0383982019684, "parks_within_10min": 56, "parks_within_15min": 60, "nearest_distance_m": 0.0 }, "geometry": { "type": "Point", "coordinates": [ 126.917331765834788, 37.486362819374321 ] } },
{ "type": "Feature", "properties": { "grid_id": 38, "building_distance_m": 8.3549667639415048, "index_right": 24, "node_id": "116582", "origin_snap_distance_m": 2382.324133549489, "parks_within_10min": 56, "parks_within_15min": 60, "nearest_distance_m": 0.0 }, "geometry": { "type": "Point", "coordinates": [ 126.91721176516279, 37.488618477651869 ] } },
{ "type": "Feature", "properties": { "grid_id": 39, "building_distance_m": 87.597617454072335, "index_right": 183, "node_id": "116588", "origin_snap_distance_m": 3207.5493850683979, "parks_within_10min": 56, "parks_within_15min": 58, "nearest_distance_m": 0.0 }, "geometry": { "type": "Point", "coordinates": [ 126.920314861269844, 37.457879327292616 ] } },
{ "type": "Feature", "properties": { "grid_id": 40, "building_distance_m": 11.167968565365388, "index_right": 183, "node_id": "116588", "origin_snap_distance_m": 3077.6586833174433, "parks_within_10min": 56, "parks_within_15min": 58, "nearest_distance_m": 0.0 }, "geometry": { "type": "Point", "coordinates": [ 126.920229912411855, 37.459436785007284 ] } },
{ "type": "Feature", "properties": { "grid_id": 41, "building_distance_m": 25.084108214787577, "index_right": 183, "node_id": "116588", "origin_snap_distance_m": 2924.5485685751273, "parks_within_10min": 56, "parks_within_15min": 58, "nearest_distance_m": 0.0 }, "geometry": { "type": "Point", "coordinates": [ 126.92006350437515, 37.461391743686789 ] } },
{ "type": "Feature", "properties": { "grid_id": 43, "building_distance_m": 21.935556484567694, "index_right": 183, "node_id": "116588", "origin_snap_distance_m": 2537.5350008589116, "parks_within_10min": 56, "parks_within_15min": 58, "nearest_distance_m": 0.0 }, "geometry": { "type": "Point", "coordinates": [ 126.920365490571356, 37.466214185724652 ] } },
{ "type": "Feature", "properties": { "grid_id": 44, "building_distance_m": 13.685102085154659, "index_right": 71, "node_id": "116585", "origin_snap_distance_m": 2394.4362292527621, "parks_within_10min": 56, "parks_within_15min": 58, "nearest_distance_m": 0.0 }, "geometry": { "type": "Point", "coordinates": [ 126.920274017280875, 37.468438565480177 ] } },
{ "type": "Feature", "properties": { "grid_id": 45, "building_distance_m": 48.198569050411209, "index_right": 71, "node_id": "116585", "origin_snap_distance_m": 2226.3764049911433, "parks_within_10min": 56, "parks_within_15min": 58, "nearest_distance_m": 0.0 }, "geometry": { "type": "Point", "coordinates": [ 126.920540920109318, 37.470917296544506 ] } },
{ "type": "Feature", "properties": { "grid_id": 46, "building_distance_m": 8.8241326290838522, "index_right": 71, "node_id": "116585", "origin_snap_distance_m": 2151.9728053931512, "parks_within_10min": 56, "parks_within_15min": 58, "nearest_distance_m": 0.0 }, "geometry": { "type": "Point", "coordinates": [ 126.920244032373731, 37.47284487757792 ] } },
{ "type": "Feature", "properties": { "grid_id": 47, "building_distance_m": 12.202024681493622, "index_right": 71, "node_id": "116585", "origin_snap_distance_m": 2062.8428054625056, "parks_within_10min": 56, "parks_within_15min": 58, "nearest_distance_m": 0.0 }, "geometry": { "type": "Point", "coordinates": [ 126.920166680381627, 37.47522804352527 ] } },
{ "type": "Feature", "properties": { "grid_id": 48, "building_distance_m": 9.0289445148092931, "index_right": 71, "node_id": "116585", "origin_snap_distance_m": 1996.4213212119957, "parks_within_10min": 56, "parks_within_15min": 58, "nearest_distance_m": 0.0 }, "geometry": { "type": "Point", "coordinates": [ 126.920236402412314, 37.47740537217517 ] } },
{ "type": "Feature", "properties": { "grid_id": 49, "building_distance_m": 152.65731388883782, "index_right": 71, "node_id": "116585", "origin_snap_distance_m": 2006.4265695040119, "parks_within_10min": 56, "parks_within_15min": 58, "nearest_distance_m": 0.0 }, "geometry": { "type": "Point", "coordinates": [ 126.91969531741529, 37.480953229057867 ] } },
{ "type": "Feature", "properties": { "grid_id": 50, "building_distance_m": 6.1201094440416268, "index_right": 71, "node_id": "116585", "origin_snap_distance_m": 1970.6869911330202, "parks_within_10min": 56, "parks_within_15min": 58, "nearest_distance_m": 0.0 }, "geometry": { "type": "Point", "coordinates": [ 126.920129853877071, 37.48182223412109 ] } },
{ "type": "Feature", "properties": { "grid_id": 51, "building_distance_m": 9.3574915480667809, "index_right": 71, "node_id": "116585", "origin_snap_distance_m": 1997.3730475853306, "parks_within_10min": 56, "parks_within_15min": 58, "nearest_distance_m": 0.0 }, "geometry": { "type": "Point", "coordinates": [ 126.920183453925873, 37.484204882876604 ] } },
{ "type": "Feature", "properties": { "grid_id": 52, "building_distance_m": 5.3740155682549249, "index_right": 24, "node_id": "116582", "origin_snap_distance_m": 2063.983075388162, "parks_within_10min": 56, "parks_within_15min": 60, "nearest_distance_m": 0.0 }, "geometry": { "type": "Point", "coordinates": [ 126.92008020787712, 37.486404826618163 ] } },
{ "type": "Feature", "properties": { "grid_id": 53, "building_distance_m": 2.0830640593143905, "index_right": 24, "node_id": "116582", "origin_snap_distance_m": 2140.7639362808754, "parks_within_10min": 56, "parks_within_15min": 60, "nearest_distance_m": 0.0 }, "geometry": { "type": "Point", "coordinates": [ 126.920154738144319, 37.488632073662075 ] } },
{ "type": "Feature", "properties": { "grid_id": 54, "building_distance_m": 93.460648615553154, "index_right": 183, "node_id": "116588", "origin_snap_distance_m": 2959.9444515193409, "parks_within_10min": 56, "parks_within_15min": 58, "nearest_distance_m": 0.0 }, "geometry": { "type": "Point", "coordinates": [ 126.922003598320501, 37.459658576971464 ] } },
{ "type": "Feature", "properties": { "grid_id": 55, "building_distance_m": 88.878076360065194, "index_right": 183, "node_id": "116588", "origin_snap_distance_m": 2825.3051927761258, "parks_within_10min": 56, "parks_within_15min": 58, "nearest_distance_m": 0.0 }, "geometry": { "type": "Point", "coordinates": [ 126.922287072138133, 37.46103082392198 ] } },
{ "type": "Feature", "properties": { "grid_id": 56, "building_distance_m": 101.29322360566384, "index_right": 183, "node_id": "116588", "origin_snap_distance_m": 2397.9450071230926, "parks_within_10min": 56, "parks_within_15min": 58, "nearest_distance_m": 0.0 }, "geometry": { "type": "Point", "coordinates": [ 126.922016692469469, 37.466602861901485 ] } },
{ "type": "Feature", "properties": { "grid_id": 57, "building_distance_m": 6.4958413200221008, "index_right": 183, "node_id": "116588", "origin_snap_distance_m": 2214.1468563560984, "parks_within_10min": 56, "parks_within_15min": 58, "nearest_distance_m": 0.0 }, "geometry": { "type": "Point", "coordinates": [ 126.922912550581216, 37.468338770205897 ] } },
{ "type": "Feature", "properties": { "grid_id": 58, "building_distance_m": 22.189381362821305, "index_right": 71, "node_id": "116585", "origin_snap_distance_m": 2076.6299793700027, "parks_within_10min": 56, "parks_within_15min": 58, "nearest_distance_m": 0.0 }, "geometry": { "type": "Point", "coordinates": [ 126.922921884903758, 37.470421103583107 ] } },
{ "type": "Feature", "properties": { "grid_id": 59, "building_distance_m": 8.7796123506791783, "index_right": 71, "node_id": "116585", "origin_snap_distance_m": 1938.8296237118516, "parks_within_10min": 56, "parks_within_15min": 58, "nearest_distance_m": 0.0 }, "geometry": { "type": "Point", "coordinates": [ 126.922958966611873, 37.472790580380725 ] } },
{ "type": "Feature", "properties": { "grid_id": 60, "building_distance_m": 6.5744514833705097, "index_right": 71, "node_id": "116585", "origin_snap_distance_m": 1827.4270046331062, "parks_within_10min": 56, "parks_within_15min": 58, "nearest_distance_m": 0.0 }, "geometry": { "type": "Point", "coordinates": [ 126.923004386463916, 37.475174591885065 ] } },
{ "type": "Feature", "properties": { "grid_id": 62, "building_distance_m": 47.026619905969667, "index_right": 71, "node_id": "116585", "origin_snap_distance_m": 1676.3231141892293, "parks_within_10min": 56, "parks_within_15min": 58, "nearest_distance_m": 0.0 }, "geometry": { "type": "Point", "coordinates": [ 126.923497503264343, 37.479593283615046 ] } },
{ "type": "Feature", "properties": { "grid_id": 63, "building_distance_m": 7.0153652058669564, "index_right": 71, "node_id": "116585", "origin_snap_distance_m": 1716.9518377519553, "parks_within_10min": 56, "parks_within_15min": 58, "nearest_distance_m": 0.0 }, "geometry": { "type": "Point", "coordinates": [ 126.923011787191314, 37.481929929996106 ] } },
{ "type": "Feature", "properties": { "grid_id": 64, "building_distance_m": 6.1979422376773412, "index_right": 71, "node_id": "116585", "origin_snap_distance_m": 1759.4108875112174, "parks_within_10min": 56, "parks_within_15min": 58, "nearest_distance_m": 0.0 }, "geometry": { "type": "Point", "coordinates": [ 126.922919362968187, 37.484175145332983 ] } },
{ "type": "Feature", "properties": { "grid_id": 65, "building_distance_m": 12.557599532663376, "index_right": 24, "node_id": "116582", "origin_snap_distance_m": 1829.2512056160167, "parks_within_10min": 56, "parks_within_15min": 60, "nearest_distance_m": 0.0 }, "geometry": { "type": "Point", "coordinates": [ 126.922832733836884, 37.486334502745812 ] } },
{ "type": "Feature", "properties": { "grid_id": 66, "building_distance_m": 1.5453179926660414, "index_right": 24, "node_id": "116582", "origin_snap_distance_m": 1914.7458930011278, "parks_within_10min": 56, "parks_within_15min": 60, "nearest_distance_m": 0.0 }, "geometry": { "type": "Point", "coordinates": [ 126.922966408082459, 37.488648658156229 ] } },
{ "type": "Feature", "properties": { "grid_id": 69, "building_distance_m": 38.511096806176425, "index_right": 183, "node_id": "116588", "origin_snap_distance_m": 2622.4332911954257, "parks_within_10min": 56, "parks_within_15min": 58, "nearest_distance_m": 0.0 }, "geometry": { "type": "Point", "coordinates": [ 126.925465701636597, 37.461397377195183 ] } },
{ "type": "Feature", "properties": { "grid_id": 70, "building_distance_m": 25.062466555965862, "index_right": 183, "node_id": "116588", "origin_snap_distance_m": 2365.1135540319256, "parks_within_10min": 56, "parks_within_15min": 58, "nearest_distance_m": 0.0 }, "geometry": { "type": "Point", "coordinates": [ 126.926083031781801, 37.463919196298953 ] } },
{ "type": "Feature", "properties": { "grid_id": 71, "building_distance_m": 116.96671157024261, "index_right": 183, "node_id": "116588", "origin_snap_distance_m": 2150.719139777641, "parks_within_10min": 56, "parks_within_15min": 58, "nearest_distance_m": 0.0 }, "geometry": { "type": "Point", "coordinates": [ 126.927058554199149, 37.465772509758217 ] } },
{ "type": "Feature", "properties": { "grid_id": 72, "building_distance_m": 49.805434893395208, "index_right": 183, "node_id": "116588", "origin_snap_distance_m": 2059.6953101322874, "parks_within_10min": 56, "parks_within_15min": 58, "nearest_distance_m": 0.0 }, "geometry": { "type": "Point", "coordinates": [ 126.925250716381427, 37.468286990503756 ] } },
{ "type": "Feature", "properties": { "grid_id": 73, "building_distance_m": 80.13512599004946, "index_right": 183, "node_id": "116588", "origin_snap_distance_m": 1937.237673717382, "parks_within_10min": 56, "parks_within_15min": 58, "nearest_distance_m": 0.0 }, "geometry": { "type": "Point", "coordinates": [ 126.925064121801654, 37.470200073509346 ] } },
{ "type": "Feature", "properties": { "grid_id": 74, "building_distance_m": 170.5584212420442, "index_right": 71, "node_id": "116585", "origin_snap_distance_m": 1733.4740134147587, "parks_within_10min": 56, "parks_within_15min": 58, "nearest_distance_m": 0.0 }, "geometry": { "type": "Point", "coordinates": [ 126.924708556279867, 37.474137054279204 ] } },
{ "type": "Feature", "properties": { "grid_id": 75, "building_distance_m": 13.838927965645123, "index_right": 71, "node_id": "116585", "origin_snap_distance_m": 1606.841022146067, "parks_within_10min": 56, "parks_within_15min": 58, "nearest_distance_m": 0.0 }, "geometry": { "type": "Point", "coordinates": [ 126.92567537351573, 37.475200122772733 ] } },
{ "type": "Feature", "properties": { "grid_id": 76, "building_distance_m": 32.574149950255055, "index_right": 71, "node_id": "116585", "origin_snap_distance_m": 1485.7426569837833, "parks_within_10min": 56, "parks_within_15min": 58, "nearest_distance_m": 0.0 }, "geometry": { "type": "Point", "coordinates": [ 126.926130381560981, 37.477498798394151 ] } },
{ "type": "Feature", "properties": { "grid_id": 77, "building_distance_m": 1.1568867128125959, "index_right": 71, "node_id": "116585", "origin_snap_distance_m": 1474.7702355927258, "parks_within_10min": 56, "parks_within_15min": 58, "nearest_distance_m": 0.0 }, "geometry": { "type": "Point", "coordinates": [ 126.925781301311602, 37.479630868076569 ] } },
{ "type": "Feature", "properties": { "grid_id": 78, "building_distance_m": 1.9009959735731961, "index_right": 71, "node_id": "116585", "origin_snap_distance_m": 1469.4194866164116, "parks_within_10min": 56, "parks_within_15min": 58, "nearest_distance_m": 0.0 }, "geometry": { "type": "Point", "coordinates": [ 126.92581315863815, 37.481881341972375 ] } },
{ "type": "Feature", "properties": { "grid_id": 79, "building_distance_m": 40.165044026393062, "index_right": 71, "node_id": "116585", "origin_snap_distance_m": 1547.2564349591128, "parks_within_10min": 56, "parks_within_15min": 58, "nearest_distance_m": 0.0 }, "geometry": { "type": "Point", "coordinates": [ 126.925344603923122, 37.484060373901045 ] } },
{ "type": "Feature", "properties": { "grid_id": 80, "building_distance_m": 22.845785134663604, "index_right": 24, "node_id": "116582", "origin_snap_distance_m": 1573.3589009288487, "parks_within_10min": 56, "parks_within_15min": 60, "nearest_distance_m": 0.0 }, "geometry": { "type": "Point", "coordinates": [ 126.925834698160415, 37.486183325128984 ] } },
{ "type": "Feature", "properties": { "grid_id": 81, "building_distance_m": 19.188414261402031, "index_right": 24, "node_id": "116582", "origin_snap_distance_m": 1673.9651807769392, "parks_within_10min": 56, "parks_within_15min": 60, "nearest_distance_m": 0.0 }, "geometry": { "type": "Point", "coordinates": [ 126.925982717983331, 37.488566985064139 ] } },
{ "type": "Feature", "properties": { "grid_id": 82, "building_distance_m": 15.367420602057623, "index_right": 24, "node_id": "116582", "origin_snap_distance_m": 1821.091617948462, "parks_within_10min": 56, "parks_within_15min": 60, "nearest_distance_m": 0.0 }, "geometry": { "type": "Point", "coordinates": [ 126.925942344465426, 37.490945510156266 ] } },
{ "type": "Feature", "properties": { "grid_id": 83, "building_distance_m": 74.328238016396696, "index_right": 473, "node_id": "116544", "origin_snap_distance_m": 2595.8280150523897, "parks_within_10min": 57, "parks_within_15min": 60, "nearest_distance_m": 0.0 }, "geometry": { "type": "Point", "coordinates": [ 126.928864448356876, 37.460002404158303 ] } },
{ "type": "Feature", "properties": { "grid_id": 84, "building_distance_m": 77.445906211854819, "index_right": 183, "node_id": "116588", "origin_snap_distance_m": 2518.6111791257285, "parks_within_10min": 56, "parks_within_15min": 58, "nearest_distance_m": 0.0 }, "geometry": { "type": "Point", "coordinates": [ 126.92862852817585, 37.460911885343442 ] } },
{ "type": "Feature", "properties": { "grid_id": 86, "building_distance_m": 23.222511296204491, "index_right": 183, "node_id": "116588", "origin_snap_distance_m": 2011.715769415141, "parks_within_10min": 56, "parks_within_15min": 58, "nearest_distance_m": 0.0 }, "geometry": { "type": "Point", "coordinates": [ 126.92883377018758, 37.466249719177036 ] } },
{ "type": "Feature", "properties": { "grid_id": 87, "building_distance_m": 7.9692650412827231, "index_right": 183, "node_id": "116588", "origin_snap_distance_m": 1840.7635212627827, "parks_within_10min": 56, "parks_within_15min": 58, "nearest_distance_m": 0.0 }, "geometry": { "type": "Point", "coordinates": [ 126.928704939847179, 37.468326101338924 ] } },
{ "type": "Feature", "properties": { "grid_id": 88, "building_distance_m": 0.83665590342947604, "index_right": 183, "node_id": "116588", "origin_snap_distance_m": 1663.6532770951765, "parks_within_10min": 56, "parks_within_15min": 58, "nearest_distance_m": 0.0 }, "geometry": { "type": "Point", "coordinates": [ 126.928632056013896, 37.470626871808939 ] } },
{ "type": "Feature", "properties": { "grid_id": 89, "building_distance_m": 129.31500843843679, "index_right": 183, "node_id": "116588", "origin_snap_distance_m": 1440.8931603604481, "parks_within_10min": 56, "parks_within_15min": 58, "nearest_distance_m": 0.0 }, "geometry": { "type": "Point", "coordinates": [ 126.929986916105719, 37.472445135203607 ] } },
{ "type": "Feature", "properties": { "grid_id": 90, "building_distance_m": 58.606517896421167, "index_right": 71, "node_id": "116585", "origin_snap_distance_m": 1345.987286845726, "parks_within_10min": 56, "parks_within_15min": 58, "nearest_distance_m": 0.0 }, "geometry": { "type": "Point", "coordinates": [ 126.928655098341423, 37.475652292091993 ] } },
{ "type": "Feature", "properties": { "grid_id": 91, "building_distance_m": 8.7437980403176603, "index_right": 71, "node_id": "116585", "origin_snap_distance_m": 1282.9962972596265, "parks_within_10min": 56, "parks_within_15min": 58, "nearest_distance_m": 0.0 }, "geometry": { "type": "Point", "coordinates": [ 126.928590796066842, 37.477302707758014 ] } },
{ "type": "Feature", "properties": { "grid_id": 92, "building_distance_m": 4.0621137688944353, "index_right": 71, "node_id": "116585", "origin_snap_distance_m": 1224.2091652716401, "parks_within_10min": 56, "parks_within_15min": 58, "nearest_distance_m": 0.0 }, "geometry": { "type": "Point", "coordinates": [ 126.928634822906091, 37.479595099780013 ] } },
{ "type": "Feature", "properties": { "grid_id": 93, "building_distance_m": 42.584931968483893, "index_right": 71, "node_id": "116585", "origin_snap_distance_m": 1264.4049993564345, "parks_within_10min": 56, "parks_within_15min": 58, "nearest_distance_m": 0.0 }, "geometry": { "type": "Point", "coordinates": [ 126.928137139141612, 37.481867243716025 ] } },
{ "type": "Feature", "properties": { "grid_id": 94, "building_distance_m": 70.718525147525526, "index_right": 24, "node_id": "116582", "origin_snap_distance_m": 1320.143068987494, "parks_within_10min": 56, "parks_within_15min": 60, "nearest_distance_m": 0.0 }, "geometry": { "type": "Point", "coordinates": [ 126.928214092609849, 37.484685677170859 ] } },
{ "type": "Feature", "properties": { "grid_id": 95, "building_distance_m": 21.418538185349892, "index_right": 24, "node_id": "116582", "origin_snap_distance_m": 1335.4998319304068, "parks_within_10min": 56, "parks_within_15min": 60, "nearest_distance_m": 0.0 }, "geometry": { "type": "Point", "coordinates": [ 126.928854040349705, 37.486362100448119 ] } },
{ "type": "Feature", "properties": { "grid_id": 96, "building_distance_m": 63.765804743629865, "index_right": 24, "node_id": "116582", "origin_snap_distance_m": 1536.3133567717216, "parks_within_10min": 56, "parks_within_15min": 60, "nearest_distance_m": 0.0 }, "geometry": { "type": "Point", "coordinates": [ 126.927893351296674, 37.488688262867406 ] } },
{ "type": "Feature", "properties": { "grid_id": 97, "building_distance_m": 9.2434325083394526, "index_right": 24, "node_id": "116582", "origin_snap_distance_m": 1625.0747816035419, "parks_within_10min": 56, "parks_within_15min": 60, "nearest_distance_m": 0.0 }, "geometry": { "type": "Point", "coordinates": [ 126.928664467721859, 37.490821520768293 ] } },
{ "type": "Feature", "properties": { "grid_id": 98, "building_distance_m": 14.547696909050842, "index_right": 137, "node_id": "213876", "origin_snap_distance_m": 1798.9180862661842, "parks_within_10min": 56, "parks_within_15min": 60, "nearest_distance_m": 0.0 }, "geometry": { "type": "Point", "coordinates": [ 126.928503208736927, 37.49304360289932 ] } },
{ "type": "Feature", "properties": { "grid_id": 99, "building_distance_m": 126.95639357657794, "index_right": 319, "node_id": "120141", "origin_snap_distance_m": 2418.7870247021169, "parks_within_10min": 7, "parks_within_15min": 10, "nearest_distance_m": 0.0 }, "geometry": { "type": "Point", "coordinates": [ 126.932753699403804, 37.459862534390879 ] } },
{ "type": "Feature", "properties": { "grid_id": 100, "building_distance_m": 7.8481855683212842, "index_right": 473, "node_id": "116544", "origin_snap_distance_m": 2324.0165328163207, "parks_within_10min": 57, "parks_within_15min": 60, "nearest_distance_m": 0.0 }, "geometry": { "type": "Point", "coordinates": [ 126.93155175499966, 37.46160588054088 ] } },
{ "type": "Feature", "properties": { "grid_id": 101, "building_distance_m": 9.6071096302636398, "index_right": 473, "node_id": "116544", "origin_snap_distance_m": 2100.7723466533012, "parks_within_10min": 57, "parks_within_15min": 60, "nearest_distance_m": 0.0 }, "geometry": { "type": "Point", "coordinates": [ 126.93149770855436, 37.463945383270804 ] } },
{ "type": "Feature", "properties": { "grid_id": 102, "building_distance_m": 39.364701997831219, "index_right": 183, "node_id": "116588", "origin_snap_distance_m": 1921.3006210517337, "parks_within_10min": 56, "parks_within_15min": 58, "nearest_distance_m": 0.0 }, "geometry": { "type": "Point", "coordinates": [ 126.931026562007659, 37.46603342855731 ] } },
{ "type": "Feature", "properties": { "grid_id": 103, "building_distance_m": 26.342307262471373, "index_right": 183, "node_id": "116588", "origin_snap_distance_m": 1673.5639860566453, "parks_within_10min": 56, "parks_within_15min": 58, "nearest_distance_m": 0.0 }, "geometry": { "type": "Point", "coordinates": [ 126.931750161068933, 37.468326645387521 ] } },
{ "type": "Feature", "properties": { "grid_id": 104, "building_distance_m": 14.232356571756627, "index_right": 183, "node_id": "116588", "origin_snap_distance_m": 1494.9072908403207, "parks_within_10min": 56, "parks_within_15min": 58, "nearest_distance_m": 0.0 }, "geometry": { "type": "Point", "coordinates": [ 126.931300371507959, 37.470656621291063 ] } },
{ "type": "Feature", "properties": { "grid_id": 105, "building_distance_m": 51.980297695183367, "index_right": 183, "node_id": "116588", "origin_snap_distance_m": 1272.0323655099785, "parks_within_10min": 56, "parks_within_15min": 58, "nearest_distance_m": 0.0 }, "geometry": { "type": "Point", "coordinates": [ 126.93153886017717, 37.473337273225205 ] } },
{ "type": "Feature", "properties": { "grid_id": 106, "building_distance_m": 42.357932543864116, "index_right": 71, "node_id": "116585", "origin_snap_distance_m": 1140.0721411028571, "parks_within_10min": 56, "parks_within_15min": 58, "nearest_distance_m": 0.0 }, "geometry": { "type": "Point", "coordinates": [ 126.93140288907064, 37.475506193007256 ] } },
{ "type": "Feature", "properties": { "grid_id": 107, "building_distance_m": 3.5044016718862951, "index_right": 71, "node_id": "116585", "origin_snap_distance_m": 1039.4544989849869, "parks_within_10min": 56, "parks_within_15min": 58, "nearest_distance_m": 0.0 }, "geometry": { "type": "Point", "coordinates": [ 126.931487935219351, 37.477373543375244 ] } },
{ "type": "Feature", "properties": { "grid_id": 108, "building_distance_m": 19.228061816792557, "index_right": 71, "node_id": "116585", "origin_snap_distance_m": 961.303850121648, "parks_within_10min": 56, "parks_within_15min": 58, "nearest_distance_m": 0.0 }, "geometry": { "type": "Point", "coordinates": [ 126.931641514737777, 37.479554393218343 ] } },
{ "type": "Feature", "properties": { "grid_id": 109, "building_distance_m": 4.9493333829639869, "index_right": 71, "node_id": "116585", "origin_snap_distance_m": 970.45625783318985, "parks_within_10min": 56, "parks_within_15min": 58, "nearest_distance_m": 0.0 }, "geometry": { "type": "Point", "coordinates": [ 126.931483683510905, 37.481916104104592 ] } },
{ "type": "Feature", "properties": { "grid_id": 110, "building_distance_m": 9.4500079458082595, "index_right": 24, "node_id": "116582", "origin_snap_distance_m": 1021.610141716674, "parks_within_10min": 56, "parks_within_15min": 60, "nearest_distance_m": 0.0 }, "geometry": { "type": "Point", "coordinates": [ 126.931511854336847, 37.484071627066498 ] } },
{ "type": "Feature", "properties": { "grid_id": 111, "building_distance_m": 16.575211833956988, "index_right": 24, "node_id": "116582", "origin_snap_distance_m": 1119.2934348372426, "parks_within_10min": 56, "parks_within_15min": 60, "nearest_distance_m": 0.0 }, "geometry": { "type": "Point", "coordinates": [ 126.931623131772895, 37.486354941097943 ] } },
{ "type": "Feature", "properties": { "grid_id": 112, "building_distance_m": 7.7388215006245495, "index_right": 24, "node_id": "116582", "origin_snap_distance_m": 1275.600619564844, "parks_within_10min": 56, "parks_within_15min": 60, "nearest_distance_m": 0.0 }, "geometry": { "type": "Point", "coordinates": [ 126.931526022543665, 37.488644974768988 ] } },
{ "type": "Feature", "properties": { "grid_id": 113, "building_distance_m": 4.345898272248097, "index_right": 137, "node_id": "213876", "origin_snap_distance_m": 1449.0095432130897, "parks_within_10min": 56, "parks_within_15min": 60, "nearest_distance_m": 0.0 }, "geometry": { "type": "Point", "coordinates": [ 126.931388475961342, 37.490886040750674 ] } },
{ "type": "Feature", "properties": { "grid_id": 114, "building_distance_m": 4.7404693493726366, "index_right": 137, "node_id": "213876", "origin_snap_distance_m": 1625.6108895723576, "parks_within_10min": 56, "parks_within_15min": 60, "nearest_distance_m": 0.0 }, "geometry": { "type": "Point", "coordinates": [ 126.931481342995369, 37.493167400389382 ] } },
{ "type": "Feature", "properties": { "grid_id": 115, "building_distance_m": 101.28195812782533, "index_right": 319, "node_id": "120141", "origin_snap_distance_m": 2410.1957628566047, "parks_within_10min": 7, "parks_within_15min": 10, "nearest_distance_m": 0.0 }, "geometry": { "type": "Point", "coordinates": [ 126.933221882522403, 37.459686492746521 ] } },
{ "type": "Feature", "properties": { "grid_id": 116, "building_distance_m": 101.10011163475457, "index_right": 319, "node_id": "120141", "origin_snap_distance_m": 2278.3073002785927, "parks_within_10min": 7, "parks_within_15min": 10, "nearest_distance_m": 0.0 }, "geometry": { "type": "Point", "coordinates": [ 126.93335774385109, 37.461085097483362 ] } },
{ "type": "Feature", "properties": { "grid_id": 117, "building_distance_m": 62.252967595363366, "index_right": 319, "node_id": "120141", "origin_snap_distance_m": 1927.2530366696367, "parks_within_10min": 7, "parks_within_15min": 10, "nearest_distance_m": 0.0 }, "geometry": { "type": "Point", "coordinates": [ 126.934598315304399, 37.464368529651956 ] } },
{ "type": "Feature", "properties": { "grid_id": 118, "building_distance_m": 9.116917318751744, "index_right": 473, "node_id": "116544", "origin_snap_distance_m": 1773.7134164295205, "parks_within_10min": 57, "parks_within_15min": 60, "nearest_distance_m": 0.0 }, "geometry": { "type": "Point", "coordinates": [ 126.934330654828514, 37.466044272127469 ] } },
{ "type": "Feature", "properties": { "grid_id": 119, "building_distance_m": 4.6754239692171122, "index_right": 183, "node_id": "116588", "origin_snap_distance_m": 1553.3085699330245, "parks_within_10min": 56, "parks_within_15min": 58, "nearest_distance_m": 0.0 }, "geometry": { "type": "Point", "coordinates": [ 126.934232083718285, 37.468381252742546 ] } },
{ "type": "Feature", "properties": { "grid_id": 120, "building_distance_m": 29.123002539927651, "index_right": 183, "node_id": "116588", "origin_snap_distance_m": 1353.8878169794159, "parks_within_10min": 56, "parks_within_15min": 58, "nearest_distance_m": 0.0 }, "geometry": { "type": "Point", "coordinates": [ 126.933952134233522, 37.470615333362481 ] } },
{ "type": "Feature", "properties": { "grid_id": 121, "building_distance_m": 2.2718167882417792, "index_right": 183, "node_id": "116588", "origin_snap_distance_m": 1135.3528328510513, "parks_within_10min": 56, "parks_within_15min": 58, "nearest_distance_m": 0.0 }, "geometry": { "type": "Point", "coordinates": [ 126.934266969753992, 37.472893535642292 ] } },
{ "type": "Feature", "properties": { "grid_id": 122, "building_distance_m": 22.939260311559153, "index_right": 183, "node_id": "116588", "origin_snap_distance_m": 980.48480062316969, "parks_within_10min": 56, "parks_within_15min": 58, "nearest_distance_m": 0.0 }, "geometry": { "type": "Point", "coordinates": [ 126.934036072664753, 37.475052144765321 ] } },
{ "type": "Feature", "properties": { "grid_id": 123, "building_distance_m": 8.559784664085246, "index_right": 71, "node_id": "116585", "origin_snap_distance_m": 822.35251816086566, "parks_within_10min": 56, "parks_within_15min": 58, "nearest_distance_m": 0.0 }, "geometry": { "type": "Point", "coordinates": [ 126.93424092728236, 37.477308504954081 ] } },
{ "type": "Feature", "properties": { "grid_id": 124, "building_distance_m": 29.007765574864266, "index_right": 71, "node_id": "116585", "origin_snap_distance_m": 706.33380423885524, "parks_within_10min": 56, "parks_within_15min": 58, "nearest_distance_m": 0.0 }, "geometry": { "type": "Point", "coordinates": [ 126.934577304548725, 37.479535022879226 ] } },
{ "type": "Feature", "properties": { "grid_id": 125, "building_distance_m": 10.604799350992383, "index_right": 71, "node_id": "116585", "origin_snap_distance_m": 732.54582876042468, "parks_within_10min": 56, "parks_within_15min": 58, "nearest_distance_m": 0.0 }, "geometry": { "type": "Point", "coordinates": [ 126.934208755097075, 37.481967139471678 ] } },
{ "type": "Feature", "properties": { "grid_id": 126, "building_distance_m": 7.7948556484482809, "index_right": 24, "node_id": "116582", "origin_snap_distance_m": 789.32556676832769, "parks_within_10min": 56, "parks_within_15min": 60, "nearest_distance_m": 0.0 }, "geometry": { "type": "Point", "coordinates": [ 126.934344457271777, 37.484101381949436 ] } },
{ "type": "Feature", "properties": { "grid_id": 127, "building_distance_m": 52.988525829942574, "index_right": 24, "node_id": "116582", "origin_snap_distance_m": 877.63462406171686, "parks_within_10min": 56, "parks_within_15min": 60, "nearest_distance_m": 0.0 }, "geometry": { "type": "Point", "coordinates": [ 126.934806703478841, 37.486182703508405 ] } },
{ "type": "Feature", "properties": { "grid_id": 128, "building_distance_m": 13.314434837681418, "index_right": 137, "node_id": "213876", "origin_snap_distance_m": 1102.2624121861302, "parks_within_10min": 56, "parks_within_15min": 60, "nearest_distance_m": 0.0 }, "geometry": { "type": "Point", "coordinates": [ 126.934115693205669, 37.488630762289802 ] } },
{ "type": "Feature", "properties": { "grid_id": 129, "building_distance_m": 21.713167180816843, "index_right": 137, "node_id": "213876", "origin_snap_distance_m": 1295.4459379921032, "parks_within_10min": 56, "parks_within_15min": 60, "nearest_distance_m": 0.0 }, "geometry": { "type": "Point", "coordinates": [ 126.934151568003088, 37.491069862202536 ] } },
{ "type": "Feature", "properties": { "grid_id": 130, "building_distance_m": 28.770870673863321, "index_right": 319, "node_id": "120141", "origin_snap_distance_m": 1808.4201281301364, "parks_within_10min": 7, "parks_within_15min": 10, "nearest_distance_m": 0.0 }, "geometry": { "type": "Point", "coordinates": [ 126.937414204548034, 37.463964753843648 ] } },
{ "type": "Feature", "properties": { "grid_id": 131, "building_distance_m": 7.9968490219711166, "index_right": 319, "node_id": "120141", "origin_snap_distance_m": 1639.3532869171677, "parks_within_10min": 7, "parks_within_15min": 10, "nearest_distance_m": 0.0 }, "geometry": { "type": "Point", "coordinates": [ 126.937021143356958, 37.466126437923897 ] } },
{ "type": "Feature", "properties": { "grid_id": 132, "building_distance_m": 8.9485415245286504, "index_right": 473, "node_id": "116544", "origin_snap_distance_m": 1423.5379615434022, "parks_within_10min": 57, "parks_within_15min": 60, "nearest_distance_m": 0.0 }, "geometry": { "type": "Point", "coordinates": [ 126.937153079156886, 37.468444702064602 ] } },
{ "type": "Feature", "properties": { "grid_id": 133, "building_distance_m": 50.269485892812973, "index_right": 473, "node_id": "116544", "origin_snap_distance_m": 1212.0550634901126, "parks_within_10min": 57, "parks_within_15min": 60, "nearest_distance_m": 0.0 }, "geometry": { "type": "Point", "coordinates": [ 126.9375953470106, 37.470392483280257 ] } },
{ "type": "Feature", "properties": { "grid_id": 134, "building_distance_m": 20.565947157277094, "index_right": 183, "node_id": "116588", "origin_snap_distance_m": 985.26308361629833, "parks_within_10min": 56, "parks_within_15min": 58, "nearest_distance_m": 0.0 }, "geometry": { "type": "Point", "coordinates": [ 126.936966540360217, 37.473025678480219 ] } },
{ "type": "Feature", "properties": { "grid_id": 135, "building_distance_m": 14.100874055054071, "index_right": 183, "node_id": "116588", "origin_snap_distance_m": 783.33505895937151, "parks_within_10min": 56, "parks_within_15min": 58, "nearest_distance_m": 0.0 }, "geometry": { "type": "Point", "coordinates": [ 126.937237537895015, 37.475060754055022 ] } },
{ "type": "Feature", "properties": { "grid_id": 136, "building_distance_m": 13.967924083222261, "index_right": 183, "node_id": "116588", "origin_snap_distance_m": 594.12239050758478, "parks_within_10min": 56, "parks_within_15min": 58, "nearest_distance_m": 0.0 }, "geometry": { "type": "Point", "coordinates": [ 126.93725307580948, 37.477417937452365 ] } },
{ "type": "Feature", "properties": { "grid_id": 137, "building_distance_m": 110.53929668277685, "index_right": 71, "node_id": "116585", "origin_snap_distance_m": 597.05647263975982, "parks_within_10min": 56, "parks_within_15min": 58, "nearest_distance_m": 0.0 }, "geometry": { "type": "Point", "coordinates": [ 126.935962438593961, 37.479221886603789 ] } },
{ "type": "Feature", "properties": { "grid_id": 138, "building_distance_m": 63.092266294614213, "index_right": 24, "node_id": "116582", "origin_snap_distance_m": 462.00881104098653, "parks_within_10min": 56, "parks_within_15min": 60, "nearest_distance_m": 0.0 }, "geometry": { "type": "Point", "coordinates": [ 126.937471822103717, 37.482371295030326 ] } },
{ "type": "Feature", "properties": { "grid_id": 139, "building_distance_m": 53.422125590243155, "index_right": 24, "node_id": "116582", "origin_snap_distance_m": 544.90620622024267, "parks_within_10min": 56, "parks_within_15min": 60, "nearest_distance_m": 0.0 }, "geometry": { "type": "Point", "coordinates": [ 126.937169281358578, 37.483661919538513 ] } },
{ "type": "Feature", "properties": { "grid_id": 140, "building_distance_m": 7.4671175624781991, "index_right": 137, "node_id": "213876", "origin_snap_distance_m": 747.31671609751959, "parks_within_10min": 56, "parks_within_15min": 60, "nearest_distance_m": 0.0 }, "geometry": { "type": "Point", "coordinates": [ 126.93705688959102, 37.486452603935732 ] } },
{ "type": "Feature", "properties": { "grid_id": 141, "building_distance_m": 5.8217008663382162, "index_right": 137, "node_id": "213876", "origin_snap_distance_m": 924.77565235477869, "parks_within_10min": 56, "parks_within_15min": 60, "nearest_distance_m": 0.0 }, "geometry": { "type": "Point", "coordinates": [ 126.937128416085287, 37.488688565701338 ] } },
{ "type": "Feature", "properties": { "grid_id": 142, "building_distance_m": 128.07204352319209, "index_right": 137, "node_id": "213876", "origin_snap_distance_m": 1012.1000214189639, "parks_within_10min": 56, "parks_within_15min": 60, "nearest_distance_m": 0.0 }, "geometry": { "type": "Point", "coordinates": [ 126.937334756579162, 37.489759873411558 ] } },
{ "type": "Feature", "properties": { "grid_id": 143, "building_distance_m": 38.144752629856967, "index_right": 319, "node_id": "120141", "origin_snap_distance_m": 1662.9200271249199, "parks_within_10min": 7, "parks_within_15min": 10, "nearest_distance_m": 0.0 }, "geometry": { "type": "Point", "coordinates": [ 126.940198163851704, 37.464143064136792 ] } },
{ "type": "Feature", "properties": { "grid_id": 144, "building_distance_m": 7.9512351367819312, "index_right": 319, "node_id": "120141", "origin_snap_distance_m": 1477.9053884878915, "parks_within_10min": 7, "parks_within_15min": 10, "nearest_distance_m": 0.0 }, "geometry": { "type": "Point", "coordinates": [ 126.939956379598911, 37.46619095697482 ] } },
{ "type": "Feature", "properties": { "grid_id": 145, "building_distance_m": 7.5581580308023488, "index_right": 319, "node_id": "120141", "origin_snap_distance_m": 1280.1270600411676, "parks_within_10min": 7, "parks_within_15min": 10, "nearest_distance_m": 0.0 }, "geometry": { "type": "Point", "coordinates": [ 126.940016261400842, 37.468351801615121 ] } },
{ "type": "Feature", "properties": { "grid_id": 146, "building_distance_m": 45.368176397560291, "index_right": 473, "node_id": "116544", "origin_snap_distance_m": 1062.3602391743566, "parks_within_10min": 57, "parks_within_15min": 60, "nearest_distance_m": 0.0 }, "geometry": { "type": "Point", "coordinates": [ 126.940048818538187, 37.471024339034784 ] } },
{ "type": "Feature", "properties": { "grid_id": 147, "building_distance_m": 18.037527120145256, "index_right": 473, "node_id": "116544", "origin_snap_distance_m": 871.70946596463057, "parks_within_10min": 57, "parks_within_15min": 60, "nearest_distance_m": 0.0 }, "geometry": { "type": "Point", "coordinates": [ 126.93975726709067, 37.472962766244308 ] } },
{ "type": "Feature", "properties": { "grid_id": 148, "building_distance_m": 4.0093291640001274, "index_right": 473, "node_id": "116544", "origin_snap_distance_m": 651.65876975046069, "parks_within_10min": 57, "parks_within_15min": 60, "nearest_distance_m": 0.0 }, "geometry": { "type": "Point", "coordinates": [ 126.939972777460113, 37.47511943631519 ] } },
{ "type": "Feature", "properties": { "grid_id": 149, "building_distance_m": 16.341449446461667, "index_right": 183, "node_id": "116588", "origin_snap_distance_m": 423.11467383817268, "parks_within_10min": 56, "parks_within_15min": 58, "nearest_distance_m": 0.0 }, "geometry": { "type": "Point", "coordinates": [ 126.9399070310307, 37.477529890504371 ] } },
{ "type": "Feature", "properties": { "grid_id": 150, "building_distance_m": 12.991629290913856, "index_right": 71, "node_id": "116585", "origin_snap_distance_m": 247.20159666803414, "parks_within_10min": 56, "parks_within_15min": 58, "nearest_distance_m": 0.0 }, "geometry": { "type": "Point", "coordinates": [ 126.939983527484713, 37.47974392735626 ] } },
{ "type": "Feature", "properties": { "grid_id": 151, "building_distance_m": 9.6634832485576485, "index_right": 24, "node_id": "116582", "origin_snap_distance_m": 248.38862697900166, "parks_within_10min": 56, "parks_within_15min": 60, "nearest_distance_m": 0.0 }, "geometry": { "type": "Point", "coordinates": [ 126.939815251592989, 37.481891159496072 ] } },
{ "type": "Feature", "properties": { "grid_id": 152, "building_distance_m": 26.779293731853851, "index_right": 137, "node_id": "213876", "origin_snap_distance_m": 373.3740362624107, "parks_within_10min": 56, "parks_within_15min": 60, "nearest_distance_m": 0.0 }, "geometry": { "type": "Point", "coordinates": [ 126.939925278962789, 37.483899900051213 ] } },
{ "type": "Feature", "properties": { "grid_id": 153, "building_distance_m": 18.288741165094372, "index_right": 137, "node_id": "213876", "origin_snap_distance_m": 592.42500040990922, "parks_within_10min": 56, "parks_within_15min": 60, "nearest_distance_m": 0.0 }, "geometry": { "type": "Point", "coordinates": [ 126.939808745494858, 37.486532158359189 ] } },
{ "type": "Feature", "properties": { "grid_id": 154, "building_distance_m": 10.39966608880137, "index_right": 350, "node_id": "121172", "origin_snap_distance_m": 746.89854806386609, "parks_within_10min": 6, "parks_within_15min": 6, "nearest_distance_m": 0.0 }, "geometry": { "type": "Point", "coordinates": [ 126.93997314655374, 37.488563014373256 ] } },
{ "type": "Feature", "properties": { "grid_id": 155, "building_distance_m": 80.019601255439611, "index_right": 336, "node_id": "121111", "origin_snap_distance_m": 850.75974492536352, "parks_within_10min": 1, "parks_within_15min": 2, "nearest_distance_m": 0.0 }, "geometry": { "type": "Point", "coordinates": [ 126.940812085925586, 37.491005581464613 ] } },
{ "type": "Feature", "properties": { "grid_id": 156, "building_distance_m": 64.533578908024168, "index_right": 319, "node_id": "120141", "origin_snap_distance_m": 1312.3866190287733, "parks_within_10min": 7, "parks_within_15min": 10, "nearest_distance_m": 0.0 }, "geometry": { "type": "Point", "coordinates": [ 126.942642242571338, 37.466695814947158 ] } },
{ "type": "Feature", "properties": { "grid_id": 157, "building_distance_m": 21.625805829312537, "index_right": 319, "node_id": "120141", "origin_snap_distance_m": 1150.1974039233471, "parks_within_10min": 7, "parks_within_15min": 10, "nearest_distance_m": 0.0 }, "geometry": { "type": "Point", "coordinates": [ 126.942518918534631, 37.468400110954704 ] } },
{ "type": "Feature", "properties": { "grid_id": 158, "building_distance_m": 75.231278573344241, "index_right": 319, "node_id": "120141", "origin_snap_distance_m": 919.35923809161773, "parks_within_10min": 7, "parks_within_15min": 10, "nearest_distance_m": 0.0 }, "geometry": { "type": "Point", "coordinates": [ 126.942196668754292, 37.471135528619776 ] } },
{ "type": "Feature", "properties": { "grid_id": 159, "building_distance_m": 57.498849896985398, "index_right": 319, "node_id": "120141", "origin_snap_distance_m": 800.13937396875644, "parks_within_10min": 7, "parks_within_15min": 10, "nearest_distance_m": 0.0 }, "geometry": { "type": "Point", "coordinates": [ 126.942144806507855, 37.472707830306625 ] } },
{ "type": "Feature", "properties": { "grid_id": 160, "building_distance_m": 16.049883936177629, "index_right": 473, "node_id": "116544", "origin_snap_distance_m": 575.50731756981361, "parks_within_10min": 57, "parks_within_15min": 60, "nearest_distance_m": 0.0 }, "geometry": { "type": "Point", "coordinates": [ 126.94275881884225, 37.474987894624675 ] } },
{ "type": "Feature", "properties": { "grid_id": 161, "building_distance_m": 29.944536333155746, "index_right": 473, "node_id": "116544", "origin_snap_distance_m": 336.34433053121882, "parks_within_10min": 57, "parks_within_15min": 60, "nearest_distance_m": 0.0 }, "geometry": { "type": "Point", "coordinates": [ 126.942940258634096, 37.477159476568708 ] } },
{ "type": "Feature", "properties": { "grid_id": 162, "building_distance_m": 13.049392235715375, "index_right": 473, "node_id": "116544", "origin_snap_distance_m": 120.4178847272743, "parks_within_10min": 57, "parks_within_15min": 60, "nearest_distance_m": 0.0 }, "geometry": { "type": "Point", "coordinates": [ 126.942728548138746, 37.479521551035511 ] } },
{ "type": "Feature", "properties": { "grid_id": 163, "building_distance_m": 23.432740567072056, "index_right": 24, "node_id": "116582", "origin_snap_distance_m": 75.562045292002026, "parks_within_10min": 56, "parks_within_15min": 60, "nearest_distance_m": 0.0 }, "geometry": { "type": "Point", "coordinates": [ 126.942494208337308, 37.4818381751017 ] } },
{ "type": "Feature", "properties": { "grid_id": 164, "building_distance_m": 19.458758418018803, "index_right": 137, "node_id": "213876", "origin_snap_distance_m": 257.83774382198254, "parks_within_10min": 56, "parks_within_15min": 60, "nearest_distance_m": 0.0 }, "geometry": { "type": "Point", "coordinates": [ 126.942785390415537, 37.484315528451496 ] } },
{ "type": "Feature", "properties": { "grid_id": 165, "building_distance_m": 37.582349616330582, "index_right": 350, "node_id": "121172", "origin_snap_distance_m": 398.4315085865498, "parks_within_10min": 6, "parks_within_15min": 6, "nearest_distance_m": 0.0 }, "geometry": { "type": "Point", "coordinates": [ 126.943037214555758, 37.486147316078721 ] } },
{ "type": "Feature", "properties": { "grid_id": 166, "building_distance_m": 5.9791690017400025, "index_right": 350, "node_id": "121172", "origin_snap_distance_m": 552.5494441075889, "parks_within_10min": 6, "parks_within_15min": 6, "nearest_distance_m": 0.0 }, "geometry": { "type": "Point", "coordinates": [ 126.942732350117041, 37.48870040253766 ] } },
{ "type": "Feature", "properties": { "grid_id": 167, "building_distance_m": 22.002395299312951, "index_right": 336, "node_id": "121111", "origin_snap_distance_m": 703.71785507393724, "parks_within_10min": 1, "parks_within_15min": 2, "nearest_distance_m": 0.0 }, "geometry": { "type": "Point", "coordinates": [ 126.94259766458741, 37.490739893604825 ] } },
{ "type": "Feature", "properties": { "grid_id": 168, "building_distance_m": 164.20807745896298, "index_right": 436, "node_id": "83904", "origin_snap_distance_m": 1227.7027924798315, "parks_within_10min": 0, "parks_within_15min": 2, "nearest_distance_m": 966.023 }, "geometry": { "type": "Point", "coordinates": [ 126.94393897703965, 37.466801403242883 ] } },
{ "type": "Feature", "properties": { "grid_id": 169, "building_distance_m": 108.49754663679535, "index_right": 436, "node_id": "83904", "origin_snap_distance_m": 1084.9325804039727, "parks_within_10min": 0, "parks_within_15min": 2, "nearest_distance_m": 966.023 }, "geometry": { "type": "Point", "coordinates": [ 126.944374659605856, 37.468230230066041 ] } },
{ "type": "Feature", "properties": { "grid_id": 170, "building_distance_m": 160.35074849304161, "index_right": 319, "node_id": "120141", "origin_snap_distance_m": 264.320300238936, "parks_within_10min": 7, "parks_within_15min": 10, "nearest_distance_m": 0.0 }, "geometry": { "type": "Point", "coordinates": [ 126.946286944457043, 37.476465049065681 ] } },
{ "type": "Feature", "properties": { "grid_id": 171, "building_distance_m": 10.218012159294686, "index_right": 93, "node_id": "120879", "origin_snap_distance_m": 260.01263770927289, "parks_within_10min": 54, "parks_within_15min": 65, "nearest_distance_m": 385.026 }, "geometry": { "type": "Point", "coordinates": [ 126.945498274335108, 37.477450736235902 ] } },
{ "type": "Feature", "properties": { "grid_id": 172, "building_distance_m": 22.631167478410532, "index_right": 356, "node_id": "120907", "origin_snap_distance_m": 77.657668974613074, "parks_within_10min": 63, "parks_within_15min": 69, "nearest_distance_m": 446.021 }, "geometry": { "type": "Point", "coordinates": [ 126.945731159658948, 37.479802929943205 ] } },
{ "type": "Feature", "properties": { "grid_id": 173, "building_distance_m": 11.955377684603841, "index_right": 472, "node_id": "76243", "origin_snap_distance_m": 6.2240956103610934, "parks_within_10min": 58, "parks_within_15min": 69, "nearest_distance_m": 284.239 }, "geometry": { "type": "Point", "coordinates": [ 126.945601341434937, 37.481785352074851 ] } },
{ "type": "Feature", "properties": { "grid_id": 174, "building_distance_m": 6.7871919288782481, "index_right": 411, "node_id": "215545", "origin_snap_distance_m": 130.6504546567044, "parks_within_10min": 6, "parks_within_15min": 24, "nearest_distance_m": 306.66 }, "geometry": { "type": "Point", "coordinates": [ 126.945638600796698, 37.484179221212209 ] } },
{ "type": "Feature", "properties": { "grid_id": 175, "building_distance_m": 25.994145730957349, "index_right": 350, "node_id": "121172", "origin_snap_distance_m": 218.11302611811743, "parks_within_10min": 6, "parks_within_15min": 6, "nearest_distance_m": 0.0 }, "geometry": { "type": "Point", "coordinates": [ 126.945480135214908, 37.486618295197616 ] } },
{ "type": "Feature", "properties": { "grid_id": 176, "building_distance_m": 12.769035968476516, "index_right": 336, "node_id": "121111", "origin_snap_distance_m": 343.78389743067248, "parks_within_10min": 1, "parks_within_15min": 2, "nearest_distance_m": 0.0 }, "geometry": { "type": "Point", "coordinates": [ 126.945646556287841, 37.488550106483238 ] } },
{ "type": "Feature", "properties": { "grid_id": 177, "building_distance_m": 8.4229327308817457, "index_right": 336, "node_id": "121111", "origin_snap_distance_m": 525.254762469566, "parks_within_10min": 1, "parks_within_15min": 2, "nearest_distance_m": 0.0 }, "geometry": { "type": "Point", "coordinates": [ 126.945656828636572, 37.490868505047303 ] } },
{ "type": "Feature", "properties": { "grid_id": 178, "building_distance_m": 52.070821051207055, "index_right": 336, "node_id": "121111", "origin_snap_distance_m": 702.40798972592268, "parks_within_10min": 1, "parks_within_15min": 2, "nearest_distance_m": 0.0 }, "geometry": { "type": "Point", "coordinates": [ 126.945942156808499, 37.492790807602425 ] } },
{ "type": "Feature", "properties": { "grid_id": 179, "building_distance_m": 110.50598103179728, "index_right": 438, "node_id": "83483", "origin_snap_distance_m": 2194.8680575181402, "parks_within_10min": 4, "parks_within_15min": 4, "nearest_distance_m": 156.955 }, "geometry": { "type": "Point", "coordinates": [ 126.949445537369002, 37.455433733743853 ] } },
{ "type": "Feature", "properties": { "grid_id": 180, "building_distance_m": 80.401668736659033, "index_right": 438, "node_id": "83483", "origin_snap_distance_m": 1718.9480785824421, "parks_within_10min": 4, "parks_within_15min": 4, "nearest_distance_m": 156.955 }, "geometry": { "type": "Point", "coordinates": [ 126.948274464206065, 37.460082533755006 ] } },
{ "type": "Feature", "properties": { "grid_id": 181, "building_distance_m": 171.10280783708447, "index_right": 438, "node_id": "83483", "origin_snap_distance_m": 1718.9480785824421, "parks_within_10min": 4, "parks_within_15min": 4, "nearest_distance_m": 156.955 }, "geometry": { "type": "Point", "coordinates": [ 126.948274464206065, 37.460082533755006 ] } },
{ "type": "Feature", "properties": { "grid_id": 182, "building_distance_m": 3.324175797608806, "index_right": 319, "node_id": "120141", "origin_snap_distance_m": 56.983063324626066, "parks_within_10min": 7, "parks_within_15min": 10, "nearest_distance_m": 0.0 }, "geometry": { "type": "Point", "coordinates": [ 126.948417145273609, 37.47741650724241 ] } },
{ "type": "Feature", "properties": { "grid_id": 183, "building_distance_m": 11.008014510235176, "index_right": 15, "node_id": "120864", "origin_snap_distance_m": 22.761489718868788, "parks_within_10min": 24, "parks_within_15min": 64, "nearest_distance_m": 232.462 }, "geometry": { "type": "Point", "coordinates": [ 126.948343608551795, 37.479554173982976 ] } },
{ "type": "Feature", "properties": { "grid_id": 184, "building_distance_m": 30.56418566630736, "index_right": 170, "node_id": "74465", "origin_snap_distance_m": 22.970778019750952, "parks_within_10min": 64, "parks_within_15min": 69, "nearest_distance_m": 431.616 }, "geometry": { "type": "Point", "coordinates": [ 126.94819423971505, 37.482111428500993 ] } },
{ "type": "Feature", "properties": { "grid_id": 185, "building_distance_m": 5.5116951953527895, "index_right": 507, "node_id": "120927", "origin_snap_distance_m": 30.33931891942369, "parks_within_10min": 6, "parks_within_15min": 30, "nearest_distance_m": 38.14 }, "geometry": { "type": "Point", "coordinates": [ 126.948420169544946, 37.4841928250707 ] } },
{ "type": "Feature", "properties": { "grid_id": 186, "building_distance_m": 22.179176153575252, "index_right": 89, "node_id": "121110", "origin_snap_distance_m": 65.607050622494043, "parks_within_10min": 1, "parks_within_15min": 2, "nearest_distance_m": 18.774 }, "geometry": { "type": "Point", "coordinates": [ 126.94856746126122, 37.48624821391325 ] } },
{ "type": "Feature", "properties": { "grid_id": 187, "building_distance_m": 5.6220226311207115, "index_right": 336, "node_id": "121111", "origin_snap_distance_m": 197.83380070740412, "parks_within_10min": 1, "parks_within_15min": 2, "nearest_distance_m": 0.0 }, "geometry": { "type": "Point", "coordinates": [ 126.948455487227832, 37.488674193329452 ] } },
{ "type": "Feature", "properties": { "grid_id": 188, "building_distance_m": 21.415555304956136, "index_right": 336, "node_id": "121111", "origin_snap_distance_m": 421.4815494770566, "parks_within_10min": 1, "parks_within_15min": 2, "nearest_distance_m": 0.0 }, "geometry": { "type": "Point", "coordinates": [ 126.948403793164829, 37.49070984047696 ] } },
{ "type": "Feature", "properties": { "grid_id": 189, "building_distance_m": 141.52908261307155, "index_right": 281, "node_id": "83527", "origin_snap_distance_m": 529.2543873694882, "parks_within_10min": 1, "parks_within_15min": 2, "nearest_distance_m": 589.016 }, "geometry": { "type": "Point", "coordinates": [ 126.94814450930599, 37.491895962617996 ] } },
{ "type": "Feature", "properties": { "grid_id": 190, "building_distance_m": 171.59628172669895, "index_right": 438, "node_id": "83483", "origin_snap_distance_m": 2194.8680575181402, "parks_within_10min": 4, "parks_within_15min": 4, "nearest_distance_m": 156.955 }, "geometry": { "type": "Point", "coordinates": [ 126.949445537369002, 37.455433733743853 ] } },
{ "type": "Feature", "properties": { "grid_id": 191, "building_distance_m": 86.710394141379965, "index_right": 436, "node_id": "83904", "origin_snap_distance_m": 80.860199698615617, "parks_within_10min": 0, "parks_within_15min": 2, "nearest_distance_m": 966.023 }, "geometry": { "type": "Point", "coordinates": [ 126.952162604498042, 37.474883449803301 ] } },
{ "type": "Feature", "properties": { "grid_id": 192, "building_distance_m": 15.545558179210939, "index_right": 482, "node_id": "120117", "origin_snap_distance_m": 81.477052873357323, "parks_within_10min": 7, "parks_within_15min": 10, "nearest_distance_m": 202.739 }, "geometry": { "type": "Point", "coordinates": [ 126.951219813399049, 37.477528451473198 ] } },
{ "type": "Feature", "properties": { "grid_id": 193, "building_distance_m": 46.583945765199445, "index_right": 437, "node_id": "120093", "origin_snap_distance_m": 42.983695467448051, "parks_within_10min": 7, "parks_within_15min": 63, "nearest_distance_m": 219.589 }, "geometry": { "type": "Point", "coordinates": [ 126.950738346455466, 37.479787286300869 ] } },
{ "type": "Feature", "properties": { "grid_id": 194, "building_distance_m": 76.717637172613408, "index_right": 367, "node_id": "120334", "origin_snap_distance_m": 61.808459437324167, "parks_within_10min": 1, "parks_within_15min": 6, "nearest_distance_m": 513.944 }, "geometry": { "type": "Point", "coordinates": [ 126.951489643093808, 37.482553571965205 ] } },
{ "type": "Feature", "properties": { "grid_id": 195, "building_distance_m": 4.7934679363486143, "index_right": 274, "node_id": "83713", "origin_snap_distance_m": 26.361165912801813, "parks_within_10min": 6, "parks_within_15min": 6, "nearest_distance_m": 241.03 }, "geometry": { "type": "Point", "coordinates": [ 126.951216873295095, 37.484188435488896 ] } },
{ "type": "Feature", "properties": { "grid_id": 196, "building_distance_m": 13.002014604404549, "index_right": 140, "node_id": "83761", "origin_snap_distance_m": 25.499967363893219, "parks_within_10min": 1, "parks_within_15min": 2, "nearest_distance_m": 212.313 }, "geometry": { "type": "Point", "coordinates": [ 126.951092017642111, 37.486353924429174 ] } },
{ "type": "Feature", "properties": { "grid_id": 197, "building_distance_m": 14.409957270797918, "index_right": 524, "node_id": "120160", "origin_snap_distance_m": 141.22768983338972, "parks_within_10min": 1, "parks_within_15min": 2, "nearest_distance_m": 538.396 }, "geometry": { "type": "Point", "coordinates": [ 126.951092298986225, 37.488577557957342 ] } },
{ "type": "Feature", "properties": { "grid_id": 198, "building_distance_m": 8.785599299225952, "index_right": 281, "node_id": "83527", "origin_snap_distance_m": 253.4580016131963, "parks_within_10min": 1, "parks_within_15min": 2, "nearest_distance_m": 589.016 }, "geometry": { "type": "Point", "coordinates": [ 126.951189670243593, 37.490829906374984 ] } },
{ "type": "Feature", "properties": { "grid_id": 199, "building_distance_m": 19.041788221292737, "index_right": 438, "node_id": "83483", "origin_snap_distance_m": 1972.8724111338558, "parks_within_10min": 4, "parks_within_15min": 4, "nearest_distance_m": 156.955 }, "geometry": { "type": "Point", "coordinates": [ 126.95428365985083, 37.457084404860929 ] } },
{ "type": "Feature", "properties": { "grid_id": 200, "building_distance_m": 150.26246909817624, "index_right": 438, "node_id": "83483", "origin_snap_distance_m": 107.16713082032962, "parks_within_10min": 4, "parks_within_15min": 4, "nearest_distance_m": 156.955 }, "geometry": { "type": "Point", "coordinates": [ 126.953333600940226, 37.474107710318663 ] } },
{ "type": "Feature", "properties": { "grid_id": 201, "building_distance_m": 10.774204074662599, "index_right": 232, "node_id": "83903", "origin_snap_distance_m": 39.55073524209665, "parks_within_10min": 0, "parks_within_15min": 3, "nearest_distance_m": 909.142 }, "geometry": { "type": "Point", "coordinates": [ 126.954079164484327, 37.475233463283985 ] } },
{ "type": "Feature", "properties": { "grid_id": 202, "building_distance_m": 6.2287846694480704, "index_right": 165, "node_id": "119909", "origin_snap_distance_m": 51.093394605115385, "parks_within_10min": 2, "parks_within_15min": 10, "nearest_distance_m": 664.999 }, "geometry": { "type": "Point", "coordinates": [ 126.954127725198376, 37.477405344325419 ] } },
{ "type": "Feature", "properties": { "grid_id": 203, "building_distance_m": 4.4451670693264029, "index_right": 503, "node_id": "83478", "origin_snap_distance_m": 17.76024378260194, "parks_within_10min": 3, "parks_within_15min": 22, "nearest_distance_m": 500.791 }, "geometry": { "type": "Point", "coordinates": [ 126.954096649839101, 37.479616282575059 ] } },
{ "type": "Feature", "properties": { "grid_id": 204, "building_distance_m": 27.300198338947915, "index_right": 427, "node_id": "78520", "origin_snap_distance_m": 14.539436581206891, "parks_within_10min": 0, "parks_within_15min": 1, "nearest_distance_m": 979.896 }, "geometry": { "type": "Point", "coordinates": [ 126.95436320997932, 37.481927462926585 ] } },
{ "type": "Feature", "properties": { "grid_id": 205, "building_distance_m": 31.791444438148346, "index_right": 519, "node_id": "77153", "origin_snap_distance_m": 10.894287080223284, "parks_within_10min": 0, "parks_within_15min": 2, "nearest_distance_m": 828.478 }, "geometry": { "type": "Point", "coordinates": [ 126.953725748400487, 37.484260849058877 ] } },
{ "type": "Feature", "properties": { "grid_id": 206, "building_distance_m": 10.283192745497551, "index_right": 45, "node_id": "68240", "origin_snap_distance_m": 18.577328590471762, "parks_within_10min": 2, "parks_within_15min": 2, "nearest_distance_m": 502.779 }, "geometry": { "type": "Point", "coordinates": [ 126.953981419683771, 37.486327966039696 ] } },
{ "type": "Feature", "properties": { "grid_id": 207, "building_distance_m": 5.0003486682853442, "index_right": 43, "node_id": "68246", "origin_snap_distance_m": 32.383453686538338, "parks_within_10min": 1, "parks_within_15min": 2, "nearest_distance_m": 433.676 }, "geometry": { "type": "Point", "coordinates": [ 126.95407158905229, 37.488609976090096 ] } },
{ "type": "Feature", "properties": { "grid_id": 208, "building_distance_m": 71.975163199093984, "index_right": 438, "node_id": "83483", "origin_snap_distance_m": 820.21702090088309, "parks_within_10min": 4, "parks_within_15min": 4, "nearest_distance_m": 156.955 }, "geometry": { "type": "Point", "coordinates": [ 126.957552499273561, 37.468002711908348 ] } },
{ "type": "Feature", "properties": { "grid_id": 210, "building_distance_m": 120.48594135254751, "index_right": 118, "node_id": "119483", "origin_snap_distance_m": 48.986591114340747, "parks_within_10min": 4, "parks_within_15min": 18, "nearest_distance_m": 118.327 }, "geometry": { "type": "Point", "coordinates": [ 126.955597107055624, 37.475485685844632 ] } },
{ "type": "Feature", "properties": { "grid_id": 211, "building_distance_m": 3.4934897187783815, "index_right": 413, "node_id": "119444", "origin_snap_distance_m": 15.640673133239606, "parks_within_10min": 4, "parks_within_15min": 19, "nearest_distance_m": 128.277 }, "geometry": { "type": "Point", "coordinates": [ 126.956865329687048, 37.477417641459994 ] } },
{ "type": "Feature", "properties": { "grid_id": 212, "building_distance_m": 41.054350324271439, "index_right": 333, "node_id": "68269", "origin_snap_distance_m": 49.452469140608308, "parks_within_10min": 15, "parks_within_15min": 18, "nearest_distance_m": 465.979 }, "geometry": { "type": "Point", "coordinates": [ 126.956804373561312, 37.479279272087496 ] } },
{ "type": "Feature", "properties": { "grid_id": 213, "building_distance_m": 10.08339932676116, "index_right": 240, "node_id": "79385", "origin_snap_distance_m": 23.485083870071257, "parks_within_10min": 0, "parks_within_15min": 1, "nearest_distance_m": 803.12 }, "geometry": { "type": "Point", "coordinates": [ 126.956906893054636, 37.481807090219284 ] } },
{ "type": "Feature", "properties": { "grid_id": 214, "building_distance_m": 3.1225837628218365, "index_right": 526, "node_id": "78972", "origin_snap_distance_m": 56.28505309056834, "parks_within_10min": 0, "parks_within_15min": 1, "nearest_distance_m": 1019.588 }, "geometry": { "type": "Point", "coordinates": [ 126.956903137513152, 37.48417141530323 ] } },
{ "type": "Feature", "properties": { "grid_id": 215, "building_distance_m": 52.15640828787825, "index_right": 444, "node_id": "83445", "origin_snap_distance_m": 27.777769292999409, "parks_within_10min": 1, "parks_within_15min": 2, "nearest_distance_m": 34.789 }, "geometry": { "type": "Point", "coordinates": [ 126.956316912420718, 37.486264609645986 ] } },
{ "type": "Feature", "properties": { "grid_id": 216, "building_distance_m": 29.602226737309145, "index_right": 50, "node_id": "83209", "origin_snap_distance_m": 168.66431100849962, "parks_within_10min": 1, "parks_within_15min": 2, "nearest_distance_m": 345.361 }, "geometry": { "type": "Point", "coordinates": [ 126.957208256637273, 37.488705469565922 ] } },
{ "type": "Feature", "properties": { "grid_id": 217, "building_distance_m": 42.007364086231661, "index_right": 50, "node_id": "83209", "origin_snap_distance_m": 277.99569244126798, "parks_within_10min": 1, "parks_within_15min": 2, "nearest_distance_m": 345.361 }, "geometry": { "type": "Point", "coordinates": [ 126.957053655327229, 37.490554282178074 ] } },
{ "type": "Feature", "properties": { "grid_id": 219, "building_distance_m": 10.780218111833349, "index_right": 267, "node_id": "68252", "origin_snap_distance_m": 228.19941327904075, "parks_within_10min": 4, "parks_within_15min": 18, "nearest_distance_m": 0.0 }, "geometry": { "type": "Point", "coordinates": [ 126.959647075695614, 37.475058308520708 ] } },
{ "type": "Feature", "properties": { "grid_id": 220, "building_distance_m": 11.321101329408709, "index_right": 212, "node_id": "68021", "origin_snap_distance_m": 88.682644258444611, "parks_within_10min": 18, "parks_within_15min": 19, "nearest_distance_m": 297.558 }, "geometry": { "type": "Point", "coordinates": [ 126.959683844430231, 37.477292649692281 ] } },
{ "type": "Feature", "properties": { "grid_id": 221, "building_distance_m": 7.8928296931574122, "index_right": 152, "node_id": "67913", "origin_snap_distance_m": 51.684319981225443, "parks_within_10min": 15, "parks_within_15min": 18, "nearest_distance_m": 373.741 }, "geometry": { "type": "Point", "coordinates": [ 126.959685426231488, 37.479576541666155 ] } },
{ "type": "Feature", "properties": { "grid_id": 222, "building_distance_m": 2.1193110071460182, "index_right": 383, "node_id": "67901", "origin_snap_distance_m": 106.9910030945305, "parks_within_10min": 1, "parks_within_15min": 1, "nearest_distance_m": 609.122 }, "geometry": { "type": "Point", "coordinates": [ 126.959708361541388, 37.481916086147947 ] } },
{ "type": "Feature", "properties": { "grid_id": 223, "building_distance_m": 20.598662532082155, "index_right": 458, "node_id": "119595", "origin_snap_distance_m": 244.87828172780928, "parks_within_10min": 0, "parks_within_15min": 1, "nearest_distance_m": 817.248 }, "geometry": { "type": "Point", "coordinates": [ 126.959801169234154, 37.48397908258422 ] } },
{ "type": "Feature", "properties": { "grid_id": 224, "building_distance_m": 20.430752852101755, "index_right": 450, "node_id": "83439", "origin_snap_distance_m": 260.55195614969927, "parks_within_10min": 1, "parks_within_15min": 2, "nearest_distance_m": 55.372 }, "geometry": { "type": "Point", "coordinates": [ 126.959543697698649, 37.486531545663745 ] } },
{ "type": "Feature", "properties": { "grid_id": 225, "building_distance_m": 16.904750720702985, "index_right": 66, "node_id": "83441", "origin_snap_distance_m": 331.96231663667669, "parks_within_10min": 1, "parks_within_15min": 2, "nearest_distance_m": 0.0 }, "geometry": { "type": "Point", "coordinates": [ 126.959518825248892, 37.488626705556186 ] } },
{ "type": "Feature", "properties": { "grid_id": 226, "building_distance_m": 4.6746095369341258, "index_right": 50, "node_id": "83209", "origin_snap_distance_m": 477.60861605876767, "parks_within_10min": 1, "parks_within_15min": 2, "nearest_distance_m": 345.361 }, "geometry": { "type": "Point", "coordinates": [ 126.959751148121327, 37.490928406574263 ] } },
{ "type": "Feature", "properties": { "grid_id": 227, "building_distance_m": 17.681774765624791, "index_right": 50, "node_id": "83209", "origin_snap_distance_m": 632.29102394839117, "parks_within_10min": 1, "parks_within_15min": 2, "nearest_distance_m": 345.361 }, "geometry": { "type": "Point", "coordinates": [ 126.959550416042902, 37.493057949429812 ] } },
{ "type": "Feature", "properties": { "grid_id": 228, "building_distance_m": 9.6479966691517927, "index_right": 267, "node_id": "68252", "origin_snap_distance_m": 1001.7044500937371, "parks_within_10min": 4, "parks_within_15min": 18, "nearest_distance_m": 0.0 }, "geometry": { "type": "Point", "coordinates": [ 126.962618098002295, 37.468319303455381 ] } },
{ "type": "Feature", "properties": { "grid_id": 229, "building_distance_m": 166.70130983646916, "index_right": 267, "node_id": "68252", "origin_snap_distance_m": 887.87770744289412, "parks_within_10min": 4, "parks_within_15min": 18, "nearest_distance_m": 0.0 }, "geometry": { "type": "Point", "coordinates": [ 126.964416393678519, 37.47047607668766 ] } },
{ "type": "Feature", "properties": { "grid_id": 230, "building_distance_m": 14.139258941878284, "index_right": 267, "node_id": "68252", "origin_snap_distance_m": 588.26902281660693, "parks_within_10min": 4, "parks_within_15min": 18, "nearest_distance_m": 0.0 }, "geometry": { "type": "Point", "coordinates": [ 126.962522369004787, 37.472761405634635 ] } },
{ "type": "Feature", "properties": { "grid_id": 231, "building_distance_m": 19.635553352531808, "index_right": 353, "node_id": "68009", "origin_snap_distance_m": 363.09363158582465, "parks_within_10min": 15, "parks_within_15min": 18, "nearest_distance_m": 0.0 }, "geometry": { "type": "Point", "coordinates": [ 126.962351328525628, 37.475047581256099 ] } },
{ "type": "Feature", "properties": { "grid_id": 232, "building_distance_m": 57.758899396155996, "index_right": 353, "node_id": "68009", "origin_snap_distance_m": 150.66622426138173, "parks_within_10min": 15, "parks_within_15min": 18, "nearest_distance_m": 0.0 }, "geometry": { "type": "Point", "coordinates": [ 126.962881306619039, 37.477836204729499 ] } },
{ "type": "Feature", "properties": { "grid_id": 233, "building_distance_m": 4.9485637730423386, "index_right": 520, "node_id": "68032", "origin_snap_distance_m": 82.07019656164637, "parks_within_10min": 15, "parks_within_15min": 18, "nearest_distance_m": 0.0 }, "geometry": { "type": "Point", "coordinates": [ 126.962486876814836, 37.47966349719718 ] } },
{ "type": "Feature", "properties": { "grid_id": 234, "building_distance_m": 37.613563671025339, "index_right": 268, "node_id": "67971", "origin_snap_distance_m": 14.519019099306396, "parks_within_10min": 15, "parks_within_15min": 16, "nearest_distance_m": 73.981 }, "geometry": { "type": "Point", "coordinates": [ 126.962237848144298, 37.48165705115931 ] } },
{ "type": "Feature", "properties": { "grid_id": 235, "building_distance_m": 41.234322116232299, "index_right": 267, "node_id": "68252", "origin_snap_distance_m": 1107.8309682223262, "parks_within_10min": 4, "parks_within_15min": 18, "nearest_distance_m": 0.0 }, "geometry": { "type": "Point", "coordinates": [ 126.965622429928871, 37.468695886539273 ] } },
{ "type": "Feature", "properties": { "grid_id": 236, "building_distance_m": 8.516204974967776, "index_right": 353, "node_id": "68009", "origin_snap_distance_m": 906.68016659719126, "parks_within_10min": 15, "parks_within_15min": 18, "nearest_distance_m": 0.0 }, "geometry": { "type": "Point", "coordinates": [ 126.965323881324366, 37.470704149990652 ] } },
{ "type": "Feature", "properties": { "grid_id": 237, "building_distance_m": 22.9988225671284, "index_right": 353, "node_id": "68009", "origin_snap_distance_m": 689.45640673449157, "parks_within_10min": 15, "parks_within_15min": 18, "nearest_distance_m": 0.0 }, "geometry": { "type": "Point", "coordinates": [ 126.965126044222515, 37.472812175243632 ] } },
{ "type": "Feature", "properties": { "grid_id": 238, "building_distance_m": 19.263451078667643, "index_right": 353, "node_id": "68009", "origin_snap_distance_m": 517.06108566476223, "parks_within_10min": 15, "parks_within_15min": 18, "nearest_distance_m": 0.0 }, "geometry": { "type": "Point", "coordinates": [ 126.96555571014639, 37.475055208674604 ] } },
{ "type": "Feature", "properties": { "grid_id": 239, "building_distance_m": 7.5502604138387799, "index_right": 39, "node_id": "68030", "origin_snap_distance_m": 361.3134976654087, "parks_within_10min": 15, "parks_within_15min": 18, "nearest_distance_m": 0.0 }, "geometry": { "type": "Point", "coordinates": [ 126.965323549343537, 37.477453024934576 ] } },
{ "type": "Feature", "properties": { "grid_id": 240, "building_distance_m": 46.870960432167458, "index_right": 353, "node_id": "68009", "origin_snap_distance_m": 1263.5943333635676, "parks_within_10min": 15, "parks_within_15min": 18, "nearest_distance_m": 0.0 }, "geometry": { "type": "Point", "coordinates": [ 126.968708186829062, 37.468491886260757 ] } },
{ "type": "Feature", "properties": { "grid_id": 241, "building_distance_m": 10.298473536263403, "index_right": 353, "node_id": "68009", "origin_snap_distance_m": 1042.7985256369304, "parks_within_10min": 15, "parks_within_15min": 18, "nearest_distance_m": 0.0 }, "geometry": { "type": "Point", "coordinates": [ 126.96830173217792, 37.470673732626665 ] } },
{ "type": "Feature", "properties": { "grid_id": 242, "building_distance_m": 6.33091183058393, "index_right": 353, "node_id": "68009", "origin_snap_distance_m": 848.16905903463942, "parks_within_10min": 15, "parks_within_15min": 18, "nearest_distance_m": 0.0 }, "geometry": { "type": "Point", "coordinates": [ 126.968123890922882, 37.472877535503805 ] } },
{ "type": "Feature", "properties": { "grid_id": 243, "building_distance_m": 10.558206139857692, "index_right": 353, "node_id": "68009", "origin_snap_distance_m": 705.82238649048497, "parks_within_10min": 15, "parks_within_15min": 18, "nearest_distance_m": 0.0 }, "geometry": { "type": "Point", "coordinates": [ 126.968172271094687, 37.47504837655859 ] } },
{ "type": "Feature", "properties": { "grid_id": 244, "building_distance_m": 111.66270449460397, "index_right": 353, "node_id": "68009", "origin_snap_distance_m": 1294.2868513576138, "parks_within_10min": 15, "parks_within_15min": 18, "nearest_distance_m": 0.0 }, "geometry": { "type": "Point", "coordinates": [ 126.969856653703204, 37.468772191434468 ] } },
{ "type": "Feature", "properties": { "grid_id": 245, "building_distance_m": 74.123254843995369, "index_right": 353, "node_id": "68009", "origin_snap_distance_m": 1177.7394018271434, "parks_within_10min": 15, "parks_within_15min": 18, "nearest_distance_m": 0.0 }, "geometry": { "type": "Point", "coordinates": [ 126.970246762561956, 37.470382244544027 ] } },
{ "type": "Feature", "properties": { "grid_id": 246, "building_distance_m": 10.146591862904867, "index_right": 353, "node_id": "68009", "origin_snap_distance_m": 1038.0607871416871, "parks_within_10min": 15, "parks_within_15min": 18, "nearest_distance_m": 0.0 }, "geometry": { "type": "Point", "coordinates": [ 126.970974853334113, 37.472974295156007 ] } },
{ "type": "Feature", "properties": { "grid_id": 247, "building_distance_m": 47.303155841763456, "index_right": 39, "node_id": "68030", "origin_snap_distance_m": 966.4560593226131, "parks_within_10min": 15, "parks_within_15min": 18, "nearest_distance_m": 0.0 }, "geometry": { "type": "Point", "coordinates": [ 126.971550532335684, 37.475191098766985 ] } },
{ "type": "Feature", "properties": { "grid_id": 248, "building_distance_m": 58.828163388221796, "index_right": 353, "node_id": "68009", "origin_snap_distance_m": 1361.719076279127, "parks_within_10min": 15, "parks_within_15min": 18, "nearest_distance_m": 0.0 }, "geometry": { "type": "Point", "coordinates": [ 126.973857388236311, 37.471168395186069 ] } },
{ "type": "Feature", "properties": { "grid_id": 249, "building_distance_m": 4.4285131758704468, "index_right": 353, "node_id": "68009", "origin_snap_distance_m": 1257.283997757067, "parks_within_10min": 15, "parks_within_15min": 18, "nearest_distance_m": 0.0 }, "geometry": { "type": "Point", "coordinates": [ 126.973796289477235, 37.472888977161844 ] } },
{ "type": "Feature", "properties": { "grid_id": 250, "building_distance_m": 5.0684522480326395, "index_right": 520, "node_id": "68032", "origin_snap_distance_m": 1150.7669188328714, "parks_within_10min": 15, "parks_within_15min": 18, "nearest_distance_m": 0.0 }, "geometry": { "type": "Point", "coordinates": [ 126.973832956141052, 37.475188019957677 ] } },
{ "type": "Feature", "properties": { "grid_id": 252, "building_distance_m": 43.583512082646656, "index_right": 39, "node_id": "68030", "origin_snap_distance_m": 1480.3391905389608, "parks_within_10min": 15, "parks_within_15min": 18, "nearest_distance_m": 0.0 }, "geometry": { "type": "Point", "coordinates": [ 126.976832813187229, 37.473262855778486 ] } },
{ "type": "Feature", "properties": { "grid_id": 253, "building_distance_m": 12.499717685052826, "index_right": 520, "node_id": "68032", "origin_snap_distance_m": 1396.6417475120486, "parks_within_10min": 15, "parks_within_15min": 18, "nearest_distance_m": 0.0 }, "geometry": { "type": "Point", "coordinates": [ 126.976799366446258, 37.475192524922392 ] } },
{ "type": "Feature", "properties": { "grid_id": 254, "building_distance_m": 113.8368520617918, "index_right": 39, "node_id": "68030", "origin_snap_distance_m": 1729.858898495115, "parks_within_10min": 15, "parks_within_15min": 18, "nearest_distance_m": 0.0 }, "geometry": { "type": "Point", "coordinates": [ 126.978936812835059, 37.47156202390277 ] } },
{ "type": "Feature", "properties": { "grid_id": 255, "building_distance_m": 21.946433960145274, "index_right": 520, "node_id": "68032", "origin_snap_distance_m": 1710.9536527086577, "parks_within_10min": 15, "parks_within_15min": 18, "nearest_distance_m": 0.0 }, "geometry": { "type": "Point", "coordinates": [ 126.979588543582352, 37.473076381261478 ] } },
{ "type": "Feature", "properties": { "grid_id": 256, "building_distance_m": 4.8771412704520536, "index_right": 520, "node_id": "68032", "origin_snap_distance_m": 1626.9077565983421, "parks_within_10min": 15, "parks_within_15min": 18, "nearest_distance_m": 0.0 }, "geometry": { "type": "Point", "coordinates": [ 126.979518613356532, 37.475185371808486 ] } },
{ "type": "Feature", "properties": { "grid_id": 257, "building_distance_m": 174.47221683859627, "index_right": 520, "node_id": "68032", "origin_snap_distance_m": 1929.3668633928232, "parks_within_10min": 15, "parks_within_15min": 18, "nearest_distance_m": 0.0 }, "geometry": { "type": "Point", "coordinates": [ 126.981775343735194, 37.472149607732547 ] } },
{ "type": "Feature", "properties": { "grid_id": 258, "building_distance_m": 32.860432127977084, "index_right": 520, "node_id": "68032", "origin_snap_distance_m": 1914.0267400368455, "parks_within_10min": 15, "parks_within_15min": 18, "nearest_distance_m": 0.0 }, "geometry": { "type": "Point", "coordinates": [ 126.98195634661262, 37.472855713307951 ] } }
]
}
