{
"type": "FeatureCollection",
"name": "gwanak_boundary",
"crs": { "type": "name", "properties": { "name": "urn:ogc:def:crs:OGC:1.3:CRS84" } },
"features": [
{ "type": "Feature", "properties": { "EMD_CD": "11620101", "COL_ADM_SE": "11620", "EMD_NM": "봉천동", "SGG_OID": 370 }, "geometry": { "type": "Polygon", "coordinates": [ [ [ 126.970311637537293, 37.449349013628293 ], [ 126.970146776669779, 37.449290918135908 ], [ 126.970051035479528, 37.449257104940827 ], [ 126.969593302708915, 37.449095440730034 ], [ 126.968661419035399, 37.448754190403427 ], [ 126.967662577022807, 37.448380044827942 ], [ 126.965780364764882, 37.447199072726065 ], [ 126.965343151852579, 37.446923555979581 ], [ 126.965202138209023, 37.446832709261024 ], [ 126.964939664799218, 37.446669284779183 ], [ 126.964619757021026, 37.446469549233967 ], [ 126.96436483260176, 37.446311117401244 ], [ 126.964289365246785, 37.446266935302724 ], [ 126.96412130988908, 37.445770346263252 ], [ 126.963941586079997, 37.445245398538283 ], [ 126.963933182672022, 37.445214293098097 ], [ 126.964139857867806, 37.444831772937157 ], [ 126.964371857974797, 37.444398299375614 ], [ 126.964418978278175, 37.444312349062841 ], [ 126.964315817338743, 37.443830584035474 ], [ 126.964302591950315, 37.443770014153607 ], [ 126.964320474739509, 37.443462001374556 ], [ 126.964333988065974, 37.443305969149264 ], [ 126.964355614326593, 37.442968395460248 ], [ 126.964381233534752, 37.442576663434956 ], [ 126.96460978349532, 37.442087460828574 ], [ 126.964633684365538, 37.442039264376866 ], [ 126.964153482134861, 37.441612774736832 ], [ 126.963821701318579, 37.441318319172431 ], [ 126.963783952583313, 37.441286492543497 ], [ 126.963799257915426, 37.44087105172293 ], [ 126.963803085799782, 37.440786565435452 ], [ 126.963113580194886, 37.440376168605525 ], [ 126.962983173763348, 37.440299071968973 ], [ 126.96294249259627, 37.440280164564257 ], [ 126.962466598158116, 37.440280305648322 ], [ 126.961949019624953, 37.440278250432151 ], [ 126.961762334110915, 37.440278692362263 ], [ 126.961499499626143, 37.440298651106566 ], [ 126.960903700832631, 37.440342840576498 ], [ 126.960275652562373, 37.440384988528372 ], [ 126.960055510900418, 37.440400273706864 ], [ 126.960000222711187, 37.44035537509702 ], [ 126.959756188437737, 37.440155364484326 ], [ 126.959571203326519, 37.440004884718007 ], [ 126.959542166296814, 37.439978294675335 ], [ 126.959252333033987, 37.439543076609525 ], [ 126.958998470884424, 37.439126404482252 ], [ 126.958965745336656, 37.439069358892588 ], [ 126.958432170191458, 37.439016339520336 ], [ 126.958139344005502, 37.43898770651505 ], [ 126.957740375643823, 37.438947419530642 ], [ 126.957566630714567, 37.438929956594919 ], [ 126.957040314963606, 37.438852723548798 ], [ 126.956704620301863, 37.438803023301595 ], [ 126.956477879028014, 37.438769284476294 ], [ 126.956367897649528, 37.438753601020721 ], [ 126.956062783060347, 37.438737374069319 ], [ 126.955619681798538, 37.438713875761195 ], [ 126.955260070349297, 37.43869605781228 ], [ 126.955174466778175, 37.438692005788248 ], [ 126.955108443092655, 37.438691835725706 ], [ 126.954995449287011, 37.438724173546269 ], [ 126.954630456046743, 37.438856495564181 ], [ 126.954380971135862, 37.43890997029316 ], [ 126.953903757115555, 37.439009079153614 ], [ 126.953610135083238, 37.439044027761746 ], [ 126.953447190301631, 37.439066739099943 ], [ 126.953166758863361, 37.439095033519401 ], [ 126.952651767635288, 37.439158595115018 ], [ 126.952410667828914, 37.439189994449677 ], [ 126.952086232452061, 37.43898077129095 ], [ 126.95207182864489, 37.438975773682145 ], [ 126.951870673555362, 37.438836132223848 ], [ 126.951466849912748, 37.438576156235698 ], [ 126.951157950480535, 37.438443748035318 ], [ 126.951134865914767, 37.438442972342095 ], [ 126.950924904660596, 37.438733349687659 ], [ 126.950032366105518, 37.438621086152402 ], [ 126.94984269862762, 37.438379235868737 ], [ 126.949577590040008, 37.438293956389309 ], [ 126.949512965775909, 37.438280475925062 ], [ 126.949310276403551, 37.438260699555457 ], [ 126.949283820429883, 37.438249722598698 ], [ 126.94918899622327, 37.438328284619111 ], [ 126.949176349093932, 37.43833244167805 ], [ 126.94916112068158, 37.438343742587513 ], [ 126.949053254722372, 37.438424839564007 ], [ 126.948944935796177, 37.438507008439146 ], [ 126.948765502565905, 37.438645368410675 ], [ 126.948623278802174, 37.438670803390032 ], [ 126.948362849436492, 37.438712187011156 ], [ 126.948304151871213, 37.438690473337246 ], [ 126.94828879606311, 37.438689907798882 ], [ 126.948034036704115, 37.438575535968248 ], [ 126.947854104942792, 37.438491633634683 ], [ 126.94759879123761, 37.438411552982892 ], [ 126.947165394202969, 37.438272319936502 ], [ 126.947027273203986, 37.438234233804593 ], [ 126.946789059615767, 37.438166746366853 ], [ 126.946590089800694, 37.437929157321761 ], [ 126.946379787688542, 37.437768815098444 ], [ 126.945675913553885, 37.437304988003739 ], [ 126.945090291616012, 37.437087711066994 ], [ 126.944637113875061, 37.437123011636054 ], [ 126.944060064093847, 37.437197696471856 ], [ 126.943522509837848, 37.437265667339645 ], [ 126.94338474554722, 37.437282493580433 ], [ 126.943283636521812, 37.437299346733091 ], [ 126.942623983714981, 37.437404690199244 ], [ 126.941979338595516, 37.437505172096316 ], [ 126.941424073624319, 37.437404005235997 ], [ 126.9411487776662, 37.436991383348726 ], [ 126.941137525272069, 37.436975087370392 ], [ 126.941136490636751, 37.436968978005083 ], [ 126.941102430207351, 37.436917846397201 ], [ 126.940879230820158, 37.436669324099597 ], [ 126.940707917717646, 37.436478600734596 ], [ 126.940530058229797, 37.436280080014981 ], [ 126.94050225415674, 37.436136634124658 ], [ 126.940502706426727, 37.43612234436312 ], [ 126.94048035939602, 37.436007463250718 ], [ 126.940471657639719, 37.435981293469766 ], [ 126.940426403421455, 37.435801536907256 ], [ 126.940352273546182, 37.435768602753114 ], [ 126.940219893156467, 37.435711923817109 ], [ 126.939558068461793, 37.435955310619676 ], [ 126.939363901042512, 37.436025460328366 ], [ 126.93862155021246, 37.436028140137246 ], [ 126.938615007633146, 37.436096036657652 ], [ 126.938574522291233, 37.436420053799196 ], [ 126.938545526972462, 37.43644860933545 ], [ 126.938374784341761, 37.436608708550388 ], [ 126.938326036297951, 37.436652309330356 ], [ 126.938282849238746, 37.43672067277577 ], [ 126.93816510172428, 37.436904892979868 ], [ 126.938145443743167, 37.436941634575128 ], [ 126.938012139378742, 37.437189043004075 ], [ 126.937988891059931, 37.437208834675936 ], [ 126.937746334831203, 37.437385490919766 ], [ 126.937750815868966, 37.43739119671956 ], [ 126.937741348899308, 37.437468786447191 ], [ 126.93774419884457, 37.43787871070306 ], [ 126.937725401479995, 37.437926039533075 ], [ 126.937655518796589, 37.438093201894802 ], [ 126.937562505842152, 37.438326449657815 ], [ 126.937470128186362, 37.438423456242369 ], [ 126.937272659046769, 37.438631896430948 ], [ 126.937265030294441, 37.438792271726371 ], [ 126.937257706024553, 37.438926887361859 ], [ 126.937248528719152, 37.439167055077924 ], [ 126.937247088639694, 37.439212564210365 ], [ 126.937402129998461, 37.439373919826188 ], [ 126.937638836711457, 37.439626825761621 ], [ 126.937693558204273, 37.43968397922341 ], [ 126.937713787926853, 37.439720255713887 ], [ 126.93775783572687, 37.439865350767711 ], [ 126.937843372797431, 37.440135086558563 ], [ 126.937864078143633, 37.440197060021426 ], [ 126.937745737344613, 37.440353708536428 ], [ 126.937542632945181, 37.440619459172346 ], [ 126.937372751364705, 37.440842735952685 ], [ 126.937353551146657, 37.440871062226854 ], [ 126.937194154880586, 37.441041473297403 ], [ 126.93694882621385, 37.441298189819697 ], [ 126.936812065868025, 37.44143801450322 ], [ 126.936771872127196, 37.441542320173326 ], [ 126.936735112745097, 37.441634392026231 ], [ 126.936688108065709, 37.441695652796788 ], [ 126.936646910165891, 37.441745437897538 ], [ 126.936306582657792, 37.441904575820679 ], [ 126.936201923236354, 37.441953938305147 ], [ 126.936041351508024, 37.442093055145236 ], [ 126.935985633823023, 37.442141047973493 ], [ 126.935840786708226, 37.442155933321047 ], [ 126.935643037490465, 37.442177654699698 ], [ 126.935577348233721, 37.442282297131911 ], [ 126.93544074391373, 37.442496768763156 ], [ 126.935254870293193, 37.44265936865002 ], [ 126.935113250413607, 37.442921185018001 ], [ 126.9350314690153, 37.443063173859706 ], [ 126.934895281580467, 37.443211934596263 ], [ 126.934887831383662, 37.443215642547543 ], [ 126.934741137629715, 37.443207793086479 ], [ 126.934563902436025, 37.443196259048321 ], [ 126.93445086689367, 37.443257877936212 ], [ 126.934051253169059, 37.443472252469583 ], [ 126.934027194653396, 37.443484897889114 ], [ 126.933818338810141, 37.443638328128998 ], [ 126.933407578334226, 37.443940767548177 ], [ 126.933218441961472, 37.444078773821367 ], [ 126.933001662536839, 37.444205933662005 ], [ 126.93265149914329, 37.44441100665253 ], [ 126.93221555097395, 37.444665691849636 ], [ 126.932135815513291, 37.444713434494737 ], [ 126.93183891909716, 37.444917644314728 ], [ 126.93174946639958, 37.444975652449571 ], [ 126.931489495707567, 37.445073510274277 ], [ 126.931325635913865, 37.445135213161834 ], [ 126.930862417419348, 37.445334564313875 ], [ 126.930554021233888, 37.445468116047259 ], [ 126.930517421933914, 37.445548103492854 ], [ 126.930393910055102, 37.445818024995923 ], [ 126.930326370294097, 37.445968254278789 ], [ 126.930284981099291, 37.446141384856766 ], [ 126.930281366037477, 37.446152059610178 ], [ 126.93024022600892, 37.446229088921115 ], [ 126.930163081449578, 37.446377681485238 ], [ 126.930210189985274, 37.446477658606149 ], [ 126.930277689425239, 37.44662099543735 ], [ 126.930265544380859, 37.446653217131917 ], [ 126.930278454004579, 37.446732360343525 ], [ 126.930289352078972, 37.446823449690953 ], [ 126.930324324786156, 37.44708949301679 ], [ 126.930364392920268, 37.447392967207335 ], [ 126.930365592223893, 37.447522757947297 ], [ 126.930367969940193, 37.447697005063631 ], [ 126.930303587209167, 37.447900737960019 ], [ 126.930245668764826, 37.448115926506219 ], [ 126.930173952846332, 37.448365254838414 ], [ 126.930166024425858, 37.448383846828506 ], [ 126.930047041538373, 37.448543505389033 ], [ 126.929909482769688, 37.448734849982635 ], [ 126.929785787968612, 37.448880810116698 ], [ 126.929436411432249, 37.449294006372774 ], [ 126.929285979521339, 37.44947159300613 ], [ 126.928991572494326, 37.449633359617387 ], [ 126.928954993554399, 37.449735240987842 ], [ 126.928910465131622, 37.449865228860233 ], [ 126.928716794090775, 37.449993890569246 ], [ 126.928397680055582, 37.450212647133299 ], [ 126.92840717788998, 37.450242674537819 ], [ 126.928493675307323, 37.45049024343836 ], [ 126.928509930726733, 37.450544286824147 ], [ 126.928503363600967, 37.450568573895737 ], [ 126.928465574224902, 37.450740255301397 ], [ 126.928452034152926, 37.450810939878707 ], [ 126.928410742184028, 37.450900186039554 ], [ 126.928365959050765, 37.451011522695126 ], [ 126.928289322698305, 37.451024089327177 ], [ 126.928082334276212, 37.451060406607972 ], [ 126.927868856440668, 37.451098917937664 ], [ 126.927810402056238, 37.451090466103153 ], [ 126.927344223724717, 37.451013048353353 ], [ 126.927290207717562, 37.451007869699026 ], [ 126.92725969441824, 37.451041440042502 ], [ 126.927100558571766, 37.451234894096814 ], [ 126.92689549176086, 37.451485875210111 ], [ 126.92671379563771, 37.451702452318315 ], [ 126.926658584501411, 37.451773362579623 ], [ 126.926629072277336, 37.451822457723551 ], [ 126.92652098671951, 37.452000527091478 ], [ 126.92649727820293, 37.452054788647189 ], [ 126.92636573082666, 37.452333431277104 ], [ 126.926275796707628, 37.452509259429533 ], [ 126.926263085331712, 37.452540056729397 ], [ 126.926223731304773, 37.452564043474169 ], [ 126.925655042923125, 37.452930344181958 ], [ 126.925587004847898, 37.452954060017326 ], [ 126.925423581280214, 37.453009646090209 ], [ 126.925362467024655, 37.452992748910042 ], [ 126.924809289684717, 37.452848887994726 ], [ 126.924779243572587, 37.452843714737703 ], [ 126.924755617365832, 37.452871234135159 ], [ 126.924620390374145, 37.453027092326693 ], [ 126.924594375194403, 37.453058691693151 ], [ 126.924488980083169, 37.453163590231682 ], [ 126.924280276964197, 37.453365171211921 ], [ 126.924247432960016, 37.45339895548144 ], [ 126.924183435349718, 37.453679766128424 ], [ 126.924092150146933, 37.453745389683228 ], [ 126.923959141103936, 37.453840971265166 ], [ 126.923821238139311, 37.453936405317812 ], [ 126.923711071278092, 37.453997673314227 ], [ 126.923308226848505, 37.454223821150627 ], [ 126.923082920309469, 37.454528527100528 ], [ 126.922943717726241, 37.454859283886478 ], [ 126.922822994904308, 37.455155742505532 ], [ 126.92279577710498, 37.455255006175086 ], [ 126.922653122858009, 37.455770556487785 ], [ 126.922601711737045, 37.455972464508946 ], [ 126.922509808444275, 37.456331624929284 ], [ 126.922186842693677, 37.456623217177707 ], [ 126.921643227155897, 37.456704364995794 ], [ 126.92105097209091, 37.456800082502006 ], [ 126.92087440885274, 37.456829578204804 ], [ 126.920548368931435, 37.456809163767517 ], [ 126.920219625274697, 37.456791197305272 ], [ 126.919634684665837, 37.456758546528988 ], [ 126.919140902109788, 37.456897354650678 ], [ 126.918333944935583, 37.456908916994038 ], [ 126.91830036658088, 37.456918209750363 ], [ 126.918180397632312, 37.456953732945735 ], [ 126.918100381332891, 37.456969966672474 ], [ 126.918044573834734, 37.456986992309538 ], [ 126.917919652195494, 37.457024322762123 ], [ 126.917821534856557, 37.457055878603427 ], [ 126.917787553645184, 37.457061440767028 ], [ 126.917704444785002, 37.457073644541339 ], [ 126.91758082978302, 37.457094442116905 ], [ 126.917481134983788, 37.457111328190791 ], [ 126.917472782572702, 37.457121368459255 ], [ 126.917429253212717, 37.457175226616151 ], [ 126.917383427614766, 37.457220586643402 ], [ 126.917289509303046, 37.457337226945349 ], [ 126.917277579295231, 37.457342516353016 ], [ 126.917142569528309, 37.457404751582196 ], [ 126.917085455277928, 37.457427497214383 ], [ 126.917046701753563, 37.457445291404582 ], [ 126.916956981670097, 37.457486493281223 ], [ 126.916916346488037, 37.457509070419299 ], [ 126.91682719062284, 37.457480778077716 ], [ 126.916670974870073, 37.457434660716061 ], [ 126.916629536710815, 37.457427630151486 ], [ 126.916465926936766, 37.457383678629988 ], [ 126.915851817155485, 37.457405751229508 ], [ 126.915577113902415, 37.457403281269357 ], [ 126.91498134226832, 37.457312250497374 ], [ 126.914660060774906, 37.457428163394034 ], [ 126.914609758494763, 37.457443425482921 ], [ 126.914576842146275, 37.457456294657121 ], [ 126.914448913236583, 37.457560419741171 ], [ 126.914392223031413, 37.457606545464643 ], [ 126.914313673322155, 37.45767250417537 ], [ 126.914288925724392, 37.457687784979136 ], [ 126.914167599594009, 37.457789409833076 ], [ 126.914114890062763, 37.457833357931264 ], [ 126.914029902202756, 37.457904924950597 ], [ 126.914027655269692, 37.457990302522163 ], [ 126.914027033604526, 37.458116460781326 ], [ 126.914025626546788, 37.458121217046077 ], [ 126.9140225713858, 37.458172707219006 ], [ 126.91402523316512, 37.458235752507335 ], [ 126.914023415409758, 37.45837960561289 ], [ 126.91402173460159, 37.458415599516016 ], [ 126.914024564560592, 37.458431306127089 ], [ 126.914025020606232, 37.458457030155571 ], [ 126.914078057187382, 37.45855004410366 ], [ 126.914150382722212, 37.458686032200532 ], [ 126.914194238874956, 37.4587621724949 ], [ 126.914278337041893, 37.458912342012923 ], [ 126.914276587943093, 37.458919647871255 ], [ 126.914254236989592, 37.458973069968948 ], [ 126.914238110701305, 37.458999971076139 ], [ 126.914178144340823, 37.459140843934051 ], [ 126.914110108603708, 37.459300280499548 ], [ 126.91409288926161, 37.459343651144685 ], [ 126.914039495287739, 37.459469644186264 ], [ 126.914050829527113, 37.459491141538777 ], [ 126.91418578219924, 37.459765317971495 ], [ 126.914227955696774, 37.459850494073656 ], [ 126.914228850821317, 37.459858324465799 ], [ 126.914266269502718, 37.459930693764278 ], [ 126.914263456995158, 37.459967975262622 ], [ 126.914251815483084, 37.460162169217746 ], [ 126.914229908403826, 37.460494641774886 ], [ 126.914214235535894, 37.460714592452526 ], [ 126.914211978196136, 37.460721519510294 ], [ 126.914206457576029, 37.460783964059559 ], [ 126.914200056633675, 37.460884160048735 ], [ 126.914192363172461, 37.460997482717026 ], [ 126.914205811050437, 37.46102895573118 ], [ 126.914282568915212, 37.46120478037512 ], [ 126.914330175910564, 37.461313026145987 ], [ 126.914381198101353, 37.461429689795587 ], [ 126.914384669824543, 37.461447721454768 ], [ 126.914391591506046, 37.461483063953018 ], [ 126.914407289197442, 37.461572716458321 ], [ 126.914405711340123, 37.461578517764032 ], [ 126.914411673442132, 37.461612859438127 ], [ 126.914401318481808, 37.461623753959628 ], [ 126.914260368576663, 37.461740852636773 ], [ 126.914048139942906, 37.461916869149391 ], [ 126.913965253039535, 37.461985635501087 ], [ 126.913951663502118, 37.461998041273581 ], [ 126.913947496014814, 37.462014535576046 ], [ 126.913892502981611, 37.462230420512739 ], [ 126.913840001426536, 37.462441946403189 ], [ 126.913834364122152, 37.462449060155038 ], [ 126.913825194977036, 37.462489697656586 ], [ 126.913818862586993, 37.462511272011028 ], [ 126.913773098274888, 37.462692997639067 ], [ 126.913733907084492, 37.462850130710024 ], [ 126.913710729140817, 37.462865133232782 ], [ 126.913594924651449, 37.462934811896041 ], [ 126.913473055851568, 37.463009207189401 ], [ 126.913347195847734, 37.463084365232071 ], [ 126.913314030571257, 37.463104784270307 ], [ 126.913298114064133, 37.463115638501158 ], [ 126.913269363153617, 37.463159721192284 ], [ 126.913173936949619, 37.463306901013993 ], [ 126.913166772624052, 37.463314815485091 ], [ 126.913044304985391, 37.463503249979766 ], [ 126.912968602688949, 37.463621359977154 ], [ 126.912963824138714, 37.46364775581776 ], [ 126.912925574308801, 37.463867400963579 ], [ 126.912901906991749, 37.464009336413092 ], [ 126.91290851615824, 37.464050490224416 ], [ 126.912947911077012, 37.464240127047347 ], [ 126.912960258605011, 37.464255795750475 ], [ 126.912983010848848, 37.464285969402148 ], [ 126.913011858887899, 37.464323022275217 ], [ 126.913214557763069, 37.464588204229017 ], [ 126.91323677765152, 37.464619476657312 ], [ 126.913301820076626, 37.464733340047253 ], [ 126.913337723837188, 37.464797590403982 ], [ 126.913440435973342, 37.464973903367586 ], [ 126.913656141253242, 37.465351620603457 ], [ 126.91372392769992, 37.465468936632341 ], [ 126.913576682445679, 37.465452807307457 ], [ 126.913564449381838, 37.465454942593141 ], [ 126.91353220508897, 37.465469920305949 ], [ 126.913292081394957, 37.465585313053616 ], [ 126.913067113003564, 37.465692995051754 ], [ 126.913043597329107, 37.465696374233886 ], [ 126.913010359130723, 37.465700890405238 ], [ 126.912831201562042, 37.46572446150617 ], [ 126.912767687818629, 37.46573253187082 ], [ 126.912560053095277, 37.465758603982273 ], [ 126.912552204496208, 37.465761832677821 ], [ 126.912521425020543, 37.465790001912168 ], [ 126.912398055125124, 37.465905273468721 ], [ 126.912399856363649, 37.465930520952824 ], [ 126.912399362725537, 37.466098810063031 ], [ 126.912399556603617, 37.466240222745768 ], [ 126.912400025919524, 37.466273380036718 ], [ 126.912257311217672, 37.466381681098561 ], [ 126.912047914191234, 37.466537991058274 ], [ 126.911870683561872, 37.466668817633476 ], [ 126.911796237660766, 37.466724551284194 ], [ 126.911782550114225, 37.466732821115407 ], [ 126.911687378102613, 37.466803018085876 ], [ 126.911653715779337, 37.466830860536163 ], [ 126.911647620701061, 37.466946103274552 ], [ 126.911642581879903, 37.467047714629203 ], [ 126.91164032410434, 37.467101863228088 ], [ 126.911638321018614, 37.467141550912665 ], [ 126.911279750645676, 37.467535610877405 ], [ 126.911137453122677, 37.467716585821883 ], [ 126.911111459632252, 37.467749389496859 ], [ 126.911100575933204, 37.467794611545166 ], [ 126.911094596553866, 37.467813014471304 ], [ 126.911092388218393, 37.467835150436969 ], [ 126.911052730171136, 37.468006959465313 ], [ 126.911043148394342, 37.468050497626486 ], [ 126.911041288801911, 37.468083391838256 ], [ 126.910999363210365, 37.468101181580785 ], [ 126.910822226837013, 37.46821491458315 ], [ 126.910571702649278, 37.468376208892458 ], [ 126.910340205603617, 37.468525416871991 ], [ 126.910155498024736, 37.468644684194544 ], [ 126.910117747365192, 37.468668288321339 ], [ 126.91001434402159, 37.468736756636162 ], [ 126.909972631051374, 37.468765087915578 ], [ 126.909962491864107, 37.468773828803172 ], [ 126.909968535782426, 37.468786222281054 ], [ 126.90996716278309, 37.468790482963115 ], [ 126.91002940597194, 37.468890506493103 ], [ 126.910144855881768, 37.469076004270526 ], [ 126.910239952909677, 37.469229104154344 ], [ 126.910253255108941, 37.469250071763611 ], [ 126.910227473035178, 37.469294182989024 ], [ 126.910143532752684, 37.469447964417832 ], [ 126.910052660494969, 37.469612750676887 ], [ 126.910034216277211, 37.469646262728851 ], [ 126.910029759008054, 37.469649034368111 ], [ 126.909995001502438, 37.469711320835025 ], [ 126.90996955528054, 37.46975786496921 ], [ 126.909949150103245, 37.469795673272991 ], [ 126.909950615662851, 37.469798954060074 ], [ 126.909949661375705, 37.469802827634268 ], [ 126.909943394503841, 37.469806336690574 ], [ 126.909876553072394, 37.469861083888524 ], [ 126.909816284802972, 37.46991137618329 ], [ 126.909813892184033, 37.469917438077829 ], [ 126.909809819117456, 37.469929562419374 ], [ 126.909800317999299, 37.470035828365489 ], [ 126.909798652395892, 37.470066749499992 ], [ 126.909760926998246, 37.470124501544227 ], [ 126.909667607684867, 37.470273788334133 ], [ 126.909653836722669, 37.470294077229575 ], [ 126.909564751000687, 37.47043833061749 ], [ 126.909544113560628, 37.470471633650703 ], [ 126.909549535387569, 37.470502821586003 ], [ 126.909573231735095, 37.470620952513855 ], [ 126.909586248986827, 37.470690033533209 ], [ 126.909590008963136, 37.470693631460193 ], [ 126.909587774993327, 37.470699342081559 ], [ 126.909465770647827, 37.470870753032521 ], [ 126.90936076005714, 37.471020778285201 ], [ 126.909251807512689, 37.471176954212964 ], [ 126.909128851780153, 37.471357761518831 ], [ 126.909088436009895, 37.471414475078319 ], [ 126.909041951673473, 37.471469526029352 ], [ 126.908958975176887, 37.471571166274465 ], [ 126.908873915008854, 37.471675561894692 ], [ 126.908788865830729, 37.471780020530524 ], [ 126.908772335562531, 37.471800685573761 ], [ 126.908732429377466, 37.471892862878455 ], [ 126.908654302208689, 37.472076326774399 ], [ 126.908623849842655, 37.472147482061402 ], [ 126.908615234084891, 37.472157908900769 ], [ 126.90846842732131, 37.47225257888973 ], [ 126.908436305084493, 37.472275348962611 ], [ 126.908435568738653, 37.472276591766452 ], [ 126.90843442459763, 37.472278500991095 ], [ 126.908426280064333, 37.472291775356346 ], [ 126.908253829886519, 37.472580617993103 ], [ 126.908214519936422, 37.472647008882987 ], [ 126.908201910617777, 37.472668839232377 ], [ 126.908197246639688, 37.472683098422223 ], [ 126.908207484896408, 37.47269528806347 ], [ 126.908280351754399, 37.472743675362224 ], [ 126.908435747682645, 37.472843394703737 ], [ 126.908436391551419, 37.472843800662098 ], [ 126.908585867157385, 37.472941118474225 ], [ 126.908657607301578, 37.472968574360607 ], [ 126.908796974208343, 37.473013193324668 ], [ 126.909030300253249, 37.473090682194943 ], [ 126.909227741216483, 37.47315307781961 ], [ 126.909286174568535, 37.473172513017133 ], [ 126.909464771066212, 37.47318860002045 ], [ 126.909565295733827, 37.473196075515233 ], [ 126.909608429223809, 37.473200758244076 ], [ 126.909857996577742, 37.473273221504378 ], [ 126.909942413488409, 37.473298010463864 ], [ 126.909949493089556, 37.473305007730204 ], [ 126.910006441622841, 37.473392791479185 ], [ 126.910022532627934, 37.473417176059385 ], [ 126.910255334645584, 37.473500032076686 ], [ 126.910525687781899, 37.473595701781356 ], [ 126.910543909017079, 37.473597553855527 ], [ 126.910715475141998, 37.473613651575668 ], [ 126.910745041986701, 37.473619233476825 ], [ 126.910806900434906, 37.473686306558328 ], [ 126.91098573004129, 37.473875960573906 ], [ 126.911023486182685, 37.473915399344229 ], [ 126.91107299356328, 37.474213092436905 ], [ 126.911329468136941, 37.474477822782831 ], [ 126.911359177119394, 37.474506569411183 ], [ 126.911295001377994, 37.47478632673468 ], [ 126.911293801090935, 37.474797354087713 ], [ 126.911303348654826, 37.474858133988782 ], [ 126.911315304637824, 37.474918564335994 ], [ 126.911312566753381, 37.474939087080372 ], [ 126.911204521843246, 37.475166381511784 ], [ 126.911181371058959, 37.475211594133839 ], [ 126.911247379626587, 37.475401341605966 ], [ 126.911328521025794, 37.47566123460313 ], [ 126.911361491163191, 37.47578952644399 ], [ 126.911354941332334, 37.475981173632611 ], [ 126.911616206048848, 37.476301715010095 ], [ 126.911807871975213, 37.476853715468991 ], [ 126.911795717951733, 37.477062396342149 ], [ 126.911801553399741, 37.477098675115506 ], [ 126.911811294189633, 37.477159175788159 ], [ 126.911809446004597, 37.477381244354902 ], [ 126.91181365988821, 37.477450012026878 ], [ 126.911833906015033, 37.477820645545577 ], [ 126.911705451640486, 37.477840379037126 ], [ 126.91066157776352, 37.47796227947768 ], [ 126.910616335826461, 37.478043929516346 ], [ 126.910478090675653, 37.478184379383308 ], [ 126.9104282865204, 37.478363901663506 ], [ 126.910286481111498, 37.478326031279146 ], [ 126.909924781263797, 37.478233200561831 ], [ 126.909823785800441, 37.47820761487251 ], [ 126.909622949484074, 37.478109267674135 ], [ 126.909459933938265, 37.478026771196653 ], [ 126.909260572581786, 37.478274436281936 ], [ 126.908960332233647, 37.478639278421298 ], [ 126.908689228881144, 37.478981698713021 ], [ 126.908614193590964, 37.479072514778174 ], [ 126.908635789016699, 37.479098696845 ], [ 126.9086937705069, 37.479185436791461 ], [ 126.908721390898918, 37.479249042175681 ], [ 126.908728677368032, 37.479253679046352 ], [ 126.908730859551127, 37.479262681766876 ], [ 126.908697716199171, 37.479377407312533 ], [ 126.908692506305357, 37.479403162858063 ], [ 126.908812307644709, 37.479563473024257 ], [ 126.909106346153123, 37.479638873911526 ], [ 126.908986236286466, 37.4800491230828 ], [ 126.908972827046654, 37.4800953609926 ], [ 126.909358633779235, 37.48016467924198 ], [ 126.90957143846417, 37.480197136917596 ], [ 126.909890973554681, 37.480245949106902 ], [ 126.909934911359514, 37.480252659590434 ], [ 126.909918290850229, 37.480308932274561 ], [ 126.909887566081281, 37.480416226746513 ], [ 126.909847600475999, 37.48055440037173 ], [ 126.909785510521374, 37.480765294656408 ], [ 126.909647788286378, 37.480741049830833 ], [ 126.909468245431555, 37.480707555028658 ], [ 126.909106288684598, 37.480640409190102 ], [ 126.908814524871588, 37.48058750810528 ], [ 126.908489767034681, 37.480528489558779 ], [ 126.908089469292392, 37.480455760243821 ], [ 126.907832962446989, 37.480408957355948 ], [ 126.907679373133618, 37.480380607107385 ], [ 126.907514921026177, 37.480350608195216 ], [ 126.907377958667524, 37.480325658546498 ], [ 126.907138250049542, 37.480281417366086 ], [ 126.907045597124451, 37.480264341427578 ], [ 126.906804487255556, 37.480219873199125 ], [ 126.906588279781019, 37.480179154633333 ], [ 126.906489420849852, 37.480161550691854 ], [ 126.906424472360669, 37.480149650271784 ], [ 126.906367526591652, 37.480139215882858 ], [ 126.906076411575384, 37.480085939146704 ], [ 126.905812311820895, 37.480037485915034 ], [ 126.905515952839849, 37.479983302548632 ], [ 126.905444528412914, 37.480022825497578 ], [ 126.905368567090406, 37.480064822465785 ], [ 126.905238443555092, 37.480112289395784 ], [ 126.90383391174683, 37.479854531405529 ], [ 126.903558567759305, 37.479803937476476 ], [ 126.902972276047791, 37.479696320894625 ], [ 126.90241526096851, 37.479594041869611 ], [ 126.901297957557446, 37.479388842462541 ], [ 126.900884155521624, 37.479312896741924 ], [ 126.898943355472085, 37.478939744970432 ], [ 126.89895795681521, 37.479010035774863 ], [ 126.898973689001679, 37.479080147357649 ], [ 126.898990664968693, 37.479150169916572 ], [ 126.899008884965724, 37.47921992325098 ], [ 126.899028122635343, 37.479289587364242 ], [ 126.899048604341218, 37.47935898225191 ], [ 126.899070336728258, 37.479423242510371 ], [ 126.899093073636379, 37.479497054251816 ], [ 126.899117061231678, 37.479565731362797 ], [ 126.899142179817829, 37.479634139147521 ], [ 126.899164937135581, 37.47969308436442 ], [ 126.899168429397648, 37.47970227760527 ], [ 126.899195810096757, 37.479770056635317 ], [ 126.89922432167225, 37.479837656436906 ], [ 126.899253964372519, 37.479904896809231 ], [ 126.899284851258471, 37.47997177784918 ], [ 126.899316756093484, 37.480038389460333 ], [ 126.899349792061102, 37.480104641639542 ], [ 126.899383846105195, 37.480170534288192 ], [ 126.899419144345487, 37.480236067600742 ], [ 126.899455460789554, 37.48030115128082 ], [ 126.899492908375834, 37.480365875525102 ], [ 126.899531374047712, 37.480430240234931 ], [ 126.899570970988734, 37.480494155406902 ], [ 126.899611586141987, 37.480557620942385 ], [ 126.899653332568491, 37.480620636937743 ], [ 126.899696097088807, 37.480683293394449 ], [ 126.899739993008737, 37.480745410208733 ], [ 126.899784794088788, 37.480807077284709 ], [ 126.899830726449792, 37.480868294815934 ], [ 126.899877677155956, 37.480928972603827 ], [ 126.899925533148831, 37.48098911055002 ], [ 126.899967854644544, 37.481045279314017 ], [ 126.900063896191625, 37.481172943605166 ], [ 126.901066118998429, 37.482397719963451 ], [ 126.901262075039355, 37.482637102191568 ], [ 126.901293568054484, 37.482675601656105 ], [ 126.902173015776015, 37.483750157375717 ], [ 126.902311860365913, 37.483919842408724 ], [ 126.902814641182317, 37.484534205478631 ], [ 126.902886548378092, 37.484622023005642 ], [ 126.903197771480265, 37.485002414624518 ], [ 126.903551799163537, 37.484988743168479 ], [ 126.905527386764959, 37.484912337950163 ], [ 126.905745598946268, 37.484916299224004 ], [ 126.905813201616127, 37.48492473330662 ], [ 126.906097630440414, 37.484960192473139 ], [ 126.906599120716663, 37.485105297119418 ], [ 126.908073764354214, 37.485531925081055 ], [ 126.908422337456173, 37.485632751912583 ], [ 126.909392805330725, 37.485897866154055 ], [ 126.909889166078983, 37.485902126415155 ], [ 126.910334534336911, 37.485998715840978 ], [ 126.910571721672198, 37.486050147560348 ], [ 126.910612958231027, 37.486058828899374 ], [ 126.910707300069191, 37.486088355155481 ], [ 126.910835866166678, 37.486128413274784 ], [ 126.910926286417279, 37.486156539795054 ], [ 126.911081425336036, 37.486204618902967 ], [ 126.911250534209074, 37.486257222493393 ], [ 126.911266673373177, 37.48626299221602 ], [ 126.911364228309822, 37.486300719506886 ], [ 126.911491337117809, 37.486349722736222 ], [ 126.911545652561955, 37.486370640292286 ], [ 126.911592757123671, 37.486389191713975 ], [ 126.911693195873667, 37.486426713697178 ], [ 126.911767572898796, 37.486454439944993 ], [ 126.911870815409472, 37.486492387376842 ], [ 126.911920972701665, 37.486511166233626 ], [ 126.911982692797679, 37.48655234369653 ], [ 126.91203283180387, 37.486586511582054 ], [ 126.912116311425152, 37.486642454831681 ], [ 126.912245490991936, 37.486729021528454 ], [ 126.912309741718744, 37.486772273032429 ], [ 126.912359076338916, 37.486827064074028 ], [ 126.912407744610064, 37.486881277951646 ], [ 126.912448790214739, 37.486927557258092 ], [ 126.912528545737572, 37.486987560918649 ], [ 126.912678285988477, 37.487099704006035 ], [ 126.912781335704494, 37.487177519766682 ], [ 126.912937221454953, 37.487294947000777 ], [ 126.913027936267184, 37.487362788230683 ], [ 126.91307566584868, 37.487398701805979 ], [ 126.91315946119299, 37.487495216599171 ], [ 126.913161979231234, 37.487498119703673 ], [ 126.913242628751661, 37.487596929635096 ], [ 126.913387509722341, 37.487776066574682 ], [ 126.913572776113426, 37.488006896760474 ], [ 126.914030780164879, 37.488249056262312 ], [ 126.914191885289128, 37.48833509483454 ], [ 126.914334979160984, 37.488410866513732 ], [ 126.914491826909909, 37.488492838022097 ], [ 126.914683072992972, 37.488592917682524 ], [ 126.914829775521312, 37.48866809675151 ], [ 126.914881079672568, 37.488694380519824 ], [ 126.915090587234076, 37.488795022516705 ], [ 126.915380986759331, 37.488935286061491 ], [ 126.915539912379558, 37.489011662475633 ], [ 126.915763513418497, 37.489119656681318 ], [ 126.915861708004741, 37.489166877250319 ], [ 126.915866556150448, 37.489169205345462 ], [ 126.915984168186853, 37.489223900168476 ], [ 126.916183371335521, 37.489320280039209 ], [ 126.916340331330943, 37.489396473752898 ], [ 126.916497574572276, 37.48947245122099 ], [ 126.91665142690556, 37.489547579103316 ], [ 126.916727893128922, 37.489572006056527 ], [ 126.916927156615856, 37.489636597426248 ], [ 126.917066988589141, 37.48968163934213 ], [ 126.917233089403965, 37.489735169235374 ], [ 126.917274323046399, 37.489748938894337 ], [ 126.917349865591945, 37.489770589705351 ], [ 126.917583965637675, 37.489837331137061 ], [ 126.91772076390383, 37.489875927972044 ], [ 126.917973244870495, 37.489947601126921 ], [ 126.918085151649336, 37.489979981055697 ], [ 126.918700918500065, 37.490152216967303 ], [ 126.918978272351509, 37.490197830461113 ], [ 126.919004919053535, 37.49020220991337 ], [ 126.919422471185868, 37.49027078757122 ], [ 126.919452261050324, 37.490275484456497 ], [ 126.920100650174902, 37.490317090711656 ], [ 126.920675218851585, 37.490333126600291 ], [ 126.921151882977114, 37.490332920190951 ], [ 126.921298969574138, 37.490333110245295 ], [ 126.921950970313461, 37.490201293310982 ], [ 126.921990701688827, 37.490193265119231 ], [ 126.922114906105691, 37.490168075600806 ], [ 126.92217691454475, 37.490147889803616 ], [ 126.922761733153365, 37.490061001183918 ], [ 126.922806313562205, 37.490054561709904 ], [ 126.923252699572899, 37.490006411462275 ], [ 126.923304774653516, 37.490001922924691 ], [ 126.923560122340675, 37.489975485144342 ], [ 126.923840542721464, 37.4899556496092 ], [ 126.924154958441108, 37.489963289146935 ], [ 126.92416070663613, 37.490200598326489 ], [ 126.924160803989452, 37.49020487814078 ], [ 126.924198122675648, 37.490321392872104 ], [ 126.924156732140773, 37.490326645639449 ], [ 126.924101544234361, 37.490334150862999 ], [ 126.924162839617622, 37.490358112561537 ], [ 126.924192520350104, 37.490370277471044 ], [ 126.924209100889428, 37.490388470502815 ], [ 126.924242624098696, 37.490424595506084 ], [ 126.924278438229223, 37.49046510986765 ], [ 126.924300575398263, 37.490500767900137 ], [ 126.924343099926887, 37.490569379808917 ], [ 126.924361523884059, 37.490598349983514 ], [ 126.924391503254952, 37.490617119368039 ], [ 126.924505950474583, 37.49068985967395 ], [ 126.924522401851746, 37.490701835676376 ], [ 126.924654064368198, 37.490747566064123 ], [ 126.924768616181211, 37.490840092142804 ], [ 126.924805446031101, 37.490905105192212 ], [ 126.924819449078939, 37.490922954083331 ], [ 126.924846165786661, 37.491003250523775 ], [ 126.924855510870373, 37.491042540187465 ], [ 126.924906976135333, 37.491137538967592 ], [ 126.924936714314967, 37.491248921842612 ], [ 126.924986119369663, 37.491368516548171 ], [ 126.925061326796296, 37.491467585131957 ], [ 126.925090455910009, 37.491511212374306 ], [ 126.925100704479206, 37.491529590391593 ], [ 126.925095491999741, 37.491584773265004 ], [ 126.925105837328914, 37.491619180132567 ], [ 126.925118343881195, 37.491663256125449 ], [ 126.92518726015247, 37.491722379231184 ], [ 126.925243140032535, 37.491769204242608 ], [ 126.925241224928854, 37.49180661252133 ], [ 126.925252087558178, 37.491821675241489 ], [ 126.925339885759229, 37.491938528494472 ], [ 126.925348164721029, 37.491970203976969 ], [ 126.925373814660404, 37.492077493551683 ], [ 126.925391280372978, 37.492137781695142 ], [ 126.925405987822188, 37.492464763998854 ], [ 126.925434435129247, 37.492512265009026 ], [ 126.925447950956752, 37.492564982198125 ], [ 126.925455099133245, 37.492585628704681 ], [ 126.925465315639642, 37.492613557263873 ], [ 126.925526114636384, 37.492660970950872 ], [ 126.925547397637416, 37.492715026602319 ], [ 126.925557509342028, 37.49274600046467 ], [ 126.925576940085435, 37.492797910539821 ], [ 126.925636865190853, 37.492859874752241 ], [ 126.925729061953618, 37.492900352775919 ], [ 126.92580015493192, 37.492955521519995 ], [ 126.925919493770039, 37.493049004577685 ], [ 126.925975351602261, 37.49306301481019 ], [ 126.926015580017719, 37.493101504201043 ], [ 126.926099787531285, 37.493182107353839 ], [ 126.926146094748333, 37.4932030130661 ], [ 126.926188527077485, 37.493254036708429 ], [ 126.926256527160859, 37.493293165409028 ], [ 126.926304298973093, 37.49331959511975 ], [ 126.926320249450058, 37.493335778216363 ], [ 126.926422427662871, 37.493437079524128 ], [ 126.926462260137541, 37.493476163168715 ], [ 126.926466259204815, 37.49348008505747 ], [ 126.926506537534493, 37.493480444006209 ], [ 126.926529740746773, 37.493548880646578 ], [ 126.926566149962269, 37.493652942174329 ], [ 126.926567762644623, 37.493668611580425 ], [ 126.926573221804105, 37.493818307114914 ], [ 126.92657323902543, 37.493891612450881 ], [ 126.926573581159175, 37.493945303231747 ], [ 126.926594356361448, 37.494010737985462 ], [ 126.926601696770689, 37.494020518485179 ], [ 126.926613630733385, 37.494084397909056 ], [ 126.926618076445507, 37.494105366986645 ], [ 126.926628289128928, 37.494126438829475 ], [ 126.926636921939036, 37.4941442660718 ], [ 126.926682258761204, 37.494175154030501 ], [ 126.926693594538719, 37.494181306026789 ], [ 126.926714385307605, 37.494197284903308 ], [ 126.926736433490859, 37.49421103910322 ], [ 126.926754352936413, 37.494226124165735 ], [ 126.926843371112724, 37.494281294602054 ], [ 126.926928037790262, 37.49433449804485 ], [ 126.926938960228355, 37.494358354396581 ], [ 126.926957348499116, 37.494402415867498 ], [ 126.927075369430469, 37.494483102712103 ], [ 126.927136221692265, 37.494536372086728 ], [ 126.927170031104595, 37.494629295421454 ], [ 126.927195113182151, 37.494696958240986 ], [ 126.927265228736943, 37.494782759453756 ], [ 126.927292335403706, 37.494815834155432 ], [ 126.927376732123989, 37.494914276283332 ], [ 126.927446457991323, 37.494994319754838 ], [ 126.927474593281971, 37.494993607581002 ], [ 126.92749949617847, 37.494991145436643 ], [ 126.927875072394244, 37.49507192947955 ], [ 126.928467854311677, 37.494829478137056 ], [ 126.928978835602351, 37.494511019358335 ], [ 126.929191433291308, 37.494386991963999 ], [ 126.929296435875898, 37.494320382232388 ], [ 126.929840660917293, 37.493996353814445 ], [ 126.929867249333867, 37.493980962849108 ], [ 126.929986524670781, 37.493982053251841 ], [ 126.930078192523595, 37.493976261227616 ], [ 126.93024217221307, 37.49387795309088 ], [ 126.930268690235792, 37.493865111821222 ], [ 126.930290504114012, 37.493852303749733 ], [ 126.930406203528094, 37.493784375003713 ], [ 126.930540051612482, 37.493716799427482 ], [ 126.930554713685751, 37.493709393007904 ], [ 126.930576819924738, 37.493698224878067 ], [ 126.930671791455737, 37.493642257707471 ], [ 126.93080966473083, 37.493562610842353 ], [ 126.93094987884281, 37.493482541743447 ], [ 126.930964213545451, 37.493474450317436 ], [ 126.931089345109626, 37.493403778480605 ], [ 126.931225146510798, 37.493325895851314 ], [ 126.931346023092203, 37.493258149458086 ], [ 126.931358991941877, 37.493211133985888 ], [ 126.9314156899365, 37.49319854463436 ], [ 126.931578323098933, 37.493158132070988 ], [ 126.931733839306958, 37.493122184038626 ], [ 126.931900404854488, 37.493084359222934 ], [ 126.932029206973098, 37.493053494715952 ], [ 126.932151740534351, 37.493026870096998 ], [ 126.932283345731236, 37.492997151227875 ], [ 126.932401378546885, 37.492970586782185 ], [ 126.932577744030695, 37.492985520277557 ], [ 126.932773422639087, 37.493013547264496 ], [ 126.933068304150396, 37.493054786037298 ], [ 126.933292509443845, 37.493086468726489 ], [ 126.933578923359519, 37.493138648481285 ], [ 126.933824433101265, 37.493182848285407 ], [ 126.933848920695354, 37.493188601681005 ], [ 126.933842562923701, 37.493116464002121 ], [ 126.933885308307154, 37.493127030175209 ], [ 126.933945249546753, 37.493116234455307 ], [ 126.933969916084436, 37.493111617421441 ], [ 126.934121974017955, 37.493084737334868 ], [ 126.934262428189015, 37.493059895717174 ], [ 126.934350168659051, 37.493043835754236 ], [ 126.934352179688389, 37.493058433093189 ], [ 126.934357988012138, 37.49310067526234 ], [ 126.934424163238049, 37.493086008543919 ], [ 126.934520821926341, 37.49306137600086 ], [ 126.93464416176424, 37.493029937915182 ], [ 126.934682888529252, 37.49302006685118 ], [ 126.934788521841767, 37.492986780557565 ], [ 126.935268725575654, 37.492838926430991 ], [ 126.935334803599616, 37.492818618888606 ], [ 126.935375013954854, 37.492805946318995 ], [ 126.935404805283838, 37.492785600397873 ], [ 126.935559169328926, 37.492668133230772 ], [ 126.935843950037253, 37.492454646791387 ], [ 126.936151317515879, 37.492350012938452 ], [ 126.936193474954166, 37.492295462692901 ], [ 126.936352384580829, 37.492097438591976 ], [ 126.936553963335129, 37.492009756168535 ], [ 126.936647293355705, 37.49200066229858 ], [ 126.937047177343302, 37.491961444409355 ], [ 126.937303256132751, 37.491941716815248 ], [ 126.937416520464112, 37.491999847763793 ], [ 126.937593929245509, 37.492036308237054 ], [ 126.937873459904111, 37.492230228178556 ], [ 126.938180899132547, 37.492223671926695 ], [ 126.938377281457448, 37.492356169958349 ], [ 126.938833440055603, 37.492336302533261 ], [ 126.939210946068911, 37.49221620971916 ], [ 126.939460907918303, 37.49229189912139 ], [ 126.939463926070559, 37.492320453392622 ], [ 126.939489142257713, 37.492470888560518 ], [ 126.939559180962448, 37.492554727305084 ], [ 126.93971082770156, 37.492611389520938 ], [ 126.93972942431725, 37.492781760293013 ], [ 126.939978021394026, 37.492883721035028 ], [ 126.940144101695495, 37.492908071346712 ], [ 126.940371347405687, 37.492944589562583 ], [ 126.940550905873678, 37.492831048259134 ], [ 126.940811662703041, 37.492887900461191 ], [ 126.940943358140515, 37.492741888954868 ], [ 126.941052237342944, 37.492395357116145 ], [ 126.941199790788588, 37.492340390454061 ], [ 126.941505579023385, 37.492249319928831 ], [ 126.941544262681646, 37.492192729747302 ], [ 126.941559986474829, 37.492185097248452 ], [ 126.941666699746619, 37.492167680965238 ], [ 126.941827165718266, 37.492183700830367 ], [ 126.941904761192447, 37.492195290825087 ], [ 126.941921224785958, 37.492195803690542 ], [ 126.942290836346103, 37.492242571241846 ], [ 126.942534991244557, 37.492215032682182 ], [ 126.942554005446823, 37.49219305777509 ], [ 126.942610698426407, 37.492140287459385 ], [ 126.942841133939325, 37.492159593421249 ], [ 126.942951228215549, 37.492214158539561 ], [ 126.943380676743004, 37.49223707582955 ], [ 126.943522265544757, 37.492362114099514 ], [ 126.943555845765246, 37.492366905877184 ], [ 126.943560142279139, 37.492367448584801 ], [ 126.943654555511472, 37.492375513759107 ], [ 126.943873178400551, 37.492464549312459 ], [ 126.94393569147023, 37.492488906791685 ], [ 126.944355095635913, 37.492488659947284 ], [ 126.94450276353686, 37.492503327495783 ], [ 126.944506255376254, 37.492521168978094 ], [ 126.944540835586423, 37.492698322229835 ], [ 126.944548756395022, 37.492840143422058 ], [ 126.944544919809815, 37.493127290206523 ], [ 126.94470850404754, 37.49318025766074 ], [ 126.944867468971012, 37.493211148179249 ], [ 126.94543074213324, 37.493323140881351 ], [ 126.945555649410665, 37.493382936392635 ], [ 126.945724192627225, 37.493459781280229 ], [ 126.945915350174104, 37.493508552409949 ], [ 126.946140283680236, 37.493482069549259 ], [ 126.946430667524709, 37.493685912320622 ], [ 126.946790252612345, 37.493881082789471 ], [ 126.946964048669614, 37.494046316401139 ], [ 126.947162111069972, 37.493963786019336 ], [ 126.947517374900301, 37.493694459923262 ], [ 126.948297089692105, 37.493646880533397 ], [ 126.948591983118675, 37.493734968590651 ], [ 126.948769548096607, 37.493788008759886 ], [ 126.948773320920608, 37.493713326579567 ], [ 126.948777735956497, 37.493625877518895 ], [ 126.948788928215279, 37.493404326680668 ], [ 126.948803721057459, 37.493111643506303 ], [ 126.948960367553838, 37.493064500902207 ], [ 126.949311907906264, 37.492963123087108 ], [ 126.949406652309406, 37.492935936697933 ], [ 126.949555031806355, 37.492709598808382 ], [ 126.94995800391051, 37.492549343310124 ], [ 126.950236507070471, 37.492459815027516 ], [ 126.950677935945009, 37.492363274445395 ], [ 126.951372427224854, 37.492220294229369 ], [ 126.951684328440621, 37.492150697806736 ], [ 126.951805829243867, 37.492065820733892 ], [ 126.952057726035562, 37.491900782163356 ], [ 126.952137788879313, 37.491773414251234 ], [ 126.952231417832309, 37.491633023481285 ], [ 126.952794344104589, 37.491442154848791 ], [ 126.952837399664006, 37.49130846418484 ], [ 126.953153090644165, 37.491052799900729 ], [ 126.953356042817447, 37.490886837486563 ], [ 126.953698554060779, 37.4906094865702 ], [ 126.954022941590182, 37.490824956453636 ], [ 126.954176998064995, 37.490927281797624 ], [ 126.954846256681975, 37.490979445662546 ], [ 126.955140172003155, 37.491291667836954 ], [ 126.955154518509275, 37.491314468769723 ], [ 126.955237385901057, 37.491342071860487 ], [ 126.955389871009757, 37.491429798798059 ], [ 126.956004183603241, 37.491476168236552 ], [ 126.956225349910142, 37.491492831625742 ], [ 126.956439507785234, 37.491562326570936 ], [ 126.956491925120545, 37.491588980119452 ], [ 126.956605423860864, 37.491638398119839 ], [ 126.956656068793748, 37.49166040176123 ], [ 126.956877888671926, 37.491720041878679 ], [ 126.956958850799523, 37.491720793239537 ], [ 126.957150357327194, 37.491796188909483 ], [ 126.957349416328924, 37.491912402392217 ], [ 126.957478285702891, 37.491976871996584 ], [ 126.957600187183274, 37.492354796758008 ], [ 126.957788184381485, 37.492440821881324 ], [ 126.958022539780032, 37.492533711378506 ], [ 126.958146115483586, 37.492564751202657 ], [ 126.958452860574468, 37.492624239299083 ], [ 126.958580206772766, 37.492785384426938 ], [ 126.958696150020117, 37.492916071485894 ], [ 126.958756451750418, 37.493059802801341 ], [ 126.958864363736254, 37.493395374137236 ], [ 126.958929168357201, 37.493576047968659 ], [ 126.958943280832983, 37.493615516844066 ], [ 126.959314525744603, 37.493805310479893 ], [ 126.959449206020764, 37.493800403012109 ], [ 126.959758597402754, 37.493789160171616 ], [ 126.960131777051714, 37.493756855488094 ], [ 126.96027641232466, 37.49374438216612 ], [ 126.960288964715886, 37.493743305347245 ], [ 126.960580808165346, 37.493562035575437 ], [ 126.961052285533441, 37.493257840262366 ], [ 126.960947077924658, 37.492922091643045 ], [ 126.961377591909766, 37.492873674794112 ], [ 126.961339365084726, 37.492463526644002 ], [ 126.961395533052965, 37.491676702432869 ], [ 126.961401962643819, 37.491494702601457 ], [ 126.960780065652528, 37.490832525018035 ], [ 126.960841031514136, 37.490381325111692 ], [ 126.960842882639767, 37.490366540334747 ], [ 126.960868392140341, 37.490178789666892 ], [ 126.96098606685932, 37.490034670044601 ], [ 126.961208969443206, 37.489549827911198 ], [ 126.961241118675744, 37.489481813345058 ], [ 126.961330547708286, 37.489292363409248 ], [ 126.961396996505272, 37.489151739823043 ], [ 126.961567658972086, 37.489083591914991 ], [ 126.961764672520061, 37.489004910922631 ], [ 126.961838227536632, 37.488681206168955 ], [ 126.961966818374961, 37.488627369450924 ], [ 126.961866089058987, 37.488166473902432 ], [ 126.961844432008036, 37.488067086265822 ], [ 126.96179640232144, 37.487805599745315 ], [ 126.961767689879139, 37.487578177519993 ], [ 126.961722876132768, 37.487223528553621 ], [ 126.961851369538351, 37.487135543985808 ], [ 126.961843210529395, 37.486955791592671 ], [ 126.961814264929373, 37.486314629676336 ], [ 126.961674691847705, 37.485977428155188 ], [ 126.961911549231786, 37.48537113412371 ], [ 126.961945288753626, 37.485284559228475 ], [ 126.961987179988824, 37.485177083825164 ], [ 126.961860178422924, 37.48501621257774 ], [ 126.961625724006964, 37.484719433993241 ], [ 126.961692860405392, 37.484552771428611 ], [ 126.96162291889766, 37.484253615444466 ], [ 126.961093924270344, 37.48376635438963 ], [ 126.961071435661566, 37.483745623664774 ], [ 126.961067860056929, 37.483666874928772 ], [ 126.96106319194601, 37.48358032314632 ], [ 126.961112565952078, 37.483540227461695 ], [ 126.961160039730672, 37.483501437559035 ], [ 126.961228178190581, 37.483447788162998 ], [ 126.961298035758091, 37.483392949990531 ], [ 126.961425425362123, 37.483285711052375 ], [ 126.961459721382454, 37.483257305101276 ], [ 126.961718172612692, 37.48304517057224 ], [ 126.961768371835447, 37.483004020716045 ], [ 126.961827462325445, 37.482954233221612 ], [ 126.961866666889946, 37.482858010423236 ], [ 126.9619432204194, 37.482689035248796 ], [ 126.961973680308418, 37.482623110160368 ], [ 126.962043398909216, 37.482464566223733 ], [ 126.962097458707007, 37.482434049330593 ], [ 126.962186499793816, 37.482382163295973 ], [ 126.962223391587372, 37.482361308375154 ], [ 126.96238959841871, 37.482263992296282 ], [ 126.962630867457264, 37.48212131726099 ], [ 126.962690876597037, 37.482085423072981 ], [ 126.962776564854479, 37.4819782590437 ], [ 126.962801318966555, 37.4819467681425 ], [ 126.963107664016903, 37.481583701408553 ], [ 126.963160880270664, 37.481520342240742 ], [ 126.963247243369736, 37.481417502886373 ], [ 126.9634633947623, 37.481302172402394 ], [ 126.963778612806323, 37.481134245693028 ], [ 126.963947151675256, 37.481044064079981 ], [ 126.96416744378422, 37.480351020296361 ], [ 126.964265346124236, 37.480068686237466 ], [ 126.964316995777025, 37.479922848327298 ], [ 126.964400735196108, 37.479814556213576 ], [ 126.964648937996387, 37.47959531202978 ], [ 126.964789936976388, 37.479470792420152 ], [ 126.965003684881978, 37.479399238016441 ], [ 126.965616193372668, 37.479194844185535 ], [ 126.966350764423581, 37.478897761441473 ], [ 126.966878035170765, 37.478416583850972 ], [ 126.967292348662298, 37.477977952568452 ], [ 126.967793048587623, 37.477802599315922 ], [ 126.968183209990656, 37.477276092224024 ], [ 126.96880495673031, 37.476593080945754 ], [ 126.9700831566891, 37.476523428988983 ], [ 126.970251770662912, 37.476535583193154 ], [ 126.97029232703585, 37.47584623693195 ], [ 126.970430327509462, 37.475551951826183 ], [ 126.970522537391645, 37.475376100344569 ], [ 126.972261336601335, 37.475787851278341 ], [ 126.974285499889007, 37.47620063380775 ], [ 126.977310580051608, 37.476513309337683 ], [ 126.978422869591341, 37.476649853611839 ], [ 126.979913045481752, 37.476589227675234 ], [ 126.981038280089848, 37.476538521393273 ], [ 126.981416557409531, 37.476535522933133 ], [ 126.981582521104556, 37.476530325231856 ], [ 126.981596706477646, 37.476327962473619 ], [ 126.981615413811369, 37.47612587076906 ], [ 126.981638643045486, 37.4759241402163 ], [ 126.981666507219842, 37.47572268073143 ], [ 126.981698780146203, 37.475521672473789 ], [ 126.981735687869005, 37.475321205577913 ], [ 126.981777117324427, 37.475121189920316 ], [ 126.981823068406115, 37.474921895797152 ], [ 126.981873428052396, 37.474723233084106 ], [ 126.982085717879528, 37.473924078720067 ], [ 126.982139013529675, 37.47373280456604 ], [ 126.982302308255882, 37.473442149677709 ], [ 126.982375140562397, 37.473284278755116 ], [ 126.982411483271804, 37.473204744096556 ], [ 126.982464735158786, 37.473091532662266 ], [ 126.982583565427788, 37.472846217657626 ], [ 126.982700607112989, 37.472607515600664 ], [ 126.982989329283541, 37.472015980612724 ], [ 126.982995785601176, 37.472010467485603 ], [ 126.98309314493325, 37.47181130694814 ], [ 126.983190999868356, 37.471617399249077 ], [ 126.983211313771577, 37.471572892839539 ], [ 126.983013675986101, 37.471800942006062 ], [ 126.982843678264572, 37.47193254281796 ], [ 126.982746394625806, 37.472006544814022 ], [ 126.982866641550984, 37.471872710825075 ], [ 126.983000481099936, 37.471718975681028 ], [ 126.98314987125535, 37.47153520335241 ], [ 126.983195007583291, 37.471500629855591 ], [ 126.983269729203954, 37.47141431629823 ], [ 126.983319969459643, 37.471356227356615 ], [ 126.983316160827442, 37.471352091165279 ], [ 126.983331969685224, 37.47133107319344 ], [ 126.983377010194062, 37.471271136369872 ], [ 126.98345647143158, 37.471170452416388 ], [ 126.983564780112289, 37.471028587933354 ], [ 126.984015680229575, 37.470506704341439 ], [ 126.984140091097956, 37.470335766318897 ], [ 126.984286653012248, 37.470137197617078 ], [ 126.984400308809015, 37.469981214398359 ], [ 126.984515863488284, 37.469824222215408 ], [ 126.984602843175423, 37.469855679716865 ], [ 126.984675546688365, 37.469882116531295 ], [ 126.984749630309537, 37.469803163121384 ], [ 126.984953924312933, 37.469587698924556 ], [ 126.985141449593556, 37.469387540094324 ], [ 126.985216832672862, 37.46930652326666 ], [ 126.985322310877834, 37.469209661864809 ], [ 126.985334239418805, 37.469197707181422 ], [ 126.985430337090818, 37.469143011364018 ], [ 126.985488752662704, 37.469111817546903 ], [ 126.98548841068758, 37.468860401455984 ], [ 126.985603316398709, 37.468813051223563 ], [ 126.985955664804322, 37.46871666372332 ], [ 126.986197473365763, 37.468543927863735 ], [ 126.986451738816982, 37.46836681421469 ], [ 126.98657179764146, 37.468263637503441 ], [ 126.986605365146474, 37.468235115965811 ], [ 126.986630362689709, 37.468213873449457 ], [ 126.986734875104375, 37.468125065620114 ], [ 126.986739329625351, 37.468121417112059 ], [ 126.986914638445597, 37.467977719794618 ], [ 126.987145770646563, 37.467749992391553 ], [ 126.987246253081835, 37.467625386731392 ], [ 126.987108709115432, 37.467256183720067 ], [ 126.987104867751682, 37.467245893787528 ], [ 126.987103096556936, 37.467227540122678 ], [ 126.987240066644361, 37.467225808800308 ], [ 126.98723849436459, 37.46723124166374 ], [ 126.987247218215359, 37.467245902050344 ], [ 126.987259690772703, 37.467223171227921 ], [ 126.987282973608686, 37.467180763781812 ], [ 126.987311480344488, 37.467130347034256 ], [ 126.987364546523111, 37.467040739553248 ], [ 126.987450236597709, 37.466885497798785 ], [ 126.987493442178447, 37.466813485688981 ], [ 126.987531605223495, 37.466746473537832 ], [ 126.987537552739923, 37.466737419151784 ], [ 126.987620888511557, 37.466595151444189 ], [ 126.987633224300311, 37.466577294995204 ], [ 126.987692148623395, 37.466468460621464 ], [ 126.987726228097401, 37.466415296357205 ], [ 126.987768261105956, 37.466323849347781 ], [ 126.987832028622051, 37.466184453406079 ], [ 126.987871812373967, 37.466090528334597 ], [ 126.987918337215746, 37.465973655450505 ], [ 126.987935108211957, 37.465931949900579 ], [ 126.987949451986765, 37.465873088951646 ], [ 126.987959926951802, 37.465830373549991 ], [ 126.987981621975024, 37.465750024491399 ], [ 126.988014900996632, 37.465619301611447 ], [ 126.988030590436125, 37.465556827776723 ], [ 126.988034312008452, 37.465542006683357 ], [ 126.988061551606634, 37.465428501285857 ], [ 126.988065713042445, 37.465419077256108 ], [ 126.988090988414356, 37.465290470795971 ], [ 126.98810689877385, 37.465192812759327 ], [ 126.988125216957215, 37.465094055766606 ], [ 126.988147696808298, 37.464984108767801 ], [ 126.988161602356499, 37.464908597175871 ], [ 126.988166557548851, 37.464821263395038 ], [ 126.988174537311025, 37.464760788890999 ], [ 126.988179156024543, 37.464722163359845 ], [ 126.988188870951006, 37.464629333986259 ], [ 126.988200406370083, 37.464532846738102 ], [ 126.988201406242325, 37.464503735402133 ], [ 126.988213987195621, 37.464375370735887 ], [ 126.988218018027354, 37.464337060486052 ], [ 126.988224552945482, 37.464264746614141 ], [ 126.988227939569498, 37.464225859648018 ], [ 126.988333836070993, 37.464001422312862 ], [ 126.988318825251653, 37.463871883237942 ], [ 126.988298581786282, 37.463737910631501 ], [ 126.988257796615713, 37.463495842213355 ], [ 126.98820952610609, 37.463333331624092 ], [ 126.988146862671215, 37.463129823678614 ], [ 126.988100156883689, 37.462942724797912 ], [ 126.988035322154445, 37.462685669831885 ], [ 126.987981626894396, 37.462461574843815 ], [ 126.987971042463954, 37.462424524321712 ], [ 126.987948440560018, 37.462336962100444 ], [ 126.987868877635492, 37.462024430467508 ], [ 126.987790129128669, 37.461712268270944 ], [ 126.987704526065059, 37.461430333914443 ], [ 126.987658288725115, 37.461288960852912 ], [ 126.987621406018647, 37.461171582628012 ], [ 126.987577660575127, 37.46094279433288 ], [ 126.987557558852771, 37.460787314563483 ], [ 126.987532426899364, 37.460573845516727 ], [ 126.987534131522764, 37.460342377556216 ], [ 126.987543047946858, 37.460229266450575 ], [ 126.987553869993491, 37.460140545771594 ], [ 126.987574642711266, 37.460029274109843 ], [ 126.987610262639606, 37.459882072110787 ], [ 126.987643841835634, 37.459767828621466 ], [ 126.987692515119662, 37.459626628815968 ], [ 126.987797125184727, 37.459425924108338 ], [ 126.987864785378349, 37.459291213662645 ], [ 126.987965801438207, 37.459146595947665 ], [ 126.98815892796226, 37.458909230108567 ], [ 126.988329467033893, 37.458692061962573 ], [ 126.988459665499335, 37.458543275408694 ], [ 126.988635384367072, 37.458165665373954 ], [ 126.988411564132605, 37.458074846468733 ], [ 126.988356230713322, 37.458052630540578 ], [ 126.988164858793226, 37.45797277099927 ], [ 126.987907112328628, 37.457866440997293 ], [ 126.987260839312654, 37.457600234872785 ], [ 126.986780646798906, 37.457402810756101 ], [ 126.986612323306801, 37.457211965718201 ], [ 126.986209630361216, 37.457206192869897 ], [ 126.985263532365153, 37.457181360992088 ], [ 126.984902948115732, 37.457042132550988 ], [ 126.984387589487824, 37.457105264519988 ], [ 126.98288785144905, 37.456826654011621 ], [ 126.982437281006895, 37.456877290726354 ], [ 126.981903364292364, 37.456935183035831 ], [ 126.982033525483217, 37.456662407137543 ], [ 126.982388801071053, 37.455916729905617 ], [ 126.982397792969252, 37.455890701308498 ], [ 126.981200917887975, 37.455777092073227 ], [ 126.979790157247464, 37.455646853089988 ], [ 126.978477177619013, 37.455734317348558 ], [ 126.97775670723081, 37.455198815169091 ], [ 126.97655262278542, 37.454897324736081 ], [ 126.974579239290151, 37.454412375609586 ], [ 126.974061521956642, 37.453904278394162 ], [ 126.974012240928261, 37.453855171125298 ], [ 126.97337124671796, 37.453237191438724 ], [ 126.973324111707797, 37.453163874357116 ], [ 126.973256299062513, 37.453048349191626 ], [ 126.972843144949621, 37.452381865593338 ], [ 126.971752537882423, 37.451737034198011 ], [ 126.971067281748816, 37.450469477136096 ], [ 126.970569003446201, 37.449452156444544 ], [ 126.970311637537293, 37.449349013628293 ] ] ] } }
]
}
