{
"type": "FeatureCollection",
"name": "gwanak_residential_grid_accessibility",
"crs": { "type": "name", "properties": { "name": "urn:ogc:def:crs:OGC:1.3:CRS84" } },
"features": [
{ "type": "Feature", "properties": { "grid_id": 0, "node_id": "116585", "snap_distance_m": 3719.7155285792805, "parks_within_10min": 56, "parks_within_15min": 58, "nearest_distance_m": 0.0, "index_right": 10693, "building_distance_m": 17.689293077365495 }, "geometry": { "type": "Point", "coordinates": [ 126.900355689180174, 37.479609387579515 ] } },
{ "type": "Feature", "properties": { "grid_id": 1, "node_id": "116585", "snap_distance_m": 3468.8920265858551, "parks_within_10min": 56, "parks_within_15min": 58, "nearest_distance_m": 0.0, "index_right": 3973, "building_distance_m": 34.673166036714868 }, "geometry": { "type": "Point", "coordinates": [ 126.903179250839528, 37.481864256886617 ] } },
{ "type": "Feature", "properties": { "grid_id": 2, "node_id": "116585", "snap_distance_m": 3485.8569138780017, "parks_within_10min": 56, "parks_within_15min": 58, "nearest_distance_m": 0.0, "index_right": 3990, "building_distance_m": 49.426315059172524 }, "geometry": { "type": "Point", "coordinates": [ 126.903176344171413, 37.484116775478164 ] } },
{ "type": "Feature", "properties": { "grid_id": 3, "node_id": "116585", "snap_distance_m": 3219.0299220025668, "parks_within_10min": 56, "parks_within_15min": 58, "nearest_distance_m": 0.0, "index_right": 7791, "building_distance_m": 13.81357330769316 }, "geometry": { "type": "Point", "coordinates": [ 126.90600580401356, 37.481866539311937 ] } },
{ "type": "Feature", "properties": { "grid_id": 4, "node_id": "116585", "snap_distance_m": 3237.3044606073122, "parks_within_10min": 56, "parks_within_15min": 58, "nearest_distance_m": 0.0, "index_right": 2003, "building_distance_m": 16.47935795084064 }, "geometry": { "type": "Point", "coordinates": [ 126.906002982201429, 37.48411905808814 ] } },
{ "type": "Feature", "properties": { "grid_id": 6, "node_id": "116585", "snap_distance_m": 2969.1910321474411, "parks_within_10min": 56, "parks_within_15min": 58, "nearest_distance_m": 0.0, "index_right": 21882, "building_distance_m": 1.0061612561937792 }, "geometry": { "type": "Point", "coordinates": [ 126.908832357501623, 37.481868754118032 ] } },
{ "type": "Feature", "properties": { "grid_id": 7, "node_id": "116585", "snap_distance_m": 2988.9934622385736, "parks_within_10min": 56, "parks_within_15min": 58, "nearest_distance_m": 0.0, "index_right": 9884, "building_distance_m": 2.1803582962288561 }, "geometry": { "type": "Point", "coordinates": [ 126.908829620545575, 37.484121273073434 ] } },
{ "type": "Feature", "properties": { "grid_id": 9, "node_id": "116585", "snap_distance_m": 2946.2017026030271, "parks_within_10min": 56, "parks_within_15min": 58, "nearest_distance_m": 0.0, "index_right": 2259, "building_distance_m": 43.011408966587659 }, "geometry": { "type": "Point", "coordinates": [ 126.911672167367286, 37.470608292743336 ] } },
{ "type": "Feature", "properties": { "grid_id": 10, "node_id": "116585", "snap_distance_m": 2858.8618372249339, "parks_within_10min": 56, "parks_within_15min": 58, "nearest_distance_m": 0.0, "index_right": 2295, "building_distance_m": 45.15245446559446 }, "geometry": { "type": "Point", "coordinates": [ 126.911669516742862, 37.472860816177722 ] } },
{ "type": "Feature", "properties": { "grid_id": 11, "node_id": "116585", "snap_distance_m": 2791.2501744310334, "parks_within_10min": 56, "parks_within_15min": 58, "nearest_distance_m": 0.0, "index_right": 1992, "building_distance_m": 109.08378984611404 }, "geometry": { "type": "Point", "coordinates": [ 126.911666865823392, 37.475113338751065 ] } },
{ "type": "Feature", "properties": { "grid_id": 12, "node_id": "116585", "snap_distance_m": 2720.6709834343387, "parks_within_10min": 56, "parks_within_15min": 58, "nearest_distance_m": 0.0, "index_right": 2750, "building_distance_m": 19.386378433695189 }, "geometry": { "type": "Point", "coordinates": [ 126.911661563099159, 37.479618381314651 ] } },
{ "type": "Feature", "properties": { "grid_id": 13, "node_id": "116585", "snap_distance_m": 2719.3817554771013, "parks_within_10min": 56, "parks_within_15min": 58, "nearest_distance_m": 0.0, "index_right": 9044, "building_distance_m": 8.9948269325778689 }, "geometry": { "type": "Point", "coordinates": [ 126.911658911294339, 37.481870901304873 ] } },
{ "type": "Feature", "properties": { "grid_id": 14, "node_id": "116585", "snap_distance_m": 2740.9895410128565, "parks_within_10min": 56, "parks_within_15min": 58, "nearest_distance_m": 0.0, "index_right": 569, "building_distance_m": 10.081829687427836 }, "geometry": { "type": "Point", "coordinates": [ 126.911656259194373, 37.48412342043401 ] } },
{ "type": "Feature", "properties": { "grid_id": 15, "node_id": "116585", "snap_distance_m": 2784.9614352557951, "parks_within_10min": 56, "parks_within_15min": 58, "nearest_distance_m": 0.0, "index_right": 10209, "building_distance_m": 60.212756427297514 }, "geometry": { "type": "Point", "coordinates": [ 126.911653606799135, 37.486375938702018 ] } },
{ "type": "Feature", "properties": { "grid_id": 16, "node_id": "116588", "snap_distance_m": 3431.1480610370031, "parks_within_10min": 56, "parks_within_15min": 58, "nearest_distance_m": 0.0, "index_right": 22336, "building_distance_m": 81.207607292988826 }, "geometry": { "type": "Point", "coordinates": [ 126.914511122111051, 37.459347740542526 ] } },
{ "type": "Feature", "properties": { "grid_id": 17, "node_id": "116588", "snap_distance_m": 3263.5913413601202, "parks_within_10min": 56, "parks_within_15min": 58, "nearest_distance_m": 0.0, "index_right": 19299, "building_distance_m": 51.807613413592939 }, "geometry": { "type": "Point", "coordinates": [ 126.914508557723039, 37.461600268449843 ] } },
{ "type": "Feature", "properties": { "grid_id": 18, "node_id": "116588", "snap_distance_m": 3107.1337064959898, "parks_within_10min": 56, "parks_within_15min": 58, "nearest_distance_m": 0.0, "index_right": 19302, "building_distance_m": 34.852044140318448 }, "geometry": { "type": "Point", "coordinates": [ 126.914505993049602, 37.463852795496237 ] } },
{ "type": "Feature", "properties": { "grid_id": 21, "node_id": "116585", "snap_distance_m": 2717.3601563020516, "parks_within_10min": 56, "parks_within_15min": 58, "nearest_distance_m": 0.0, "index_right": 2276, "building_distance_m": 165.24467750752575 }, "geometry": { "type": "Point", "coordinates": [ 126.914498297316285, 37.470610371469782 ] } },
{ "type": "Feature", "properties": { "grid_id": 22, "node_id": "116585", "snap_distance_m": 2622.409722178832, "parks_within_10min": 56, "parks_within_15min": 58, "nearest_distance_m": 0.0, "index_right": 2271, "building_distance_m": 20.031300327714391 }, "geometry": { "type": "Point", "coordinates": [ 126.914495731500736, 37.472862895072353 ] } },
{ "type": "Feature", "properties": { "grid_id": 23, "node_id": "116585", "snap_distance_m": 2548.5327706149292, "parks_within_10min": 56, "parks_within_15min": 58, "nearest_distance_m": 0.0, "index_right": 21932, "building_distance_m": 7.5188206389513361 }, "geometry": { "type": "Point", "coordinates": [ 126.914493165399605, 37.475115417813917 ] } },
{ "type": "Feature", "properties": { "grid_id": 24, "node_id": "116585", "snap_distance_m": 2497.6000109742063, "parks_within_10min": 56, "parks_within_15min": 58, "nearest_distance_m": 0.0, "index_right": 23802, "building_distance_m": 11.259258416604125 }, "geometry": { "type": "Point", "coordinates": [ 126.914490599012836, 37.47736793969446 ] } },
{ "type": "Feature", "properties": { "grid_id": 25, "node_id": "116585", "snap_distance_m": 2471.0306244032076, "parks_within_10min": 56, "parks_within_15min": 58, "nearest_distance_m": 0.0, "index_right": 2775, "building_distance_m": 8.188892006103055 }, "geometry": { "type": "Point", "coordinates": [ 126.914488032340387, 37.479620460713967 ] } },
{ "type": "Feature", "properties": { "grid_id": 26, "node_id": "116585", "snap_distance_m": 2469.6110784207813, "parks_within_10min": 56, "parks_within_15min": 58, "nearest_distance_m": 0.0, "index_right": 4770, "building_distance_m": 66.897387672404847 }, "geometry": { "type": "Point", "coordinates": [ 126.914485465382242, 37.481872980872424 ] } },
{ "type": "Feature", "properties": { "grid_id": 27, "node_id": "116585", "snap_distance_m": 2493.3843286943957, "parks_within_10min": 56, "parks_within_15min": 58, "nearest_distance_m": 0.0, "index_right": 8938, "building_distance_m": 3.2596059650221139 }, "geometry": { "type": "Point", "coordinates": [ 126.914482898138374, 37.484125500169803 ] } },
{ "type": "Feature", "properties": { "grid_id": 28, "node_id": "116585", "snap_distance_m": 2541.6435514247373, "parks_within_10min": 56, "parks_within_15min": 58, "nearest_distance_m": 0.0, "index_right": 21301, "building_distance_m": 8.6121885793382589 }, "geometry": { "type": "Point", "coordinates": [ 126.914480330608711, 37.486378018606089 ] } },
{ "type": "Feature", "properties": { "grid_id": 29, "node_id": "116588", "snap_distance_m": 3254.8437256282778, "parks_within_10min": 56, "parks_within_15min": 58, "nearest_distance_m": 0.0, "index_right": 9967, "building_distance_m": 82.66599485473175 }, "geometry": { "type": "Point", "coordinates": [ 126.917336828442501, 37.459349750863474 ] } },
{ "type": "Feature", "properties": { "grid_id": 30, "node_id": "116588", "snap_distance_m": 3077.7035440250784, "parks_within_10min": 56, "parks_within_15min": 58, "nearest_distance_m": 0.0, "index_right": 1396, "building_distance_m": 86.605734214109503 }, "geometry": { "type": "Point", "coordinates": [ 126.917334348816226, 37.461602278933476 ] } },
{ "type": "Feature", "properties": { "grid_id": 31, "node_id": "116588", "snap_distance_m": 2911.2730087621958, "parks_within_10min": 56, "parks_within_15min": 58, "nearest_distance_m": 0.0, "index_right": 18759, "building_distance_m": 5.1564017486571991 }, "geometry": { "type": "Point", "coordinates": [ 126.917331868913948, 37.463854806142571 ] } },
{ "type": "Feature", "properties": { "grid_id": 32, "node_id": "116585", "snap_distance_m": 2757.1751670604003, "parks_within_10min": 56, "parks_within_15min": 58, "nearest_distance_m": 0.0, "index_right": 1196, "building_distance_m": 26.887746220396124 }, "geometry": { "type": "Point", "coordinates": [ 126.917329388735652, 37.466107332490736 ] } },
{ "type": "Feature", "properties": { "grid_id": 33, "node_id": "116585", "snap_distance_m": 2616.2953643988085, "parks_within_10min": 56, "parks_within_15min": 58, "nearest_distance_m": 0.0, "index_right": 24570, "building_distance_m": 135.44863306021028 }, "geometry": { "type": "Point", "coordinates": [ 126.917326908281282, 37.468359857977973 ] } },
{ "type": "Feature", "properties": { "grid_id": 34, "node_id": "116585", "snap_distance_m": 2492.5866014433368, "parks_within_10min": 56, "parks_within_15min": 58, "nearest_distance_m": 0.0, "index_right": 20852, "building_distance_m": 7.0548306079025815 }, "geometry": { "type": "Point", "coordinates": [ 126.917324427550824, 37.470612382604251 ] } },
{ "type": "Feature", "properties": { "grid_id": 35, "node_id": "116585", "snap_distance_m": 2388.7181704033219, "parks_within_10min": 56, "parks_within_15min": 58, "nearest_distance_m": 0.0, "index_right": 17341, "building_distance_m": 12.125761946538331 }, "geometry": { "type": "Point", "coordinates": [ 126.917321946544234, 37.472864906369558 ] } },
{ "type": "Feature", "properties": { "grid_id": 36, "node_id": "116585", "snap_distance_m": 2307.371021213351, "parks_within_10min": 56, "parks_within_15min": 58, "nearest_distance_m": 0.0, "index_right": 2172, "building_distance_m": 4.650351948278221 }, "geometry": { "type": "Point", "coordinates": [ 126.917319465261471, 37.475117429273872 ] } },
{ "type": "Feature", "properties": { "grid_id": 37, "node_id": "116585", "snap_distance_m": 2250.9881300120824, "parks_within_10min": 56, "parks_within_15min": 58, "nearest_distance_m": 0.0, "index_right": 19967, "building_distance_m": 3.9429403744557652 }, "geometry": { "type": "Point", "coordinates": [ 126.917316983702506, 37.477369951317179 ] } },
{ "type": "Feature", "properties": { "grid_id": 38, "node_id": "116585", "snap_distance_m": 2221.471155197708, "parks_within_10min": 56, "parks_within_15min": 58, "nearest_distance_m": 0.0, "index_right": 3548, "building_distance_m": 74.200831126688172 }, "geometry": { "type": "Point", "coordinates": [ 126.917314501867338, 37.479622472499443 ] } },
{ "type": "Feature", "properties": { "grid_id": 39, "node_id": "116585", "snap_distance_m": 2219.8920300986688, "parks_within_10min": 56, "parks_within_15min": 58, "nearest_distance_m": 0.0, "index_right": 4779, "building_distance_m": 11.956043039453254 }, "geometry": { "type": "Point", "coordinates": [ 126.917312019755883, 37.481874992820671 ] } },
{ "type": "Feature", "properties": { "grid_id": 40, "node_id": "116585", "snap_distance_m": 2246.309675270918, "parks_within_10min": 56, "parks_within_15min": 58, "nearest_distance_m": 0.0, "index_right": 4825, "building_distance_m": 6.1896851544308422 }, "geometry": { "type": "Point", "coordinates": [ 126.917309537368141, 37.484127512280828 ] } },
{ "type": "Feature", "properties": { "grid_id": 41, "node_id": "116582", "snap_distance_m": 2299.6342624435438, "parks_within_10min": 56, "parks_within_15min": 60, "nearest_distance_m": 0.0, "index_right": 16567, "building_distance_m": 2.9026591533579031 }, "geometry": { "type": "Point", "coordinates": [ 126.917307054704096, 37.486380030879921 ] } },
{ "type": "Feature", "properties": { "grid_id": 42, "node_id": "116582", "snap_distance_m": 2375.1743317579944, "parks_within_10min": 56, "parks_within_15min": 60, "nearest_distance_m": 0.0, "index_right": 15631, "building_distance_m": 8.3549667639415048 }, "geometry": { "type": "Point", "coordinates": [ 126.91730457176368, 37.488632548617908 ] } },
{ "type": "Feature", "properties": { "grid_id": 43, "node_id": "116588", "snap_distance_m": 3284.3548701568152, "parks_within_10min": 56, "parks_within_15min": 58, "nearest_distance_m": 0.0, "index_right": 1361, "building_distance_m": 87.597617454072335 }, "geometry": { "type": "Point", "coordinates": [ 126.920164929647839, 37.457099164531691 ] } },
{ "type": "Feature", "properties": { "grid_id": 44, "node_id": "116588", "snap_distance_m": 3088.727624729243, "parks_within_10min": 56, "parks_within_15min": 58, "nearest_distance_m": 0.0, "index_right": 1329, "building_distance_m": 11.167968565365388 }, "geometry": { "type": "Point", "coordinates": [ 126.920162535049897, 37.459351693619794 ] } },
{ "type": "Feature", "properties": { "grid_id": 45, "node_id": "116588", "snap_distance_m": 2901.4633836063331, "parks_within_10min": 56, "parks_within_15min": 58, "nearest_distance_m": 0.0, "index_right": 1301, "building_distance_m": 25.084108214787577 }, "geometry": { "type": "Point", "coordinates": [ 126.920160140185402, 37.461604221847011 ] } },
{ "type": "Feature", "properties": { "grid_id": 46, "node_id": "116588", "snap_distance_m": 2724.2872816667245, "parks_within_10min": 56, "parks_within_15min": 58, "nearest_distance_m": 0.0, "index_right": 1307, "building_distance_m": 63.243207614839847 }, "geometry": { "type": "Point", "coordinates": [ 126.920157745054354, 37.463856749213349 ] } },
{ "type": "Feature", "properties": { "grid_id": 47, "node_id": "116588", "snap_distance_m": 2559.2953365514172, "parks_within_10min": 56, "parks_within_15min": 58, "nearest_distance_m": 0.0, "index_right": 1599, "building_distance_m": 21.935556484567694 }, "geometry": { "type": "Point", "coordinates": [ 126.92015534965671, 37.466109275718736 ] } },
{ "type": "Feature", "properties": { "grid_id": 48, "node_id": "116585", "snap_distance_m": 2408.0994955382612, "parks_within_10min": 56, "parks_within_15min": 58, "nearest_distance_m": 0.0, "index_right": 1581, "building_distance_m": 13.685102085154659 }, "geometry": { "type": "Point", "coordinates": [ 126.920152953992428, 37.468361801363223 ] } },
{ "type": "Feature", "properties": { "grid_id": 49, "node_id": "116585", "snap_distance_m": 2273.0881444263832, "parks_within_10min": 56, "parks_within_15min": 58, "nearest_distance_m": 0.0, "index_right": 19526, "building_distance_m": 48.198569050411209 }, "geometry": { "type": "Point", "coordinates": [ 126.920150558061493, 37.470614326146759 ] } },
{ "type": "Feature", "properties": { "grid_id": 50, "node_id": "116585", "snap_distance_m": 2158.6839148545873, "parks_within_10min": 56, "parks_within_15min": 58, "nearest_distance_m": 0.0, "index_right": 19338, "building_distance_m": 8.8241326292774573 }, "geometry": { "type": "Point", "coordinates": [ 126.920148161863864, 37.472866850069316 ] } },
{ "type": "Feature", "properties": { "grid_id": 51, "node_id": "116585", "snap_distance_m": 2068.3091587507115, "parks_within_10min": 56, "parks_within_15min": 58, "nearest_distance_m": 0.0, "index_right": 16588, "building_distance_m": 12.202024681493622 }, "geometry": { "type": "Point", "coordinates": [ 126.920145765399525, 37.475119373130916 ] } },
{ "type": "Feature", "properties": { "grid_id": 52, "node_id": "116585", "snap_distance_m": 2005.2155265936437, "parks_within_10min": 56, "parks_within_15min": 58, "nearest_distance_m": 0.0, "index_right": 24454, "building_distance_m": 9.0289445148092931 }, "geometry": { "type": "Point", "coordinates": [ 126.920143368668391, 37.477371895331487 ] } },
{ "type": "Feature", "properties": { "grid_id": 53, "node_id": "116585", "snap_distance_m": 1972.0232858697113, "parks_within_10min": 56, "parks_within_15min": 58, "nearest_distance_m": 0.0, "index_right": 7500, "building_distance_m": 152.65731388883782 }, "geometry": { "type": "Point", "coordinates": [ 126.920140971670506, 37.479624416671072 ] } },
{ "type": "Feature", "properties": { "grid_id": 54, "node_id": "116585", "snap_distance_m": 1970.2442416950551, "parks_within_10min": 56, "parks_within_15min": 58, "nearest_distance_m": 0.0, "index_right": 16362, "building_distance_m": 6.1201094440416268 }, "geometry": { "type": "Point", "coordinates": [ 126.920138574405811, 37.481876937149586 ] } },
{ "type": "Feature", "properties": { "grid_id": 55, "node_id": "116585", "snap_distance_m": 1999.9622256064417, "parks_within_10min": 56, "parks_within_15min": 58, "nearest_distance_m": 0.0, "index_right": 9344, "building_distance_m": 9.3574915480667809 }, "geometry": { "type": "Point", "coordinates": [ 126.920136176874252, 37.484129456767064 ] } },
{ "type": "Feature", "properties": { "grid_id": 56, "node_id": "116582", "snap_distance_m": 2058.7224908003204, "parks_within_10min": 56, "parks_within_15min": 60, "nearest_distance_m": 0.0, "index_right": 22761, "building_distance_m": 5.3740155682549249 }, "geometry": { "type": "Point", "coordinates": [ 126.920133779075812, 37.486381975523479 ] } },
{ "type": "Feature", "properties": { "grid_id": 57, "node_id": "116582", "snap_distance_m": 2142.7724236056542, "parks_within_10min": 56, "parks_within_15min": 60, "nearest_distance_m": 0.0, "index_right": 11789, "building_distance_m": 2.0830640593143905 }, "geometry": { "type": "Point", "coordinates": [ 126.920131381010478, 37.4886344934188 ] } },
{ "type": "Feature", "properties": { "grid_id": 60, "node_id": "116588", "snap_distance_m": 2934.5304566947898, "parks_within_10min": 56, "parks_within_15min": 58, "nearest_distance_m": 0.0, "index_right": 1356, "building_distance_m": 93.460648615553154 }, "geometry": { "type": "Point", "coordinates": [ 126.922988241923832, 37.459353568811466 ] } },
{ "type": "Feature", "properties": { "grid_id": 61, "node_id": "116588", "snap_distance_m": 2736.7353594953406, "parks_within_10min": 56, "parks_within_15min": 58, "nearest_distance_m": 0.0, "index_right": 1281, "building_distance_m": 88.878076360065194 }, "geometry": { "type": "Point", "coordinates": [ 126.92298593182116, 37.461606097190426 ] } },
{ "type": "Feature", "properties": { "grid_id": 63, "node_id": "116588", "snap_distance_m": 2370.911909202367, "parks_within_10min": 56, "parks_within_15min": 58, "nearest_distance_m": 0.0, "index_right": 16615, "building_distance_m": 101.29322360566384 }, "geometry": { "type": "Point", "coordinates": [ 126.922981310844392, 37.466111151365681 ] } },
{ "type": "Feature", "properties": { "grid_id": 64, "node_id": "116588", "snap_distance_m": 2207.8212581276534, "parks_within_10min": 56, "parks_within_15min": 58, "nearest_distance_m": 0.0, "index_right": 18732, "building_distance_m": 6.4958413200221008 }, "geometry": { "type": "Point", "coordinates": [ 126.92297899997024, 37.468363677161953 ] } },
{ "type": "Feature", "properties": { "grid_id": 65, "node_id": "116585", "snap_distance_m": 2060.5512512356281, "parks_within_10min": 56, "parks_within_15min": 58, "nearest_distance_m": 0.0, "index_right": 16026, "building_distance_m": 22.189381362821305 }, "geometry": { "type": "Point", "coordinates": [ 126.922976688838858, 37.470616202097268 ] } },
{ "type": "Feature", "properties": { "grid_id": 66, "node_id": "116585", "snap_distance_m": 1933.6126786119448, "parks_within_10min": 56, "parks_within_15min": 58, "nearest_distance_m": 0.0, "index_right": 10196, "building_distance_m": 8.7796123506791783 }, "geometry": { "type": "Point", "coordinates": [ 126.922974377450231, 37.472868726171633 ] } },
{ "type": "Feature", "properties": { "grid_id": 67, "node_id": "116585", "snap_distance_m": 1832.169348834602, "parks_within_10min": 56, "parks_within_15min": 58, "nearest_distance_m": 0.0, "index_right": 1772, "building_distance_m": 6.5744514833705097 }, "geometry": { "type": "Point", "coordinates": [ 126.922972065804316, 37.475121249385033 ] } },
{ "type": "Feature", "properties": { "grid_id": 68, "node_id": "116585", "snap_distance_m": 1760.6337082792543, "parks_within_10min": 56, "parks_within_15min": 58, "nearest_distance_m": 0.0, "index_right": 21756, "building_distance_m": 45.721441983835341 }, "geometry": { "type": "Point", "coordinates": [ 126.9229697539011, 37.47737377173744 ] } },
{ "type": "Feature", "properties": { "grid_id": 69, "node_id": "116585", "snap_distance_m": 1722.7354952659759, "parks_within_10min": 56, "parks_within_15min": 58, "nearest_distance_m": 0.0, "index_right": 3667, "building_distance_m": 47.026619905969667 }, "geometry": { "type": "Point", "coordinates": [ 126.922967441740511, 37.479626293228812 ] } },
{ "type": "Feature", "properties": { "grid_id": 70, "node_id": "116585", "snap_distance_m": 1720.6987297517996, "parks_within_10min": 56, "parks_within_15min": 58, "nearest_distance_m": 0.0, "index_right": 4754, "building_distance_m": 7.0153652058669564 }, "geometry": { "type": "Point", "coordinates": [ 126.922965129322591, 37.481878813859176 ] } },
{ "type": "Feature", "properties": { "grid_id": 71, "node_id": "116585", "snap_distance_m": 1754.6482982323282, "parks_within_10min": 56, "parks_within_15min": 58, "nearest_distance_m": 0.0, "index_right": 2915, "building_distance_m": 6.1979422376773412 }, "geometry": { "type": "Point", "coordinates": [ 126.922962816647242, 37.484131333628504 ] } },
{ "type": "Feature", "properties": { "grid_id": 72, "node_id": "116582", "snap_distance_m": 1820.263400513752, "parks_within_10min": 56, "parks_within_15min": 60, "nearest_distance_m": 0.0, "index_right": 11173, "building_distance_m": 12.557599532663376 }, "geometry": { "type": "Point", "coordinates": [ 126.922960503714464, 37.486383852536754 ] } },
{ "type": "Feature", "properties": { "grid_id": 73, "node_id": "116582", "snap_distance_m": 1914.8091843543214, "parks_within_10min": 56, "parks_within_15min": 60, "nearest_distance_m": 0.0, "index_right": 3082, "building_distance_m": 1.5453179926660414 }, "geometry": { "type": "Point", "coordinates": [ 126.922958190524213, 37.488636370583926 ] } },
{ "type": "Feature", "properties": { "grid_id": 75, "node_id": "116588", "snap_distance_m": 3009.0610223341023, "parks_within_10min": 56, "parks_within_15min": 58, "nearest_distance_m": 0.0, "index_right": 16547, "building_distance_m": 160.67485430338985 }, "geometry": { "type": "Point", "coordinates": [ 126.925816174148025, 37.457102847052333 ] } },
{ "type": "Feature", "properties": { "grid_id": 76, "node_id": "116588", "snap_distance_m": 2794.2261294986693, "parks_within_10min": 56, "parks_within_15min": 58, "nearest_distance_m": 0.0, "index_right": 16547, "building_distance_m": 159.50610069172154 }, "geometry": { "type": "Point", "coordinates": [ 126.92581394905487, 37.459355376438445 ] } },
{ "type": "Feature", "properties": { "grid_id": 77, "node_id": "116588", "snap_distance_m": 2585.7206131784374, "parks_within_10min": 56, "parks_within_15min": 58, "nearest_distance_m": 0.0, "index_right": 9960, "building_distance_m": 38.511096806176425 }, "geometry": { "type": "Point", "coordinates": [ 126.925811723714048, 37.461607904963699 ] } },
{ "type": "Feature", "properties": { "grid_id": 78, "node_id": "116588", "snap_distance_m": 2385.2049211878284, "parks_within_10min": 56, "parks_within_15min": 58, "nearest_distance_m": 0.0, "index_right": 1230, "building_distance_m": 25.062466555965862 }, "geometry": { "type": "Point", "coordinates": [ 126.925809498125503, 37.463860432628081 ] } },
{ "type": "Feature", "properties": { "grid_id": 79, "node_id": "116588", "snap_distance_m": 2194.8699147560874, "parks_within_10min": 56, "parks_within_15min": 58, "nearest_distance_m": 0.0, "index_right": 821, "building_distance_m": 116.96671157024261 }, "geometry": { "type": "Point", "coordinates": [ 126.925807272289276, 37.466112959431548 ] } },
{ "type": "Feature", "properties": { "grid_id": 80, "node_id": "116588", "snap_distance_m": 2017.5989119109267, "parks_within_10min": 56, "parks_within_15min": 58, "nearest_distance_m": 0.0, "index_right": 2741, "building_distance_m": 49.805434893395208 }, "geometry": { "type": "Point", "coordinates": [ 126.925805046205255, 37.468365485374122 ] } },
{ "type": "Feature", "properties": { "grid_id": 81, "node_id": "116588", "snap_distance_m": 1857.136719788534, "parks_within_10min": 56, "parks_within_15min": 58, "nearest_distance_m": 0.0, "index_right": 17865, "building_distance_m": 80.13512599004946 }, "geometry": { "type": "Point", "coordinates": [ 126.925802819873468, 37.470618010455766 ] } },
{ "type": "Feature", "properties": { "grid_id": 82, "node_id": "116585", "snap_distance_m": 1715.4590457151096, "parks_within_10min": 56, "parks_within_15min": 58, "nearest_distance_m": 0.0, "index_right": 2308, "building_distance_m": 170.5584212420442 }, "geometry": { "type": "Point", "coordinates": [ 126.925800593293872, 37.472870534676453 ] } },
{ "type": "Feature", "properties": { "grid_id": 83, "node_id": "116585", "snap_distance_m": 1600.2456903381878, "parks_within_10min": 56, "parks_within_15min": 58, "nearest_distance_m": 0.0, "index_right": 22826, "building_distance_m": 13.838927965645123 }, "geometry": { "type": "Point", "coordinates": [ 126.925798366466424, 37.475123058036189 ] } },
{ "type": "Feature", "properties": { "grid_id": 84, "node_id": "116585", "snap_distance_m": 1517.818434914431, "parks_within_10min": 56, "parks_within_15min": 58, "nearest_distance_m": 0.0, "index_right": 21460, "building_distance_m": 32.574149950255055 }, "geometry": { "type": "Point", "coordinates": [ 126.925796139391124, 37.477375580534925 ] } },
{ "type": "Feature", "properties": { "grid_id": 85, "node_id": "116585", "snap_distance_m": 1473.6890219059928, "parks_within_10min": 56, "parks_within_15min": 58, "nearest_distance_m": 0.0, "index_right": 11009, "building_distance_m": 1.1568867128125959 }, "geometry": { "type": "Point", "coordinates": [ 126.925793912067917, 37.479628102172661 ] } },
{ "type": "Feature", "properties": { "grid_id": 86, "node_id": "116585", "snap_distance_m": 1471.307535903487, "parks_within_10min": 56, "parks_within_15min": 58, "nearest_distance_m": 0.0, "index_right": 24203, "building_distance_m": 1.9009959735731961 }, "geometry": { "type": "Point", "coordinates": [ 126.925791684496758, 37.48188062294939 ] } },
{ "type": "Feature", "properties": { "grid_id": 87, "node_id": "116585", "snap_distance_m": 1510.8714032393821, "parks_within_10min": 56, "parks_within_15min": 58, "nearest_distance_m": 0.0, "index_right": 10949, "building_distance_m": 40.165044026393062 }, "geometry": { "type": "Point", "coordinates": [ 126.925789456677663, 37.484133142865076 ] } },
{ "type": "Feature", "properties": { "grid_id": 88, "node_id": "116582", "snap_distance_m": 1585.3641223304826, "parks_within_10min": 56, "parks_within_15min": 60, "nearest_distance_m": 0.0, "index_right": 4381, "building_distance_m": 22.845785134663604 }, "geometry": { "type": "Point", "coordinates": [ 126.92578722861056, 37.486385661919719 ] } },
{ "type": "Feature", "properties": { "grid_id": 89, "node_id": "116582", "snap_distance_m": 1693.0784877289282, "parks_within_10min": 56, "parks_within_15min": 60, "nearest_distance_m": 0.0, "index_right": 7879, "building_distance_m": 19.188414261402031 }, "geometry": { "type": "Point", "coordinates": [ 126.925785000295448, 37.48863818011327 ] } },
{ "type": "Feature", "properties": { "grid_id": 90, "node_id": "116582", "snap_distance_m": 1828.838464941135, "parks_within_10min": 56, "parks_within_15min": 60, "nearest_distance_m": 0.0, "index_right": 7614, "building_distance_m": 15.367420602057623 }, "geometry": { "type": "Point", "coordinates": [ 126.925782771732315, 37.490890697445742 ] } },
{ "type": "Feature", "properties": { "grid_id": 95, "node_id": "116544", "snap_distance_m": 2667.6064923939648, "parks_within_10min": 57, "parks_within_15min": 60, "nearest_distance_m": 0.0, "index_right": 1565, "building_distance_m": 74.328238016396696 }, "geometry": { "type": "Point", "coordinates": [ 126.92863965643356, 37.459357116500748 ] } },
{ "type": "Feature", "properties": { "grid_id": 96, "node_id": "116588", "snap_distance_m": 2450.9552731373242, "parks_within_10min": 56, "parks_within_15min": 58, "nearest_distance_m": 0.0, "index_right": 1693, "building_distance_m": 77.44590621115637 }, "geometry": { "type": "Point", "coordinates": [ 126.928637515854618, 37.461609645166824 ] } },
{ "type": "Feature", "properties": { "grid_id": 97, "node_id": "116588", "snap_distance_m": 2238.3996911995891, "parks_within_10min": 56, "parks_within_15min": 58, "nearest_distance_m": 0.0, "index_right": 1616, "building_distance_m": 130.35517592413149 }, "geometry": { "type": "Point", "coordinates": [ 126.928635375037416, 37.463862172972007 ] } },
{ "type": "Feature", "properties": { "grid_id": 98, "node_id": "116588", "snap_distance_m": 2034.3757283759498, "parks_within_10min": 56, "parks_within_15min": 58, "nearest_distance_m": 0.0, "index_right": 799, "building_distance_m": 23.222511296204491 }, "geometry": { "type": "Point", "coordinates": [ 126.928633233981913, 37.466114699916332 ] } },
{ "type": "Feature", "properties": { "grid_id": 99, "node_id": "116588", "snap_distance_m": 1841.7209427185044, "parks_within_10min": 56, "parks_within_15min": 58, "nearest_distance_m": 0.0, "index_right": 10080, "building_distance_m": 7.9692650412827231 }, "geometry": { "type": "Point", "coordinates": [ 126.928631092688079, 37.468367225999735 ] } },
{ "type": "Feature", "properties": { "grid_id": 100, "node_id": "116588", "snap_distance_m": 1664.3880129016484, "parks_within_10min": 56, "parks_within_15min": 58, "nearest_distance_m": 0.0, "index_right": 17483, "building_distance_m": 0.83665590342947604 }, "geometry": { "type": "Point", "coordinates": [ 126.928628951155915, 37.470619751222223 ] } },
{ "type": "Feature", "properties": { "grid_id": 101, "node_id": "116585", "snap_distance_m": 1507.2297383487125, "parks_within_10min": 56, "parks_within_15min": 58, "nearest_distance_m": 0.0, "index_right": 19398, "building_distance_m": 129.31500843843679 }, "geometry": { "type": "Point", "coordinates": [ 126.928626809385378, 37.472872275583782 ] } },
{ "type": "Feature", "properties": { "grid_id": 102, "node_id": "116585", "snap_distance_m": 1374.6737853334068, "parks_within_10min": 56, "parks_within_15min": 58, "nearest_distance_m": 0.0, "index_right": 21784, "building_distance_m": 58.606517896421167 }, "geometry": { "type": "Point", "coordinates": [ 126.928624667376425, 37.475124799084369 ] } },
{ "type": "Feature", "properties": { "grid_id": 103, "node_id": "116585", "snap_distance_m": 1277.7771902812426, "parks_within_10min": 56, "parks_within_15min": 58, "nearest_distance_m": 0.0, "index_right": 16404, "building_distance_m": 8.7437980403176603 }, "geometry": { "type": "Point", "coordinates": [ 126.928622525129057, 37.477377321723971 ] } },
{ "type": "Feature", "properties": { "grid_id": 104, "node_id": "116585", "snap_distance_m": 1225.0310526362896, "parks_within_10min": 56, "parks_within_15min": 58, "nearest_distance_m": 0.0, "index_right": 5659, "building_distance_m": 4.0621137688944353 }, "geometry": { "type": "Point", "coordinates": [ 126.928620382643231, 37.479629843502607 ] } },
{ "type": "Feature", "properties": { "grid_id": 105, "node_id": "116585", "snap_distance_m": 1222.165132804616, "parks_within_10min": 56, "parks_within_15min": 58, "nearest_distance_m": 0.0, "index_right": 8162, "building_distance_m": 42.584931968483893 }, "geometry": { "type": "Point", "coordinates": [ 126.928618239918904, 37.481882364420215 ] } },
{ "type": "Feature", "properties": { "grid_id": 106, "node_id": "116582", "snap_distance_m": 1268.9620121413177, "parks_within_10min": 56, "parks_within_15min": 60, "nearest_distance_m": 0.0, "index_right": 7743, "building_distance_m": 70.718525147525526 }, "geometry": { "type": "Point", "coordinates": [ 126.928616096956077, 37.484134884476809 ] } },
{ "type": "Feature", "properties": { "grid_id": 107, "node_id": "116582", "snap_distance_m": 1355.8760833850247, "parks_within_10min": 56, "parks_within_15min": 60, "nearest_distance_m": 0.0, "index_right": 7505, "building_distance_m": 21.418538185349892 }, "geometry": { "type": "Point", "coordinates": [ 126.928613953754692, 37.486387403672353 ] } },
{ "type": "Feature", "properties": { "grid_id": 108, "node_id": "116582", "snap_distance_m": 1480.3835039385192, "parks_within_10min": 56, "parks_within_15min": 60, "nearest_distance_m": 0.0, "index_right": 561, "building_distance_m": 63.765804743570563 }, "geometry": { "type": "Point", "coordinates": [ 126.928611810314749, 37.488639922006818 ] } },
{ "type": "Feature", "properties": { "grid_id": 109, "node_id": "116582", "snap_distance_m": 1633.912691661051, "parks_within_10min": 56, "parks_within_15min": 60, "nearest_distance_m": 0.0, "index_right": 8144, "building_distance_m": 9.2434325083394526 }, "geometry": { "type": "Point", "coordinates": [ 126.928609666636206, 37.49089243948022 ] } },
{ "type": "Feature", "properties": { "grid_id": 110, "node_id": "213876", "snap_distance_m": 1799.8212140692092, "parks_within_10min": 56, "parks_within_15min": 60, "nearest_distance_m": 0.0, "index_right": 24178, "building_distance_m": 14.547696909050842 }, "geometry": { "type": "Point", "coordinates": [ 126.928607522719034, 37.493144956092529 ] } },
{ "type": "Feature", "properties": { "grid_id": 117, "node_id": "120141", "snap_distance_m": 2532.2972483377575, "parks_within_10min": 7, "parks_within_15min": 10, "nearest_distance_m": 0.0, "index_right": 10003, "building_distance_m": 126.95639357657794 }, "geometry": { "type": "Point", "coordinates": [ 126.931465364050496, 37.459358788998344 ] } },
{ "type": "Feature", "properties": { "grid_id": 118, "node_id": "116544", "snap_distance_m": 2327.1674717601591, "parks_within_10min": 57, "parks_within_15min": 60, "nearest_distance_m": 0.0, "index_right": 10054, "building_distance_m": 7.8481855683754986 }, "geometry": { "type": "Point", "coordinates": [ 126.931463308233461, 37.461611317799736 ] } },
{ "type": "Feature", "properties": { "grid_id": 119, "node_id": "116544", "snap_distance_m": 2110.1767438414563, "parks_within_10min": 57, "parks_within_15min": 60, "nearest_distance_m": 0.0, "index_right": 1651, "building_distance_m": 9.6071096296058567 }, "geometry": { "type": "Point", "coordinates": [ 126.931461252187574, 37.463863845740299 ] } },
{ "type": "Feature", "properties": { "grid_id": 120, "node_id": "116588", "snap_distance_m": 1893.3872466320663, "parks_within_10min": 56, "parks_within_15min": 58, "nearest_distance_m": 0.0, "index_right": 10099, "building_distance_m": 39.364701997831219 }, "geometry": { "type": "Point", "coordinates": [ 126.931459195912836, 37.46611637281999 ] } },
{ "type": "Feature", "properties": { "grid_id": 121, "node_id": "116588", "snap_distance_m": 1684.6859328526839, "parks_within_10min": 56, "parks_within_15min": 58, "nearest_distance_m": 0.0, "index_right": 9816, "building_distance_m": 26.342307262471373 }, "geometry": { "type": "Point", "coordinates": [ 126.931457139409233, 37.468368899038765 ] } },
{ "type": "Feature", "properties": { "grid_id": 122, "node_id": "116588", "snap_distance_m": 1488.7639567757135, "parks_within_10min": 56, "parks_within_15min": 58, "nearest_distance_m": 0.0, "index_right": 24300, "building_distance_m": 14.232356571756627 }, "geometry": { "type": "Point", "coordinates": [ 126.931455082676706, 37.470621424396633 ] } },
{ "type": "Feature", "properties": { "grid_id": 123, "node_id": "116588", "snap_distance_m": 1311.3617142639323, "parks_within_10min": 56, "parks_within_15min": 58, "nearest_distance_m": 0.0, "index_right": 22435, "building_distance_m": 51.980297695183367 }, "geometry": { "type": "Point", "coordinates": [ 126.931453025715257, 37.472873948893572 ] } },
{ "type": "Feature", "properties": { "grid_id": 124, "node_id": "116585", "snap_distance_m": 1159.1677025865636, "parks_within_10min": 56, "parks_within_15min": 58, "nearest_distance_m": 0.0, "index_right": 10478, "building_distance_m": 42.357932543864116 }, "geometry": { "type": "Point", "coordinates": [ 126.931450968524857, 37.47512647252956 ] } },
{ "type": "Feature", "properties": { "grid_id": 125, "node_id": "116585", "snap_distance_m": 1042.4280764829584, "parks_within_10min": 56, "parks_within_15min": 58, "nearest_distance_m": 0.0, "index_right": 11326, "building_distance_m": 3.5044016716238979 }, "geometry": { "type": "Point", "coordinates": [ 126.931448911105434, 37.477378995304598 ] } },
{ "type": "Feature", "properties": { "grid_id": 126, "node_id": "116585", "snap_distance_m": 977.05825136483543, "parks_within_10min": 56, "parks_within_15min": 58, "nearest_distance_m": 0.0, "index_right": 8056, "building_distance_m": 19.228061816792557 }, "geometry": { "type": "Point", "coordinates": [ 126.931446853457032, 37.479631517218621 ] } },
{ "type": "Feature", "properties": { "grid_id": 127, "node_id": "116585", "snap_distance_m": 973.46256141685228, "parks_within_10min": 56, "parks_within_15min": 58, "nearest_distance_m": 0.0, "index_right": 15813, "building_distance_m": 4.9493333829639869 }, "geometry": { "type": "Point", "coordinates": [ 126.931444795579552, 37.481884038271659 ] } },
{ "type": "Feature", "properties": { "grid_id": 128, "node_id": "116582", "snap_distance_m": 1029.7014816831888, "parks_within_10min": 56, "parks_within_15min": 60, "nearest_distance_m": 0.0, "index_right": 18046, "building_distance_m": 9.4500079458082595 }, "geometry": { "type": "Point", "coordinates": [ 126.93144273747302, 37.484136558463682 ] } },
{ "type": "Feature", "properties": { "grid_id": 129, "node_id": "116582", "snap_distance_m": 1135.0861229961045, "parks_within_10min": 56, "parks_within_15min": 60, "nearest_distance_m": 0.0, "index_right": 10868, "building_distance_m": 16.575211833956988 }, "geometry": { "type": "Point", "coordinates": [ 126.931440679137395, 37.486389077794655 ] } },
{ "type": "Feature", "properties": { "grid_id": 130, "node_id": "116582", "snap_distance_m": 1281.2321693807489, "parks_within_10min": 56, "parks_within_15min": 60, "nearest_distance_m": 0.0, "index_right": 12028, "building_distance_m": 7.7388215006245495 }, "geometry": { "type": "Point", "coordinates": [ 126.931438620572635, 37.488641596264578 ] } },
{ "type": "Feature", "properties": { "grid_id": 131, "node_id": "213876", "snap_distance_m": 1446.4878178437771, "parks_within_10min": 56, "parks_within_15min": 60, "nearest_distance_m": 0.0, "index_right": 12640, "building_distance_m": 4.345898272248097 }, "geometry": { "type": "Point", "coordinates": [ 126.931436561778725, 37.490894113873409 ] } },
{ "type": "Feature", "properties": { "grid_id": 132, "node_id": "213876", "snap_distance_m": 1626.5671537599756, "parks_within_10min": 56, "parks_within_15min": 60, "nearest_distance_m": 0.0, "index_right": 12712, "building_distance_m": 4.7404693493726366 }, "geometry": { "type": "Point", "coordinates": [ 126.931434502755636, 37.493146630621176 ] } },
{ "type": "Feature", "properties": { "grid_id": 140, "node_id": "120141", "snap_distance_m": 2386.6892375319453, "parks_within_10min": 7, "parks_within_15min": 10, "nearest_distance_m": 0.0, "index_right": 1323, "building_distance_m": 101.28195812782533 }, "geometry": { "type": "Point", "coordinates": [ 126.934291071896254, 37.459360393931199 ] } },
{ "type": "Feature", "properties": { "grid_id": 141, "node_id": "120141", "snap_distance_m": 2181.8436472205776, "parks_within_10min": 7, "parks_within_15min": 10, "nearest_distance_m": 0.0, "index_right": 1519, "building_distance_m": 101.10011163475457 }, "geometry": { "type": "Point", "coordinates": [ 126.934289100841113, 37.461612922862493 ] } },
{ "type": "Feature", "properties": { "grid_id": 142, "node_id": "120141", "snap_distance_m": 1987.3595259244778, "parks_within_10min": 7, "parks_within_15min": 10, "nearest_distance_m": 0.0, "index_right": 20183, "building_distance_m": 62.252967595363366 }, "geometry": { "type": "Point", "coordinates": [ 126.934287129566613, 37.463865450932943 ] } },
{ "type": "Feature", "properties": { "grid_id": 143, "node_id": "116544", "snap_distance_m": 1768.4541084250591, "parks_within_10min": 57, "parks_within_15min": 60, "nearest_distance_m": 0.0, "index_right": 9863, "building_distance_m": 9.116917318751744 }, "geometry": { "type": "Point", "coordinates": [ 126.934285158072697, 37.466117978142506 ] } },
{ "type": "Feature", "properties": { "grid_id": 144, "node_id": "116588", "snap_distance_m": 1552.2233582366616, "parks_within_10min": 56, "parks_within_15min": 58, "nearest_distance_m": 0.0, "index_right": 23880, "building_distance_m": 4.6754239692171122 }, "geometry": { "type": "Point", "coordinates": [ 126.934283186359309, 37.468370504491197 ] } },
{ "type": "Feature", "properties": { "grid_id": 145, "node_id": "116588", "snap_distance_m": 1337.0298353059516, "parks_within_10min": 56, "parks_within_15min": 58, "nearest_distance_m": 0.0, "index_right": 3420, "building_distance_m": 29.123002539927651 }, "geometry": { "type": "Point", "coordinates": [ 126.934281214426463, 37.470623029978974 ] } },
{ "type": "Feature", "properties": { "grid_id": 146, "node_id": "116588", "snap_distance_m": 1136.1778941437915, "parks_within_10min": 56, "parks_within_15min": 58, "nearest_distance_m": 0.0, "index_right": 3425, "building_distance_m": 2.2718167882417792 }, "geometry": { "type": "Point", "coordinates": [ 126.934279242274116, 37.472875554605842 ] } },
{ "type": "Feature", "properties": { "grid_id": 147, "node_id": "116588", "snap_distance_m": 958.72396120248368, "parks_within_10min": 56, "parks_within_15min": 58, "nearest_distance_m": 0.0, "index_right": 7514, "building_distance_m": 22.939260311559153 }, "geometry": { "type": "Point", "coordinates": [ 126.934277269902267, 37.475128078371746 ] } },
{ "type": "Feature", "properties": { "grid_id": 148, "node_id": "116585", "snap_distance_m": 815.84192174519626, "parks_within_10min": 56, "parks_within_15min": 58, "nearest_distance_m": 0.0, "index_right": 22159, "building_distance_m": 8.559784664085246 }, "geometry": { "type": "Point", "coordinates": [ 126.934275297310847, 37.4773806012767 ] } },
{ "type": "Feature", "properties": { "grid_id": 149, "node_id": "116585", "snap_distance_m": 730.46873526321724, "parks_within_10min": 56, "parks_within_15min": 58, "nearest_distance_m": 0.0, "index_right": 394, "building_distance_m": 29.007765574339018 }, "geometry": { "type": "Point", "coordinates": [ 126.934273324499856, 37.479633123320696 ] } },
{ "type": "Feature", "properties": { "grid_id": 150, "node_id": "116585", "snap_distance_m": 725.65219293900918, "parks_within_10min": 56, "parks_within_15min": 58, "nearest_distance_m": 0.0, "index_right": 15368, "building_distance_m": 10.604799350992383 }, "geometry": { "type": "Point", "coordinates": [ 126.934271351469263, 37.481885644503663 ] } },
{ "type": "Feature", "properties": { "grid_id": 151, "node_id": "116582", "snap_distance_m": 797.06065923702909, "parks_within_10min": 56, "parks_within_15min": 60, "nearest_distance_m": 0.0, "index_right": 467, "building_distance_m": 7.7948556484482809 }, "geometry": { "type": "Point", "coordinates": [ 126.934269378219071, 37.484138164825652 ] } },
{ "type": "Feature", "properties": { "grid_id": 152, "node_id": "116582", "snap_distance_m": 929.21529245979389, "parks_within_10min": 56, "parks_within_15min": 60, "nearest_distance_m": 0.0, "index_right": 7862, "building_distance_m": 52.988525829637858 }, "geometry": { "type": "Point", "coordinates": [ 126.934267404749193, 37.486390684286597 ] } },
{ "type": "Feature", "properties": { "grid_id": 153, "node_id": "213876", "snap_distance_m": 1093.2966714151019, "parks_within_10min": 56, "parks_within_15min": 60, "nearest_distance_m": 0.0, "index_right": 12479, "building_distance_m": 13.314434837681418 }, "geometry": { "type": "Point", "coordinates": [ 126.934265431059671, 37.488643202886479 ] } },
{ "type": "Feature", "properties": { "grid_id": 154, "node_id": "213876", "snap_distance_m": 1274.2414646556272, "parks_within_10min": 56, "parks_within_15min": 60, "nearest_distance_m": 0.0, "index_right": 8700, "building_distance_m": 21.713167180816843 }, "geometry": { "type": "Point", "coordinates": [ 126.934263457150422, 37.490895720625304 ] } },
{ "type": "Feature", "properties": { "grid_id": 165, "node_id": "120141", "snap_distance_m": 1832.5812527401358, "parks_within_10min": 7, "parks_within_15min": 10, "nearest_distance_m": 0.0, "index_right": 1642, "building_distance_m": 28.770870673863321 }, "geometry": { "type": "Point", "coordinates": [ 126.937113007165053, 37.463866988549896 ] } },
{ "type": "Feature", "properties": { "grid_id": 166, "node_id": "120141", "snap_distance_m": 1634.7814019802704, "parks_within_10min": 7, "parks_within_15min": 10, "nearest_distance_m": 0.0, "index_right": 16855, "building_distance_m": 7.9968490219711166 }, "geometry": { "type": "Point", "coordinates": [ 126.937111120451945, 37.466119515883889 ] } },
{ "type": "Feature", "properties": { "grid_id": 167, "node_id": "116544", "snap_distance_m": 1432.4852449367881, "parks_within_10min": 57, "parks_within_15min": 60, "nearest_distance_m": 0.0, "index_right": 10082, "building_distance_m": 8.9485415245286504 }, "geometry": { "type": "Point", "coordinates": [ 126.937109233528858, 37.468372042357011 ] } },
{ "type": "Feature", "properties": { "grid_id": 168, "node_id": "116544", "snap_distance_m": 1210.0212500581843, "parks_within_10min": 57, "parks_within_15min": 60, "nearest_distance_m": 0.0, "index_right": 24137, "building_distance_m": 50.269485892812973 }, "geometry": { "type": "Point", "coordinates": [ 126.937107346395692, 37.470624567969239 ] } },
{ "type": "Feature", "properties": { "grid_id": 169, "node_id": "116588", "snap_distance_m": 993.54459821630678, "parks_within_10min": 56, "parks_within_15min": 58, "nearest_distance_m": 0.0, "index_right": 24604, "building_distance_m": 20.565947157277094 }, "geometry": { "type": "Point", "coordinates": [ 126.937105459052503, 37.472877092720537 ] } },
{ "type": "Feature", "properties": { "grid_id": 170, "node_id": "116588", "snap_distance_m": 784.46306177382439, "parks_within_10min": 56, "parks_within_15min": 58, "nearest_distance_m": 0.0, "index_right": 7657, "building_distance_m": 14.100874055433053 }, "geometry": { "type": "Point", "coordinates": [ 126.937103571499208, 37.4751296166109 ] } },
{ "type": "Feature", "properties": { "grid_id": 171, "node_id": "116588", "snap_distance_m": 607.15214067836712, "parks_within_10min": 56, "parks_within_15min": 58, "nearest_distance_m": 0.0, "index_right": 29, "building_distance_m": 13.967924083222261 }, "geometry": { "type": "Point", "coordinates": [ 126.937101683735833, 37.477382139640326 ] } },
{ "type": "Feature", "properties": { "grid_id": 172, "node_id": "116585", "snap_distance_m": 487.36672007224513, "parks_within_10min": 56, "parks_within_15min": 58, "nearest_distance_m": 0.0, "index_right": 7299, "building_distance_m": 110.53929668277685 }, "geometry": { "type": "Point", "coordinates": [ 126.937099795762279, 37.479634661808781 ] } },
{ "type": "Feature", "properties": { "grid_id": 173, "node_id": "116585", "snap_distance_m": 480.11753951936305, "parks_within_10min": 56, "parks_within_15min": 58, "nearest_distance_m": 0.0, "index_right": 20744, "building_distance_m": 63.092266294614213 }, "geometry": { "type": "Point", "coordinates": [ 126.937097907578618, 37.481887183116243 ] } },
{ "type": "Feature", "properties": { "grid_id": 174, "node_id": "116582", "snap_distance_m": 579.07361157816581, "parks_within_10min": 56, "parks_within_15min": 60, "nearest_distance_m": 0.0, "index_right": 10267, "building_distance_m": 53.422125590243155 }, "geometry": { "type": "Point", "coordinates": [ 126.937096019184764, 37.484139703562704 ] } },
{ "type": "Feature", "properties": { "grid_id": 175, "node_id": "213876", "snap_distance_m": 740.45135983684327, "parks_within_10min": 56, "parks_within_15min": 60, "nearest_distance_m": 0.0, "index_right": 7767, "building_distance_m": 7.4671175624781991 }, "geometry": { "type": "Point", "coordinates": [ 126.937094130580704, 37.486392223148144 ] } },
{ "type": "Feature", "properties": { "grid_id": 176, "node_id": "213876", "snap_distance_m": 922.85530545400604, "parks_within_10min": 56, "parks_within_15min": 60, "nearest_distance_m": 0.0, "index_right": 11665, "building_distance_m": 5.8217008663382162 }, "geometry": { "type": "Point", "coordinates": [ 126.937092241766393, 37.488644741872548 ] } },
{ "type": "Feature", "properties": { "grid_id": 177, "node_id": "121172", "snap_distance_m": 1098.5919033247512, "parks_within_10min": 6, "parks_within_15min": 6, "nearest_distance_m": 0.0, "index_right": 12110, "building_distance_m": 128.07204352319209 }, "geometry": { "type": "Point", "coordinates": [ 126.937090352741848, 37.490897259735867 ] } },
{ "type": "Feature", "properties": { "grid_id": 190, "node_id": "120141", "snap_distance_m": 1700.6205368942378, "parks_within_10min": 7, "parks_within_15min": 10, "nearest_distance_m": 0.0, "index_right": 9941, "building_distance_m": 38.144752629856967 }, "geometry": { "type": "Point", "coordinates": [ 126.939938884973486, 37.463868458591158 ] } },
{ "type": "Feature", "properties": { "grid_id": 191, "node_id": "120141", "snap_distance_m": 1485.3505966176533, "parks_within_10min": 7, "parks_within_15min": 10, "nearest_distance_m": 0.0, "index_right": 22478, "building_distance_m": 7.9512351367819312 }, "geometry": { "type": "Point", "coordinates": [ 126.939937083041258, 37.46612098604411 ] } },
{ "type": "Feature", "properties": { "grid_id": 192, "node_id": "120141", "snap_distance_m": 1282.740261798308, "parks_within_10min": 7, "parks_within_15min": 10, "nearest_distance_m": 0.0, "index_right": 14921, "building_distance_m": 7.5581580308023488 }, "geometry": { "type": "Point", "coordinates": [ 126.939935280908415, 37.468373512636191 ] } },
{ "type": "Feature", "properties": { "grid_id": 193, "node_id": "120141", "snap_distance_m": 1099.8085122440016, "parks_within_10min": 7, "parks_within_15min": 10, "nearest_distance_m": 0.0, "index_right": 20682, "building_distance_m": 45.368176397560291 }, "geometry": { "type": "Point", "coordinates": [ 126.939933478574986, 37.470626038367378 ] } },
{ "type": "Feature", "properties": { "grid_id": 194, "node_id": "116544", "snap_distance_m": 873.91960096367552, "parks_within_10min": 57, "parks_within_15min": 60, "nearest_distance_m": 0.0, "index_right": 2460, "building_distance_m": 18.037527120145256 }, "geometry": { "type": "Point", "coordinates": [ 126.939931676040942, 37.472878563237686 ] } },
{ "type": "Feature", "properties": { "grid_id": 195, "node_id": "116544", "snap_distance_m": 652.58939432025045, "parks_within_10min": 57, "parks_within_15min": 60, "nearest_distance_m": 0.0, "index_right": 6169, "building_distance_m": 4.0093291640001274 }, "geometry": { "type": "Point", "coordinates": [ 126.939929873306269, 37.475131087247036 ] } },
{ "type": "Feature", "properties": { "grid_id": 196, "node_id": "116588", "snap_distance_m": 435.73430371512535, "parks_within_10min": 56, "parks_within_15min": 58, "nearest_distance_m": 0.0, "index_right": 839, "building_distance_m": 16.341449446461667 }, "geometry": { "type": "Point", "coordinates": [ 126.939928070370925, 37.477383610395442 ] } },
{ "type": "Feature", "properties": { "grid_id": 197, "node_id": "116585", "snap_distance_m": 257.81401527246783, "parks_within_10min": 56, "parks_within_15min": 58, "nearest_distance_m": 0.0, "index_right": 4321, "building_distance_m": 12.991629290913856 }, "geometry": { "type": "Point", "coordinates": [ 126.939926267234895, 37.479636132682906 ] } },
{ "type": "Feature", "properties": { "grid_id": 198, "node_id": "116582", "snap_distance_m": 239.18912080448089, "parks_within_10min": 56, "parks_within_15min": 60, "nearest_distance_m": 0.0, "index_right": 4290, "building_distance_m": 9.6634832485781921 }, "geometry": { "type": "Point", "coordinates": [ 126.939924463898151, 37.481888654109383 ] } },
{ "type": "Feature", "properties": { "grid_id": 199, "node_id": "213876", "snap_distance_m": 388.89435691601329, "parks_within_10min": 56, "parks_within_15min": 60, "nearest_distance_m": 0.0, "index_right": 8571, "building_distance_m": 26.77929373045691 }, "geometry": { "type": "Point", "coordinates": [ 126.939922660360665, 37.484141174674861 ] } },
{ "type": "Feature", "properties": { "grid_id": 200, "node_id": "213876", "snap_distance_m": 574.13632471869937, "parks_within_10min": 56, "parks_within_15min": 60, "nearest_distance_m": 0.0, "index_right": 5474, "building_distance_m": 18.288741165681543 }, "geometry": { "type": "Point", "coordinates": [ 126.939920856622408, 37.486393694379323 ] } },
{ "type": "Feature", "properties": { "grid_id": 201, "node_id": "121172", "snap_distance_m": 755.44463719169141, "parks_within_10min": 6, "parks_within_15min": 6, "nearest_distance_m": 0.0, "index_right": 12034, "building_distance_m": 10.39966608880137 }, "geometry": { "type": "Point", "coordinates": [ 126.939919052683393, 37.488646213222729 ] } },
{ "type": "Feature", "properties": { "grid_id": 202, "node_id": "121172", "snap_distance_m": 900.73099308149392, "parks_within_10min": 6, "parks_within_15min": 6, "nearest_distance_m": 0.0, "index_right": 7081, "building_distance_m": 80.019601255542682 }, "geometry": { "type": "Point", "coordinates": [ 126.939917248543551, 37.490898731205114 ] } },
{ "type": "Feature", "properties": { "grid_id": 215, "node_id": "83904", "snap_distance_m": 1353.0157688962324, "parks_within_10min": 0, "parks_within_15min": 2, "nearest_distance_m": 966.023, "index_right": 951, "building_distance_m": 64.533578908713096 }, "geometry": { "type": "Point", "coordinates": [ 126.9427630458311, 37.466122388623162 ] } },
{ "type": "Feature", "properties": { "grid_id": 216, "node_id": "120141", "snap_distance_m": 1142.0064543820372, "parks_within_10min": 7, "parks_within_15min": 10, "nearest_distance_m": 0.0, "index_right": 1589, "building_distance_m": 21.625805829312537 }, "geometry": { "type": "Point", "coordinates": [ 126.942761328488572, 37.468374915328724 ] } },
{ "type": "Feature", "properties": { "grid_id": 217, "node_id": "120141", "snap_distance_m": 931.8449045931435, "parks_within_10min": 7, "parks_within_15min": 10, "nearest_distance_m": 0.0, "index_right": 2346, "building_distance_m": 75.231278573344241 }, "geometry": { "type": "Point", "coordinates": [ 126.942759610954894, 37.470627441173427 ] } },
{ "type": "Feature", "properties": { "grid_id": 218, "node_id": "120141", "snap_distance_m": 746.65327333520588, "parks_within_10min": 7, "parks_within_15min": 10, "nearest_distance_m": 0.0, "index_right": 18031, "building_distance_m": 57.498849896483428 }, "geometry": { "type": "Point", "coordinates": [ 126.942757893230052, 37.472879966157244 ] } },
{ "type": "Feature", "properties": { "grid_id": 219, "node_id": "116544", "snap_distance_m": 559.74950853453083, "parks_within_10min": 57, "parks_within_15min": 60, "nearest_distance_m": 0.0, "index_right": 9796, "building_distance_m": 16.049883936177629 }, "geometry": { "type": "Point", "coordinates": [ 126.942756175314003, 37.475132490280103 ] } },
{ "type": "Feature", "properties": { "grid_id": 220, "node_id": "116544", "snap_distance_m": 316.94946116914309, "parks_within_10min": 57, "parks_within_15min": 60, "nearest_distance_m": 0.0, "index_right": 6273, "building_distance_m": 29.944536331306018 }, "geometry": { "type": "Point", "coordinates": [ 126.942754457206718, 37.477385013542055 ] } },
{ "type": "Feature", "properties": { "grid_id": 221, "node_id": "116544", "snap_distance_m": 112.22481706900442, "parks_within_10min": 57, "parks_within_15min": 60, "nearest_distance_m": 0.0, "index_right": 7025, "building_distance_m": 13.049392235715375 }, "geometry": { "type": "Point", "coordinates": [ 126.942752738908197, 37.47963753594302 ] } },
{ "type": "Feature", "properties": { "grid_id": 222, "node_id": "116578", "snap_distance_m": 58.333455859398391, "parks_within_10min": 56, "parks_within_15min": 60, "nearest_distance_m": 20.496, "index_right": 24146, "building_distance_m": 23.432740566729588 }, "geometry": { "type": "Point", "coordinates": [ 126.942751020418399, 37.481890057483042 ] } },
{ "type": "Feature", "properties": { "grid_id": 223, "node_id": "213876", "snap_distance_m": 240.0065080750625, "parks_within_10min": 56, "parks_within_15min": 60, "nearest_distance_m": 0.0, "index_right": 6449, "building_distance_m": 19.458758418018803 }, "geometry": { "type": "Point", "coordinates": [ 126.942749301737308, 37.484142578162057 ] } },
{ "type": "Feature", "properties": { "grid_id": 224, "node_id": "121172", "snap_distance_m": 429.52186169352632, "parks_within_10min": 6, "parks_within_15min": 6, "nearest_distance_m": 0.0, "index_right": 22588, "building_distance_m": 37.582349615819176 }, "geometry": { "type": "Point", "coordinates": [ 126.942747582864925, 37.486395097980072 ] } },
{ "type": "Feature", "properties": { "grid_id": 225, "node_id": "121172", "snap_distance_m": 547.82182478298625, "parks_within_10min": 6, "parks_within_15min": 6, "nearest_distance_m": 0.0, "index_right": 14330, "building_distance_m": 5.9791690017400025 }, "geometry": { "type": "Point", "coordinates": [ 126.942745863801207, 37.488647616937051 ] } },
{ "type": "Feature", "properties": { "grid_id": 226, "node_id": "121111", "snap_distance_m": 704.35419586395528, "parks_within_10min": 1, "parks_within_15min": 2, "nearest_distance_m": 0.0, "index_right": 14038, "building_distance_m": 22.002395299312951 }, "geometry": { "type": "Point", "coordinates": [ 126.942744144546111, 37.490900135032987 ] } },
{ "type": "Feature", "properties": { "grid_id": 239, "node_id": "83904", "snap_distance_m": 1200.1159388851527, "parks_within_10min": 0, "parks_within_15min": 2, "nearest_distance_m": 966.023, "index_right": 1056, "building_distance_m": 164.20807745896298 }, "geometry": { "type": "Point", "coordinates": [ 126.945589008812078, 37.466123723620981 ] } },
{ "type": "Feature", "properties": { "grid_id": 240, "node_id": "83904", "snap_distance_m": 1000.108110764506, "parks_within_10min": 0, "parks_within_15min": 2, "nearest_distance_m": 966.023, "index_right": 9847, "building_distance_m": 108.49754663679535 }, "geometry": { "type": "Point", "coordinates": [ 126.945587376259894, 37.468376250434602 ] } },
{ "type": "Feature", "properties": { "grid_id": 243, "node_id": "120141", "snap_distance_m": 394.21245231472705, "parks_within_10min": 7, "parks_within_15min": 10, "nearest_distance_m": 0.0, "index_right": 6191, "building_distance_m": 160.35074849368505 }, "geometry": { "type": "Point", "coordinates": [ 126.945582477512957, 37.47513382571011 ] } },
{ "type": "Feature", "properties": { "grid_id": 244, "node_id": "120879", "snap_distance_m": 261.27691985600023, "parks_within_10min": 54, "parks_within_15min": 65, "nearest_distance_m": 385.026, "index_right": 8516, "building_distance_m": 10.218012158805896 }, "geometry": { "type": "Point", "coordinates": [ 126.94558084423376, 37.477386349080078 ] } },
{ "type": "Feature", "properties": { "grid_id": 245, "node_id": "120859", "snap_distance_m": 98.572135913922367, "parks_within_10min": 58, "parks_within_15min": 65, "nearest_distance_m": 0.0, "index_right": 7906, "building_distance_m": 22.631167478410532 }, "geometry": { "type": "Point", "coordinates": [ 126.945579210772777, 37.479638871589131 ] } },
{ "type": "Feature", "properties": { "grid_id": 246, "node_id": "76242", "snap_distance_m": 7.4285129804215781, "parks_within_10min": 58, "parks_within_15min": 69, "nearest_distance_m": 294.612, "index_right": 5205, "building_distance_m": 11.955377684603841 }, "geometry": { "type": "Point", "coordinates": [ 126.945577577129953, 37.481891393237213 ] } },
{ "type": "Feature", "properties": { "grid_id": 247, "node_id": "215545", "snap_distance_m": 131.42489806607782, "parks_within_10min": 6, "parks_within_15min": 24, "nearest_distance_m": 306.66, "index_right": 10859, "building_distance_m": 6.7871919288782481 }, "geometry": { "type": "Point", "coordinates": [ 126.9455759433053, 37.484143914024301 ] } },
{ "type": "Feature", "properties": { "grid_id": 248, "node_id": "121172", "snap_distance_m": 197.23382448136869, "parks_within_10min": 6, "parks_within_15min": 6, "nearest_distance_m": 0.0, "index_right": 8667, "building_distance_m": 25.994145730295553 }, "geometry": { "type": "Point", "coordinates": [ 126.945574309298763, 37.486396433950382 ] } },
{ "type": "Feature", "properties": { "grid_id": 249, "node_id": "121111", "snap_distance_m": 355.1211401655475, "parks_within_10min": 1, "parks_within_15min": 2, "nearest_distance_m": 0.0, "index_right": 8512, "building_distance_m": 12.769035968476516 }, "geometry": { "type": "Point", "coordinates": [ 126.945572675110355, 37.488648953015471 ] } },
{ "type": "Feature", "properties": { "grid_id": 250, "node_id": "121111", "snap_distance_m": 532.53766303671694, "parks_within_10min": 1, "parks_within_15min": 2, "nearest_distance_m": 0.0, "index_right": 8294, "building_distance_m": 8.4229327305779673 }, "geometry": { "type": "Point", "coordinates": [ 126.94557104074002, 37.490901471219502 ] } },
{ "type": "Feature", "properties": { "grid_id": 251, "node_id": "121111", "snap_distance_m": 752.38401160094918, "parks_within_10min": 1, "parks_within_15min": 2, "nearest_distance_m": 0.0, "index_right": 7424, "building_distance_m": 52.07082105174802 }, "geometry": { "type": "Point", "coordinates": [ 126.945569406187744, 37.493153988562455 ] } },
{ "type": "Feature", "properties": { "grid_id": 259, "node_id": "83483", "snap_distance_m": 2275.4181496829178, "parks_within_10min": 4, "parks_within_15min": 4, "nearest_distance_m": 156.955, "index_right": 1401, "building_distance_m": 110.50598103179728 }, "geometry": { "type": "Point", "coordinates": [ 126.948422708200411, 37.454862343544313 ] } },
{ "type": "Feature", "properties": { "grid_id": 261, "node_id": "83483", "snap_distance_m": 1791.1919180940333, "parks_within_10min": 4, "parks_within_15min": 4, "nearest_distance_m": 156.955, "index_right": 1431, "building_distance_m": 80.401668736659033 }, "geometry": { "type": "Point", "coordinates": [ 126.948419614226779, 37.459367405124063 ] } },
{ "type": "Feature", "properties": { "grid_id": 262, "node_id": "83483", "snap_distance_m": 1552.8325258104483, "parks_within_10min": 4, "parks_within_15min": 4, "nearest_distance_m": 156.955, "index_right": 1431, "building_distance_m": 171.10280783708447 }, "geometry": { "type": "Point", "coordinates": [ 126.94841806698166, 37.461619934622746 ] } },
{ "type": "Feature", "properties": { "grid_id": 269, "node_id": "120141", "snap_distance_m": 57.583022999875723, "parks_within_10min": 7, "parks_within_15min": 10, "nearest_distance_m": 0.0, "index_right": 17779, "building_distance_m": 3.324175797608806 }, "geometry": { "type": "Point", "coordinates": [ 126.948407231442602, 37.47738761700959 ] } },
{ "type": "Feature", "properties": { "grid_id": 270, "node_id": "120864", "snap_distance_m": 15.402559581377847, "parks_within_10min": 24, "parks_within_15min": 64, "nearest_distance_m": 232.462, "index_right": 9001, "building_distance_m": 11.008014510235176 }, "geometry": { "type": "Point", "coordinates": [ 126.948405682819185, 37.479640139621225 ] } },
{ "type": "Feature", "properties": { "grid_id": 271, "node_id": "74465", "snap_distance_m": 11.421869418736858, "parks_within_10min": 64, "parks_within_15min": 69, "nearest_distance_m": 431.616, "index_right": 14594, "building_distance_m": 30.56418566630736 }, "geometry": { "type": "Point", "coordinates": [ 126.948404134023349, 37.481892661371894 ] } },
{ "type": "Feature", "properties": { "grid_id": 272, "node_id": "120927", "snap_distance_m": 24.832805251649237, "parks_within_10min": 6, "parks_within_15min": 30, "nearest_distance_m": 38.14, "index_right": 7202, "building_distance_m": 5.5116951953527895 }, "geometry": { "type": "Point", "coordinates": [ 126.948402585055149, 37.484145182261599 ] } },
{ "type": "Feature", "properties": { "grid_id": 273, "node_id": "121110", "snap_distance_m": 60.159287838661129, "parks_within_10min": 1, "parks_within_15min": 2, "nearest_distance_m": 18.774, "index_right": 6884, "building_distance_m": 22.179176153575252 }, "geometry": { "type": "Point", "coordinates": [ 126.9484010359145, 37.486397702290283 ] } },
{ "type": "Feature", "properties": { "grid_id": 274, "node_id": "121111", "snap_distance_m": 196.44987532173997, "parks_within_10min": 1, "parks_within_15min": 2, "nearest_distance_m": 0.0, "index_right": 5124, "building_distance_m": 5.6220226311207115 }, "geometry": { "type": "Point", "coordinates": [ 126.948399486601431, 37.488650221457981 ] } },
{ "type": "Feature", "properties": { "grid_id": 275, "node_id": "121111", "snap_distance_m": 442.80683359006167, "parks_within_10min": 1, "parks_within_15min": 2, "nearest_distance_m": 0.0, "index_right": 7139, "building_distance_m": 21.415555304956136 }, "geometry": { "type": "Point", "coordinates": [ 126.948397937115871, 37.490902739764621 ] } },
{ "type": "Feature", "properties": { "grid_id": 276, "node_id": "83527", "snap_distance_m": 609.50615970174886, "parks_within_10min": 1, "parks_within_15min": 2, "nearest_distance_m": 589.016, "index_right": 7434, "building_distance_m": 141.52908261307155 }, "geometry": { "type": "Point", "coordinates": [ 126.948396387457848, 37.493155257210226 ] } },
{ "type": "Feature", "properties": { "grid_id": 284, "node_id": "83483", "snap_distance_m": 2233.5178247849362, "parks_within_10min": 4, "parks_within_15min": 4, "nearest_distance_m": 156.955, "index_right": 1401, "building_distance_m": 171.59628172669895 }, "geometry": { "type": "Point", "coordinates": [ 126.951248247725019, 37.454863542894365 ] } },
{ "type": "Feature", "properties": { "grid_id": 293, "node_id": "83904", "snap_distance_m": 155.8310762905794, "parks_within_10min": 0, "parks_within_15min": 2, "nearest_distance_m": 966.023, "index_right": 1843, "building_distance_m": 86.710394141379965 }, "geometry": { "type": "Point", "coordinates": [ 126.951235082446757, 37.475136293760833 ] } },
{ "type": "Feature", "properties": { "grid_id": 294, "node_id": "120117", "snap_distance_m": 91.439289602917327, "parks_within_10min": 7, "parks_within_15min": 10, "nearest_distance_m": 202.739, "index_right": 5314, "building_distance_m": 15.545558179210939 }, "geometry": { "type": "Point", "coordinates": [ 126.951233618823821, 37.477388817330521 ] } },
{ "type": "Feature", "properties": { "grid_id": 295, "node_id": "120093", "snap_distance_m": 39.995261303990077, "parks_within_10min": 7, "parks_within_15min": 63, "nearest_distance_m": 219.589, "index_right": 10797, "building_distance_m": 46.583945765199445 }, "geometry": { "type": "Point", "coordinates": [ 126.951232155037971, 37.479641340039265 ] } },
{ "type": "Feature", "properties": { "grid_id": 296, "node_id": "83768", "snap_distance_m": 83.010323292347223, "parks_within_10min": 10, "parks_within_15min": 63, "nearest_distance_m": 165.64, "index_right": 5126, "building_distance_m": 76.717637172613408 }, "geometry": { "type": "Point", "coordinates": [ 126.951230691089165, 37.48189386188708 ] } },
{ "type": "Feature", "properties": { "grid_id": 297, "node_id": "83713", "snap_distance_m": 30.273144827366757, "parks_within_10min": 6, "parks_within_15min": 6, "nearest_distance_m": 241.03, "index_right": 8210, "building_distance_m": 4.7934679363486143 }, "geometry": { "type": "Point", "coordinates": [ 126.951229226977404, 37.484146382873909 ] } },
{ "type": "Feature", "properties": { "grid_id": 298, "node_id": "83762", "snap_distance_m": 17.988070065809847, "parks_within_10min": 1, "parks_within_15min": 2, "nearest_distance_m": 232.07, "index_right": 8375, "building_distance_m": 13.002014604404549 }, "geometry": { "type": "Point", "coordinates": [ 126.951227762702672, 37.486398902999731 ] } },
{ "type": "Feature", "properties": { "grid_id": 299, "node_id": "120160", "snap_distance_m": 129.64057906900794, "parks_within_10min": 1, "parks_within_15min": 2, "nearest_distance_m": 538.396, "index_right": 5329, "building_distance_m": 14.409957270797918 }, "geometry": { "type": "Point", "coordinates": [ 126.951226298264942, 37.488651422264567 ] } },
{ "type": "Feature", "properties": { "grid_id": 300, "node_id": "83527", "snap_distance_m": 258.32576123076132, "parks_within_10min": 1, "parks_within_15min": 2, "nearest_distance_m": 589.016, "index_right": 5281, "building_distance_m": 8.785599299225952 }, "geometry": { "type": "Point", "coordinates": [ 126.951224833664213, 37.490903940668368 ] } },
{ "type": "Feature", "properties": { "grid_id": 309, "node_id": "83483", "snap_distance_m": 1969.1613334430231, "parks_within_10min": 4, "parks_within_15min": 4, "nearest_distance_m": 156.955, "index_right": 1584, "building_distance_m": 19.041788221292737 }, "geometry": { "type": "Point", "coordinates": [ 126.954072409998034, 37.457117206099447 ] } },
{ "type": "Feature", "properties": { "grid_id": 316, "node_id": "83483", "snap_distance_m": 219.17782167323637, "parks_within_10min": 4, "parks_within_15min": 4, "nearest_distance_m": 156.955, "index_right": 1846, "building_distance_m": 150.26246909879478 }, "geometry": { "type": "Point", "coordinates": [ 126.954062763804075, 37.472884901859302 ] } },
{ "type": "Feature", "properties": { "grid_id": 317, "node_id": "83483", "snap_distance_m": 30.972298637642432, "parks_within_10min": 4, "parks_within_15min": 4, "nearest_distance_m": 156.955, "index_right": 9478, "building_distance_m": 10.774204074662599 }, "geometry": { "type": "Point", "coordinates": [ 126.954061385162746, 37.475137426381544 ] } },
{ "type": "Feature", "properties": { "grid_id": 318, "node_id": "119909", "snap_distance_m": 45.149346336060916, "parks_within_10min": 2, "parks_within_15min": 10, "nearest_distance_m": 664.999, "index_right": 23554, "building_distance_m": 6.2287846694480704 }, "geometry": { "type": "Point", "coordinates": [ 126.954060006367939, 37.477389950042877 ] } },
{ "type": "Feature", "properties": { "grid_id": 319, "node_id": "83478", "snap_distance_m": 15.570690858750835, "parks_within_10min": 3, "parks_within_15min": 22, "nearest_distance_m": 500.791, "index_right": 15780, "building_distance_m": 4.4451670693264029 }, "geometry": { "type": "Point", "coordinates": [ 126.954058627419684, 37.479642472843274 ] } },
{ "type": "Feature", "properties": { "grid_id": 320, "node_id": "78520", "snap_distance_m": 12.880979344784533, "parks_within_10min": 0, "parks_within_15min": 1, "nearest_distance_m": 979.896, "index_right": 5767, "building_distance_m": 27.300198338947915 }, "geometry": { "type": "Point", "coordinates": [ 126.954057248317923, 37.481894994782742 ] } },
{ "type": "Feature", "properties": { "grid_id": 321, "node_id": "77156", "snap_distance_m": 27.23138867902977, "parks_within_10min": 0, "parks_within_15min": 2, "nearest_distance_m": 863.547, "index_right": 9298, "building_distance_m": 31.791444438148346 }, "geometry": { "type": "Point", "coordinates": [ 126.954055869062643, 37.484147515861224 ] } },
{ "type": "Feature", "properties": { "grid_id": 322, "node_id": "68240", "snap_distance_m": 15.531849225920162, "parks_within_10min": 2, "parks_within_15min": 2, "nearest_distance_m": 502.779, "index_right": 7705, "building_distance_m": 10.283192745497551 }, "geometry": { "type": "Point", "coordinates": [ 126.954054489653842, 37.48640003607872 ] } },
{ "type": "Feature", "properties": { "grid_id": 323, "node_id": "83496", "snap_distance_m": 30.390167976293611, "parks_within_10min": 1, "parks_within_15min": 2, "nearest_distance_m": 483.061, "index_right": 13775, "building_distance_m": 5.0003486689455885 }, "geometry": { "type": "Point", "coordinates": [ 126.954053110091508, 37.488652555435216 ] } },
{ "type": "Feature", "properties": { "grid_id": 337, "node_id": "83483", "snap_distance_m": 760.44217643426055, "parks_within_10min": 4, "parks_within_15min": 4, "nearest_distance_m": 156.955, "index_right": 795, "building_distance_m": 71.975163199093984 }, "geometry": { "type": "Point", "coordinates": [ 126.956891569067992, 37.468380914991222 ] } },
{ "type": "Feature", "properties": { "grid_id": 339, "node_id": "83483", "snap_distance_m": 330.32262295977188, "parks_within_10min": 4, "parks_within_15min": 4, "nearest_distance_m": 156.955, "index_right": 13088, "building_distance_m": 173.72532142077137 }, "geometry": { "type": "Point", "coordinates": [ 126.95688898185476, 37.47288596679072 ] } },
{ "type": "Feature", "properties": { "grid_id": 340, "node_id": "123965", "snap_distance_m": 146.12890325988363, "parks_within_10min": 4, "parks_within_15min": 19, "nearest_distance_m": 115.697, "index_right": 4941, "building_distance_m": 120.48594135254751 }, "geometry": { "type": "Point", "coordinates": [ 126.956887688032168, 37.475138491399122 ] } },
{ "type": "Feature", "properties": { "grid_id": 341, "node_id": "119444", "snap_distance_m": 12.150194296471838, "parks_within_10min": 4, "parks_within_15min": 19, "nearest_distance_m": 128.277, "index_right": 23700, "building_distance_m": 3.4934897187783815 }, "geometry": { "type": "Point", "coordinates": [ 126.956886394065549, 37.477391015146637 ] } },
{ "type": "Feature", "properties": { "grid_id": 342, "node_id": "68272", "snap_distance_m": 24.148411856893386, "parks_within_10min": 1, "parks_within_15min": 1, "nearest_distance_m": 256.994, "index_right": 5086, "building_distance_m": 41.054350324271439 }, "geometry": { "type": "Point", "coordinates": [ 126.956885099954903, 37.479643538033216 ] } },
{ "type": "Feature", "properties": { "grid_id": 343, "node_id": "79384", "snap_distance_m": 17.48763559256393, "parks_within_10min": 1, "parks_within_15min": 1, "nearest_distance_m": 667.664, "index_right": 12257, "building_distance_m": 10.08339932676116 }, "geometry": { "type": "Point", "coordinates": [ 126.956883805700201, 37.481896060058858 ] } },
{ "type": "Feature", "properties": { "grid_id": 344, "node_id": "78972", "snap_distance_m": 53.163043259679569, "parks_within_10min": 0, "parks_within_15min": 1, "nearest_distance_m": 1019.588, "index_right": 14162, "building_distance_m": 3.1225837628218365 }, "geometry": { "type": "Point", "coordinates": [ 126.956882511301416, 37.484148581223529 ] } },
{ "type": "Feature", "properties": { "grid_id": 345, "node_id": "83439", "snap_distance_m": 25.58914850946741, "parks_within_10min": 1, "parks_within_15min": 2, "nearest_distance_m": 55.372, "index_right": 361, "building_distance_m": 52.15640828787825 }, "geometry": { "type": "Point", "coordinates": [ 126.956881216758561, 37.486401101527235 ] } },
{ "type": "Feature", "properties": { "grid_id": 346, "node_id": "83209", "snap_distance_m": 139.08363848210178, "parks_within_10min": 1, "parks_within_15min": 2, "nearest_distance_m": 345.361, "index_right": 12274, "building_distance_m": 29.602226737309145 }, "geometry": { "type": "Point", "coordinates": [ 126.956879922071593, 37.488653620969934 ] } },
{ "type": "Feature", "properties": { "grid_id": 347, "node_id": "83209", "snap_distance_m": 304.06152814295609, "parks_within_10min": 1, "parks_within_15min": 2, "nearest_distance_m": 345.361, "index_right": 12166, "building_distance_m": 42.007364086231661 }, "geometry": { "type": "Point", "coordinates": [ 126.956878627240528, 37.490906139551605 ] } },
{ "type": "Feature", "properties": { "grid_id": 362, "node_id": "68252", "snap_distance_m": 433.93999857986569, "parks_within_10min": 4, "parks_within_15min": 18, "nearest_distance_m": 0.0, "index_right": 13088, "building_distance_m": 92.719300057173129 }, "geometry": { "type": "Point", "coordinates": [ 126.959715200049473, 37.472886964124477 ] } },
{ "type": "Feature", "properties": { "grid_id": 363, "node_id": "68252", "snap_distance_m": 226.48293836596486, "parks_within_10min": 4, "parks_within_15min": 18, "nearest_distance_m": 0.0, "index_right": 5650, "building_distance_m": 10.780218111249726 }, "geometry": { "type": "Point", "coordinates": [ 126.959713991045618, 37.475139488813603 ] } },
{ "type": "Feature", "properties": { "grid_id": 364, "node_id": "68021", "snap_distance_m": 78.787383615707427, "parks_within_10min": 18, "parks_within_15min": 19, "nearest_distance_m": 297.558, "index_right": 6910, "building_distance_m": 11.321101328728371 }, "geometry": { "type": "Point", "coordinates": [ 126.9597127819072, 37.477392012641808 ] } },
{ "type": "Feature", "properties": { "grid_id": 365, "node_id": "67913", "snap_distance_m": 59.145573765495946, "parks_within_10min": 15, "parks_within_15min": 18, "nearest_distance_m": 373.741, "index_right": 21761, "building_distance_m": 7.8928296931574122 }, "geometry": { "type": "Point", "coordinates": [ 126.959711572634163, 37.479644535609097 ] } },
{ "type": "Feature", "properties": { "grid_id": 366, "node_id": "67901", "snap_distance_m": 105.70609879385194, "parks_within_10min": 1, "parks_within_15min": 1, "nearest_distance_m": 609.122, "index_right": 13383, "building_distance_m": 2.1193110071460182 }, "geometry": { "type": "Point", "coordinates": [ 126.959710363226534, 37.481897057715443 ] } },
{ "type": "Feature", "properties": { "grid_id": 367, "node_id": "119595", "snap_distance_m": 247.12247856287118, "parks_within_10min": 0, "parks_within_15min": 1, "nearest_distance_m": 817.248, "index_right": 748, "building_distance_m": 20.598662532082155 }, "geometry": { "type": "Point", "coordinates": [ 126.959709153684287, 37.484149578960853 ] } },
{ "type": "Feature", "properties": { "grid_id": 368, "node_id": "83439", "snap_distance_m": 274.99048953114135, "parks_within_10min": 1, "parks_within_15min": 2, "nearest_distance_m": 55.372, "index_right": 13643, "building_distance_m": 20.430752852101755 }, "geometry": { "type": "Point", "coordinates": [ 126.959707944007391, 37.486402099345256 ] } },
{ "type": "Feature", "properties": { "grid_id": 369, "node_id": "83441", "snap_distance_m": 347.06488018463995, "parks_within_10min": 1, "parks_within_15min": 2, "nearest_distance_m": 0.0, "index_right": 28, "building_distance_m": 16.904750720702985 }, "geometry": { "type": "Point", "coordinates": [ 126.959706734195834, 37.488654618868686 ] } },
{ "type": "Feature", "properties": { "grid_id": 370, "node_id": "83209", "snap_distance_m": 472.9494821890068, "parks_within_10min": 1, "parks_within_15min": 2, "nearest_distance_m": 345.361, "index_right": 13936, "building_distance_m": 4.6746095369341258 }, "geometry": { "type": "Point", "coordinates": [ 126.959705524249628, 37.490907137531096 ] } },
{ "type": "Feature", "properties": { "grid_id": 371, "node_id": "83209", "snap_distance_m": 649.45389913839097, "parks_within_10min": 1, "parks_within_15min": 2, "nearest_distance_m": 345.361, "index_right": 5444, "building_distance_m": 17.681774765624791 }, "geometry": { "type": "Point", "coordinates": [ 126.959704314168718, 37.493159655332491 ] } },
{ "type": "Feature", "properties": { "grid_id": 384, "node_id": "68252", "snap_distance_m": 992.52134819272806, "parks_within_10min": 4, "parks_within_15min": 18, "nearest_distance_m": 0.0, "index_right": 1678, "building_distance_m": 9.6479966691517927 }, "geometry": { "type": "Point", "coordinates": [ 126.962543666373577, 37.468382841749239 ] } },
{ "type": "Feature", "properties": { "grid_id": 385, "node_id": "68252", "snap_distance_m": 773.36228613871401, "parks_within_10min": 4, "parks_within_15min": 18, "nearest_distance_m": 0.0, "index_right": 2943, "building_distance_m": 166.70130983646916 }, "geometry": { "type": "Point", "coordinates": [ 126.962542542438726, 37.470635368235328 ] } },
{ "type": "Feature", "properties": { "grid_id": 386, "node_id": "68252", "snap_distance_m": 579.72392103921834, "parks_within_10min": 4, "parks_within_15min": 18, "nearest_distance_m": 0.0, "index_right": 2842, "building_distance_m": 14.139258941878284 }, "geometry": { "type": "Point", "coordinates": [ 126.962541418378748, 37.472887893860566 ] } },
{ "type": "Feature", "properties": { "grid_id": 387, "node_id": "68009", "snap_distance_m": 358.20214856505589, "parks_within_10min": 15, "parks_within_15min": 18, "nearest_distance_m": 0.0, "index_right": 7510, "building_distance_m": 19.635553352531808 }, "geometry": { "type": "Point", "coordinates": [ 126.962540294193658, 37.47514041862491 ] } },
{ "type": "Feature", "properties": { "grid_id": 388, "node_id": "68009", "snap_distance_m": 145.53923804121467, "parks_within_10min": 15, "parks_within_15min": 18, "nearest_distance_m": 0.0, "index_right": 8952, "building_distance_m": 57.758899396155996 }, "geometry": { "type": "Point", "coordinates": [ 126.962539169883428, 37.477392942528347 ] } },
{ "type": "Feature", "properties": { "grid_id": 389, "node_id": "68032", "snap_distance_m": 84.105868814598054, "parks_within_10min": 15, "parks_within_15min": 18, "nearest_distance_m": 0.0, "index_right": 13572, "building_distance_m": 4.9485637730423386 }, "geometry": { "type": "Point", "coordinates": [ 126.962538045448042, 37.479645465570876 ] } },
{ "type": "Feature", "properties": { "grid_id": 390, "node_id": "67971", "snap_distance_m": 35.392511158084467, "parks_within_10min": 15, "parks_within_15min": 16, "nearest_distance_m": 73.981, "index_right": 6096, "building_distance_m": 37.613563671025339 }, "geometry": { "type": "Point", "coordinates": [ 126.962536920887487, 37.481897987752482 ] } },
{ "type": "Feature", "properties": { "grid_id": 400, "node_id": "68252", "snap_distance_m": 1121.5500563398418, "parks_within_10min": 4, "parks_within_15min": 18, "nearest_distance_m": 0.0, "index_right": 1679, "building_distance_m": 41.234322116232299 }, "geometry": { "type": "Point", "coordinates": [ 126.965369715218728, 37.468383703748124 ] } },
{ "type": "Feature", "properties": { "grid_id": 401, "node_id": "68009", "snap_distance_m": 915.17322141365673, "parks_within_10min": 15, "parks_within_15min": 18, "nearest_distance_m": 0.0, "index_right": 11118, "building_distance_m": 8.516204974967776 }, "geometry": { "type": "Point", "coordinates": [ 126.965368676083756, 37.470636230303981 ] } },
{ "type": "Feature", "properties": { "grid_id": 402, "node_id": "68009", "snap_distance_m": 693.11969800723807, "parks_within_10min": 15, "parks_within_15min": 18, "nearest_distance_m": 0.0, "index_right": 9363, "building_distance_m": 22.9988225671284 }, "geometry": { "type": "Point", "coordinates": [ 126.965367636833136, 37.472888755998959 ] } },
{ "type": "Feature", "properties": { "grid_id": 403, "node_id": "68009", "snap_distance_m": 498.28486464936884, "parks_within_10min": 15, "parks_within_15min": 18, "nearest_distance_m": 0.0, "index_right": 7496, "building_distance_m": 19.263451078667643 }, "geometry": { "type": "Point", "coordinates": [ 126.965366597466797, 37.475141280833078 ] } },
{ "type": "Feature", "properties": { "grid_id": 404, "node_id": "68030", "snap_distance_m": 367.27451438134653, "parks_within_10min": 15, "parks_within_15min": 18, "nearest_distance_m": 0.0, "index_right": 16768, "building_distance_m": 7.5502604138387799 }, "geometry": { "type": "Point", "coordinates": [ 126.965365557984796, 37.477393804806276 ] } },
{ "type": "Feature", "properties": { "grid_id": 413, "node_id": "68009", "snap_distance_m": 1250.8589695571889, "parks_within_10min": 15, "parks_within_15min": 18, "nearest_distance_m": 0.0, "index_right": 1713, "building_distance_m": 46.870960432167458 }, "geometry": { "type": "Point", "coordinates": [ 126.968195764179555, 37.468384498160269 ] } },
{ "type": "Feature", "properties": { "grid_id": 414, "node_id": "68009", "snap_distance_m": 1040.4427193722236, "parks_within_10min": 15, "parks_within_15min": 18, "nearest_distance_m": 0.0, "index_right": 3953, "building_distance_m": 10.298473536263403 }, "geometry": { "type": "Point", "coordinates": [ 126.968194809844491, 37.470637024780402 ] } },
{ "type": "Feature", "properties": { "grid_id": 415, "node_id": "68009", "snap_distance_m": 851.70061809749927, "parks_within_10min": 15, "parks_within_15min": 18, "nearest_distance_m": 0.0, "index_right": 15180, "building_distance_m": 6.33091183058393 }, "geometry": { "type": "Point", "coordinates": [ 126.9681938554032, 37.472889550539676 ] } },
{ "type": "Feature", "properties": { "grid_id": 416, "node_id": "68009", "snap_distance_m": 702.32957608280833, "parks_within_10min": 15, "parks_within_15min": 18, "nearest_distance_m": 0.0, "index_right": 7509, "building_distance_m": 10.558206139857692 }, "geometry": { "type": "Point", "coordinates": [ 126.968192900855669, 37.475142075438072 ] } },
{ "type": "Feature", "properties": { "grid_id": 424, "node_id": "68009", "snap_distance_m": 1390.9087636591014, "parks_within_10min": 15, "parks_within_15min": 18, "nearest_distance_m": 0.0, "index_right": 10623, "building_distance_m": 111.66270449460397 }, "geometry": { "type": "Point", "coordinates": [ 126.971021813246566, 37.468385224985653 ] } },
{ "type": "Feature", "properties": { "grid_id": 425, "node_id": "68009", "snap_distance_m": 1205.1971122586897, "parks_within_10min": 15, "parks_within_15min": 18, "nearest_distance_m": 0.0, "index_right": 4082, "building_distance_m": 74.123254843995369 }, "geometry": { "type": "Point", "coordinates": [ 126.971020943711437, 37.470637751664597 ] } },
{ "type": "Feature", "properties": { "grid_id": 426, "node_id": "68009", "snap_distance_m": 1046.6006735950821, "parks_within_10min": 15, "parks_within_15min": 18, "nearest_distance_m": 0.0, "index_right": 3850, "building_distance_m": 10.146591862904867 }, "geometry": { "type": "Point", "coordinates": [ 126.971020074079505, 37.472890277482698 ] } },
{ "type": "Feature", "properties": { "grid_id": 427, "node_id": "68030", "snap_distance_m": 925.87273200965001, "parks_within_10min": 15, "parks_within_15min": 18, "nearest_distance_m": 0.0, "index_right": 6555, "building_distance_m": 47.303155841763456 }, "geometry": { "type": "Point", "coordinates": [ 126.971019204350796, 37.475142802439912 ] } },
{ "type": "Feature", "properties": { "grid_id": 435, "node_id": "68009", "snap_distance_m": 1395.5210878015073, "parks_within_10min": 15, "parks_within_15min": 18, "nearest_distance_m": 0.0, "index_right": 3238, "building_distance_m": 58.828163388221796 }, "geometry": { "type": "Point", "coordinates": [ 126.97384707767516, 37.470638410956546 ] } },
{ "type": "Feature", "properties": { "grid_id": 436, "node_id": "68009", "snap_distance_m": 1261.0915894857508, "parks_within_10min": 15, "parks_within_15min": 18, "nearest_distance_m": 0.0, "index_right": 3461, "building_distance_m": 4.4285131758704468 }, "geometry": { "type": "Point", "coordinates": [ 126.973846292852613, 37.472890936828001 ] } },
{ "type": "Feature", "properties": { "grid_id": 437, "node_id": "68032", "snap_distance_m": 1153.6926039612185, "parks_within_10min": 15, "parks_within_15min": 18, "nearest_distance_m": 0.0, "index_right": 19433, "building_distance_m": 5.0684522480326395 }, "geometry": { "type": "Point", "coordinates": [ 126.973845507942698, 37.475143461838563 ] } },
{ "type": "Feature", "properties": { "grid_id": 444, "node_id": "68009", "snap_distance_m": 1602.3289717160828, "parks_within_10min": 15, "parks_within_15min": 18, "nearest_distance_m": 0.0, "index_right": 3341, "building_distance_m": 104.80237978791902 }, "geometry": { "type": "Point", "coordinates": [ 126.976673211726236, 37.47063900265627 ] } },
{ "type": "Feature", "properties": { "grid_id": 445, "node_id": "68030", "snap_distance_m": 1484.7862010552133, "parks_within_10min": 15, "parks_within_15min": 18, "nearest_distance_m": 0.0, "index_right": 3826, "building_distance_m": 43.583512083967527 }, "geometry": { "type": "Point", "coordinates": [ 126.976672511713062, 37.472891528575609 ] } },
{ "type": "Feature", "properties": { "grid_id": 446, "node_id": "68032", "snap_distance_m": 1387.654730655584, "parks_within_10min": 15, "parks_within_15min": 18, "nearest_distance_m": 0.0, "index_right": 3104, "building_distance_m": 12.499717685052826 }, "geometry": { "type": "Point", "coordinates": [ 126.976671811621998, 37.475144053634047 ] } },
{ "type": "Feature", "properties": { "grid_id": 453, "node_id": "68009", "snap_distance_m": 1820.0102089556358, "parks_within_10min": 15, "parks_within_15min": 18, "nearest_distance_m": 0.0, "index_right": 4012, "building_distance_m": 113.8368520617918 }, "geometry": { "type": "Point", "coordinates": [ 126.979499345855245, 37.47063952676374 ] } },
{ "type": "Feature", "properties": { "grid_id": 454, "node_id": "68032", "snap_distance_m": 1711.8624471807589, "parks_within_10min": 15, "parks_within_15min": 18, "nearest_distance_m": 0.0, "index_right": 15574, "building_distance_m": 21.946433960796341 }, "geometry": { "type": "Point", "coordinates": [ 126.979498730651457, 37.472892052725484 ] } },
{ "type": "Feature", "properties": { "grid_id": 455, "node_id": "68032", "snap_distance_m": 1626.3962243521182, "parks_within_10min": 15, "parks_within_15min": 18, "nearest_distance_m": 0.0, "index_right": 3100, "building_distance_m": 4.8771412704520536 }, "geometry": { "type": "Point", "coordinates": [ 126.979498115379187, 37.475144577826327 ] } },
{ "type": "Feature", "properties": { "grid_id": 462, "node_id": "68030", "snap_distance_m": 2043.7562990261172, "parks_within_10min": 15, "parks_within_15min": 18, "nearest_distance_m": 0.0, "index_right": 3301, "building_distance_m": 174.47221683859627 }, "geometry": { "type": "Point", "coordinates": [ 126.982325480052694, 37.470639983278957 ] } },
{ "type": "Feature", "properties": { "grid_id": 463, "node_id": "68032", "snap_distance_m": 1942.9493213009187, "parks_within_10min": 15, "parks_within_15min": 18, "nearest_distance_m": 0.0, "index_right": 2871, "building_distance_m": 32.860432127977084 }, "geometry": { "type": "Point", "coordinates": [ 126.982324949658334, 37.472892509277614 ] } }
]
}
